name,category,x,y,address,place_url
공산칼국수,음식점,128.7141311,36.05466238,경북 영천시 신녕면 치산관광길 193,http://place.map.kakao.com/18496405
소원식당,음식점,128.7136783,36.05383984,경북 영천시 신녕면 치산관광길 203,http://place.map.kakao.com/9152946
돌담식당 치산미나리 10호점,음식점,128.7161983,36.0568495,경북 영천시 신녕면 치산관광길 162,http://place.map.kakao.com/1371209567
치산닭오리마을,음식점,128.7281704,36.06193627,경북 영천시 신녕면 치산관광길 33,http://place.map.kakao.com/16238495
부린치산방가로농원,음식점,128.7283586,36.06323474,경북 영천시 신녕면 치산관광길 22,http://place.map.kakao.com/18553737
남경오리,음식점,128.7776625,36.04592263,경북 영천시 신녕면 치산효령로 98,http://place.map.kakao.com/22550830
신령역돔양식장횟집,음식점,128.78399,36.04074645,경북 영천시 신녕면 찰방길 58,http://place.map.kakao.com/9169902
진학식당,음식점,128.7820324,36.0434329,경북 영천시 신녕면 치산효령로 49,http://place.map.kakao.com/1654664092
별빛숯불 꼼장어아나고,음식점,128.7884185,36.03895037,경북 영천시 신녕면 장수로 1649,http://place.map.kakao.com/1545624101
한우진식육식당,음식점,128.7893812,36.03624174,경북 영천시 신녕면 장수로 1617,http://place.map.kakao.com/1773500925
카페분식,음식점,128.7887812,36.03723198,경북 영천시 신녕면 장수로 1629,http://place.map.kakao.com/1480382049
장수식당,음식점,128.7894608,36.03608015,경북 영천시 신녕면 장수로 1617,http://place.map.kakao.com/16525977
세종식당,음식점,128.7885885,36.03705103,경북 영천시 신녕면 구디티길 6,http://place.map.kakao.com/868822102
자매식당,음식점,128.7882986,36.0397343,경북 영천시 신녕면 장수로 1657,http://place.map.kakao.com/19332068
BHC치킨 영천신녕점,음식점,128.7879595,36.04171365,경북 영천시 신녕면 장수로 1681,http://place.map.kakao.com/1335563469
삼포추어탕,음식점,128.787542,36.04199471,경북 영천시 신녕면 본관시장길 3,http://place.map.kakao.com/9092475
해용반점,음식점,128.7870879,36.0453175,경북 영천시 신녕면 장수로 1719-4,http://place.map.kakao.com/1428123879
연지분식,음식점,128.7882989,36.03969916,경북 영천시 신녕면 장수로 1657,http://place.map.kakao.com/1130855308
치킨왕,음식점,128.7871001,36.04354938,경북 영천시 신녕면 치산효령로 6,http://place.map.kakao.com/1314125057
어부지리해물탕,음식점,128.7869668,36.04265928,경북 영천시 신녕면 본관시장길 29,http://place.map.kakao.com/306227345
고향찐빵만두,음식점,128.7884456,36.04034756,경북 영천시 신녕면 장수로 1666,http://place.map.kakao.com/2021785856
신녕통닭,음식점,128.7874926,36.0413791,경북 영천시 신녕면 본관시장길 3,http://place.map.kakao.com/20203830
중국성,음식점,128.7878843,36.04201844,경북 영천시 신녕면 장수로 1683,http://place.map.kakao.com/11481934
고향떡집,음식점,128.7873681,36.04097727,경북 영천시 신녕면 본관시장길 9-1,http://place.map.kakao.com/10262636
가온,음식점,128.787805,36.04602047,경북 영천시 신녕면 신화로 15-13,http://place.map.kakao.com/1901047627
부산식당,음식점,128.7873773,36.04413095,경북 영천시 신녕면 장수로 1710,http://place.map.kakao.com/9040051
푸른농원,음식점,128.7854048,36.05033102,경북 영천시 신녕면 장수로 1782-5,http://place.map.kakao.com/16700149
따뜻한밥집,음식점,128.7870687,36.04427252,경북 영천시 신녕면 장수로 1709-3,http://place.map.kakao.com/2035091168
갑티매운탕추어탕,음식점,128.7858499,36.0490124,경북 영천시 신녕면 장수로 1765,http://place.map.kakao.com/15910623
꼬꼬두마리치킨,음식점,128.787439,36.04313162,경북 영천시 신녕면 장수로 1697,http://place.map.kakao.com/11024323
녹수구이,음식점,128.7877598,36.04455777,경북 영천시 신녕면 장수로 1716-8,http://place.map.kakao.com/26137322
맛고을,음식점,128.7860015,36.04860105,경북 영천시 신녕면 장수로 1761,http://place.map.kakao.com/1764071681
보배식당,음식점,128.7872459,36.04371571,경북 영천시 신녕면 장수로 1703-2,http://place.map.kakao.com/1642396147
새벽시장,음식점,128.7874929,36.04379493,경북 영천시 신녕면 장수로 1704,http://place.map.kakao.com/1643202896
정가네감자탕해장국,음식점,128.7901697,36.03534509,경북 영천시 신녕면 장수로 1607,http://place.map.kakao.com/285386819
모티선지해장국,음식점,128.7894698,36.03608543,경북 영천시 신녕면 장수로 1617,http://place.map.kakao.com/1786754934
전국수산 1호점,음식점,128.7894698,36.03608543,경북 영천시 신녕면 장수로 1617,http://place.map.kakao.com/959358253
짬뽕전문점,음식점,128.7897655,36.03591701,경북 영천시 신녕면 장수로 1611,http://place.map.kakao.com/355382870
보배식당,음식점,128.7911778,36.03449652,경북 영천시 신녕면 장수로 1589,http://place.map.kakao.com/505057347
가마솥염소탕,음식점,128.7901841,36.03534397,경북 영천시 신녕면 장수로 1607,http://place.map.kakao.com/1300618080
민이네인생짬뽕,음식점,128.790292,36.03526036,경북 영천시 신녕면 장수로 1607,http://place.map.kakao.com/407223889
강희네식당,음식점,128.790183,36.03534489,경북 영천시 신녕면 장수로 1607,http://place.map.kakao.com/1830763742
달콤한 밥상,음식점,128.790183,36.03534489,경북 영천시 신녕면 장수로 1607,http://place.map.kakao.com/2126537219
한들가든,음식점,128.7911491,36.03508897,경북 영천시 신녕면 장수로 1600,http://place.map.kakao.com/14676477
팔공산식당,음식점,128.7964867,35.99029411,경북 영천시 청통면 은해사로 208-28,http://place.map.kakao.com/26984161
명가정,음식점,128.7972322,35.99001712,경북 영천시 청통면 은해사로 208-21,http://place.map.kakao.com/1185410317
진미원,음식점,128.7970789,35.99000409,경북 영천시 청통면 은해사로 208-23,http://place.map.kakao.com/360667334
은해사미정식당,음식점,128.7976884,35.99008507,경북 영천시 청통면 은해사로 208-15,http://place.map.kakao.com/17864170
은혜사육해공식당,음식점,128.7975409,35.99008458,경북 영천시 청통면 은해사로 208-17,http://place.map.kakao.com/987198293
솔밭식당,음식점,128.7968434,35.99032841,경북 영천시 청통면 은해사로 208-24,http://place.map.kakao.com/20089817
대구식당,음식점,128.7973404,35.99038945,경북 영천시 청통면 은해사로 208-20,http://place.map.kakao.com/24119130
성림식당,음식점,128.7974325,35.99043763,경북 영천시 청통면 은해사로 208-18,http://place.map.kakao.com/12178708
와촌골,음식점,128.7988792,35.98481112,경북 영천시 청통면 대동로 315-10,http://place.map.kakao.com/635442401
경산식당,음식점,128.7965898,35.98995015,경북 영천시 청통면 은해사로 208-29,http://place.map.kakao.com/10178398
신녕만남휴게소,음식점,128.7927313,36.03773976,경북 영천시 신녕면 완전공단길 2,http://place.map.kakao.com/488835579
신풍숯불돼지갈비,음식점,128.7889176,36.03982599,경북 영천시 신녕면 완전3길 9,http://place.map.kakao.com/1642830463
한성식당,음식점,128.7882544,36.04013505,경북 영천시 신녕면 장수로 1663,http://place.map.kakao.com/16230269
신아랑정반점,음식점,128.7884479,36.04358875,경북 영천시 신녕면 화성중앙길 11,http://place.map.kakao.com/12521835
깟방못대나무집,음식점,128.8030292,35.98627706,경북 영천시 청통면 대동로 362,http://place.map.kakao.com/37237133
토방청,음식점,128.8001713,35.99219874,경북 영천시 청통면 은해사로 186,http://place.map.kakao.com/24529687
국수가,음식점,128.7883007,36.04149591,경북 영천시 신녕면 장수로 1678,http://place.map.kakao.com/254309612
순남이국수,음식점,128.7874167,36.04332209,경북 영천시 신녕면 장수로 1699,http://place.map.kakao.com/334617698
또래분식,음식점,128.7881358,36.04234629,경북 영천시 신녕면 장수로 1686-1,http://place.map.kakao.com/8940761
5초실내포차,음식점,128.7883478,36.04313429,경북 영천시 신녕면 화성중앙길 8,http://place.map.kakao.com/1444296928
숙이네,음식점,128.7882969,36.04211051,경북 영천시 신녕면 장수로 1684-1,http://place.map.kakao.com/2021031545
가을의전설,음식점,128.8064916,35.99161712,경북 영천시 청통면 치일들길 133-15,http://place.map.kakao.com/8124268
소라식당,음식점,128.807885,35.99398222,경북 영천시 청통면 은해사로 112,http://place.map.kakao.com/13012834
어부지리,음식점,128.8100685,35.99438181,경북 영천시 청통면 은해사로 92,http://place.map.kakao.com/1904878655
현다향,음식점,128.8058124,36.01604879,경북 영천시 청통면 금송로 1304,http://place.map.kakao.com/149050725
또봉이통닭 경북영천청통점,음식점,128.8097973,35.99420568,경북 영천시 청통면 은해사로 94,http://place.map.kakao.com/27207271
대가대청통수련원 식당,음식점,128.8065813,35.99088408,경북 영천시 청통면 치일들길 133-17,http://place.map.kakao.com/15625239
궁전식당,음식점,128.8186742,35.97418965,경북 영천시 청통면 관방길 50,http://place.map.kakao.com/16526214
고향반점왕짜장,음식점,128.8201515,35.99429768,경북 영천시 청통면 금송로 1011,http://place.map.kakao.com/8193274
양마니명동찌개마을,음식점,128.8213831,35.99153606,경북 영천시 청통면 부흥길 22-6,http://place.map.kakao.com/2029502940
시골밥상,음식점,128.8183513,35.99601274,경북 영천시 청통면 애련길 2,http://place.map.kakao.com/1063872180
팔공숯불가든,음식점,128.818602,35.99606481,경북 영천시 청통면 은해사로 14,http://place.map.kakao.com/10882914
닭마을,음식점,128.8201615,35.99415336,경북 영천시 청통면 금송로 1011,http://place.map.kakao.com/17148924
런던피자&바베큐,음식점,128.8183358,35.99601027,경북 영천시 청통면 애련길 2,http://place.map.kakao.com/1064029530
정코다리 영천은해사점,음식점,128.8203936,35.99643411,경북 영천시 청통면 금송로 1038,http://place.map.kakao.com/283442863
엄마보리밥,음식점,128.8195373,35.99589203,경북 영천시 청통면 은해사로 6,http://place.map.kakao.com/654857560
쉼터식당,음식점,128.8223695,35.96558036,경북 영천시 청통면 송천공단길 6,http://place.map.kakao.com/17101890
마당넓은집,음식점,128.8223125,35.97602313,경북 영천시 청통면 월성길 7-8,http://place.map.kakao.com/19774807
청통식당,음식점,128.8236246,35.98934568,경북 영천시 청통면 금송로 948,http://place.map.kakao.com/821597012
BHC치킨 영천청통점,음식점,128.8229862,35.98988703,경북 영천시 청통면 금송로 953-1,http://place.map.kakao.com/787447171
명가식당,음식점,128.8236021,35.98976323,경북 영천시 청통면 금송로 952-2,http://place.map.kakao.com/1416409836
대박골뼈해장국,음식점,128.8233471,35.99125842,경북 영천시 청통면 금송로 968,http://place.map.kakao.com/22304563
한양왕족발 통닭찜닭,음식점,128.8235093,35.99107844,경북 영천시 청통면 금송로 968-4,http://place.map.kakao.com/1939546557
별빛한우식육식당,음식점,128.8263422,35.99468565,경북 영천시 청통면 청통로 625,http://place.map.kakao.com/978716380
한마을 핫 돈까스,음식점,128.8386972,36.01976067,경북 영천시 화산면 장수로 1084,http://place.map.kakao.com/11216455
해성식육식당,음식점,128.8550115,36.01864071,경북 영천시 화산면 장수로 934,http://place.map.kakao.com/10923832
코바코 청통휴게소대구방향점,음식점,128.8590564,35.99388202,경북 영천시 청통면 청통로 334-42,http://place.map.kakao.com/26094970
로띠번 청통휴게소대구방향점,음식점,128.8591346,35.9939556,경북 영천시 청통면 청통로 334-42,http://place.map.kakao.com/24977473
명동칼국수 청통휴게소대구방향점,음식점,128.8592181,35.99392187,경북 영천시 청통면 청통로 334-42,http://place.map.kakao.com/526006870
화산반점,음식점,128.8565077,36.01830398,경북 영천시 화산면 장수로 919,http://place.map.kakao.com/10055426
화산식육식당,음식점,128.8555712,36.01828964,경북 영천시 화산면 장수로 927,http://place.map.kakao.com/10106265
장모님치킨,음식점,128.8562364,36.01856138,경북 영천시 화산면 장수로 922,http://place.map.kakao.com/9360800
뿅뿅치킨&호프 영천화산점,음식점,128.8559239,36.01857253,경북 영천시 화산면 장수로 924,http://place.map.kakao.com/8339886
짱손칼국수,음식점,128.8559379,36.01855609,경북 영천시 화산면 장수로 924,http://place.map.kakao.com/307729908
초원숯불갈비,음식점,128.8566403,36.01884978,경북 영천시 화산면 유성길 5,http://place.map.kakao.com/21478664
옛날돼지국밥,음식점,128.8614052,36.01818479,경북 영천시 화산면 화산공단길 2,http://place.map.kakao.com/213969118
금호랜드식당,음식점,128.8588833,35.92082329,경북 영천시 금호읍 대구대길 572,http://place.map.kakao.com/21506236
북창동순두부 사일온천점,음식점,128.8705563,35.97342155,경북 영천시 사일로 458-64,http://place.map.kakao.com/149257032
무라무라,음식점,128.8705563,35.97342155,경북 영천시 사일로 458-64,http://place.map.kakao.com/1323733858
모임의집,음식점,128.8680477,35.98804654,경북 영천시 청통면 청통로 228,http://place.map.kakao.com/16923810
금호할매추어탕,음식점,128.8668802,35.9301859,경북 영천시 금호읍 금호로 45-2,http://place.map.kakao.com/18422675
고을마당 영천금호점,음식점,128.8652972,35.92981944,경북 영천시 금호읍 금호로 31-1,http://place.map.kakao.com/1203783359
고향맛어탕국수전문점,음식점,128.8660912,35.92999272,경북 영천시 금호읍 금호로 39,http://place.map.kakao.com/625419236
어탕국수 금호점,음식점,128.8651761,35.9294762,경북 영천시 금호읍 금호로 30,http://place.map.kakao.com/13316425
복식당,음식점,128.865748,35.92990794,경북 영천시 금호읍 금호로 35-1,http://place.map.kakao.com/21490458
간판없는식당,음식점,128.86435,35.92982514,경북 영천시 금호읍 금호로 23-4,http://place.map.kakao.com/9696159
영천축산농협 한우프라자,음식점,128.8695263,35.93396534,경북 영천시 금호읍 대경로 1244,http://place.map.kakao.com/11568004
인과인,음식점,128.8708466,35.93305629,경북 영천시 금호읍 교대길 25,http://place.map.kakao.com/21274903
파리바게뜨 영천금호점,음식점,128.8716271,35.93161949,경북 영천시 금호읍 교대길 7,http://place.map.kakao.com/1060736551
금호기사식당,음식점,128.8686201,35.93387853,경북 영천시 금호읍 대경로 1236,http://place.map.kakao.com/15679839
BHC치킨 영천금호점,음식점,128.8715361,35.93217598,경북 영천시 금호읍 교대길 13-1,http://place.map.kakao.com/717352447
태화루,음식점,128.8703328,35.93377256,경북 영천시 금호읍 교대길 33-3,http://place.map.kakao.com/20196531
가든국밥,음식점,128.8656879,35.93357453,경북 영천시 금호읍 대경로 1211,http://place.map.kakao.com/12603736
강남한우식육식당,음식점,128.8746667,35.93187391,경북 영천시 금호읍 금호로 119,http://place.map.kakao.com/10131443
잔치집촌국수 영천점,음식점,128.8701255,35.93419029,경북 영천시 금호읍 대경로 1250,http://place.map.kakao.com/10738918
하양할매곰탕,음식점,128.8736859,35.93162971,경북 영천시 금호읍 금호로 109-1,http://place.map.kakao.com/14532862
금호반점,음식점,128.8731942,35.93530213,경북 영천시 금호읍 대경로 1280,http://place.map.kakao.com/462556694
화산돼지찌개 금호점,음식점,128.8709017,35.93398085,경북 영천시 금호읍 교대용대길 1,http://place.map.kakao.com/1539020654
대나무숲유황오리,음식점,128.8691023,35.94381188,경북 영천시 금호읍 성천앞길 41,http://place.map.kakao.com/15599206
BBQ 영천금호점,음식점,128.8701459,35.93261126,경북 영천시 금호읍 덕성길 12,http://place.map.kakao.com/1693683310
동호식당,음식점,128.8712423,35.93437833,경북 영천시 금호읍 교대용대길 7-9,http://place.map.kakao.com/16469625
고향식당,음식점,128.8764306,35.99407189,경북 영천시 청통면 청통로 118,http://place.map.kakao.com/667794477
대복떡집,음식점,128.8735325,35.93132574,경북 영천시 금호읍 금호로 108,http://place.map.kakao.com/11638677
호식이두마리치킨 금호점,음식점,128.8733699,35.93194823,경북 영천시 금호읍 금호시장길 44,http://place.map.kakao.com/8663535
땅땅치킨 영천금호점,음식점,128.8718177,35.93119931,경북 영천시 금호읍 금호로 93,http://place.map.kakao.com/18248167
분식하우스아찌,음식점,128.8738449,35.93141818,경북 영천시 금호읍 금호로 112,http://place.map.kakao.com/1117048986
타이짬뽕 금호점,음식점,128.8785456,35.93313786,경북 영천시 금호읍 금호로 157,http://place.map.kakao.com/2018912004
한식마당,음식점,128.8762023,35.93290239,경북 영천시 금호읍 교대4길 30,http://place.map.kakao.com/1716801106
담은산장,음식점,128.8794442,35.94581836,경북 영천시 금호읍 성천앞길 135-12,http://place.map.kakao.com/107917387
우천전원식당,음식점,128.8826956,35.998461,경북 영천시 청통면 청통로 43,http://place.map.kakao.com/1124275432
행운식당,음식점,128.877714,36.00872863,경북 영천시 화산면 장수로 684,http://place.map.kakao.com/12198231
천지케이터링,음식점,128.8857952,35.9195213,경북 영천시 금호읍 금창로 165,http://place.map.kakao.com/21539724
청년순대국,음식점,128.8781288,35.93251903,경북 영천시 금호읍 금호로 152,http://place.map.kakao.com/1707203398
민수산,음식점,128.8770579,35.93239972,경북 영천시 금호읍 금호로 141-1,http://place.map.kakao.com/401615173
조원국수김밥,음식점,128.8737134,35.93138329,경북 영천시 금호읍 금호로 110-1,http://place.map.kakao.com/24635268
불타는저팔계,음식점,128.8762159,35.93315088,경북 영천시 금호읍 교대2길 16,http://place.map.kakao.com/1649001551
개성순대돼지국밥,음식점,128.8851201,36.00193001,경북 영천시 청통면 장수로 572,http://place.map.kakao.com/8738372
삼거리식당,음식점,128.8846078,36.0015578,경북 영천시 화산면 청통로 4,http://place.map.kakao.com/1073065788
산동성왕손짜장,음식점,128.8871853,35.87604775,경북 영천시 대창면 금박로 975,http://place.map.kakao.com/8407735
신미숯불,음식점,128.8897192,35.87514284,경북 영천시 대창면 금박로 1000,http://place.map.kakao.com/8438247
한마당,음식점,128.8872224,35.88750191,경북 영천시 대창면 강회1길 19-4,http://place.map.kakao.com/606796865
만평식당,음식점,128.8911142,35.88669096,경북 영천시 대창면 금창로 547,http://place.map.kakao.com/17076163
현주네식당,음식점,128.8891114,35.89187766,경북 영천시 대창면 금창로 482-1,http://place.map.kakao.com/946299170
사계절보신탕,음식점,128.889002,35.89901516,경북 영천시 금호읍 금창로 404,http://place.map.kakao.com/9063376
종동제과,음식점,128.8915445,35.90644699,경북 영천시 금호읍 종동길 32-5,http://place.map.kakao.com/10090124
맥시칸치킨 금호점,음식점,128.8780254,35.93245847,경북 영천시 금호읍 금호로 150,http://place.map.kakao.com/9028216
우리식육식당,음식점,128.8794398,35.93299951,경북 영천시 금호읍 금호로 166,http://place.map.kakao.com/803728703
김복남맥주 영천금호점,음식점,128.8765756,35.93238653,경북 영천시 금호읍 금호로 137-1,http://place.map.kakao.com/227479733
까꾸리식당,음식점,128.8768821,35.93204023,경북 영천시 금호읍 금호로 140,http://place.map.kakao.com/1261570314
장안식당,음식점,128.8799828,35.933237,경북 영천시 금호읍 금호로 172,http://place.map.kakao.com/1648981077
꺽정이콩국수,음식점,128.8793037,35.93333324,경북 영천시 금호읍 금호로 165,http://place.map.kakao.com/27399597
평화식육식당,음식점,128.8784728,35.93277676,경북 영천시 금호읍 금호로 156,http://place.map.kakao.com/16000994
보성 추어탕고디탕 매기매운탕,음식점,128.879422,35.93299618,경북 영천시 금호읍 금호로 166,http://place.map.kakao.com/15891087
찬샘식당,음식점,128.8872447,35.93455305,경북 영천시 금호읍 찬샘3길 17,http://place.map.kakao.com/1138124583
미정식당,음식점,128.8760502,35.93284349,경북 영천시 금호읍 금호시장길 14-3,http://place.map.kakao.com/8313063
정성어탕 본점,음식점,128.8930425,36.05250429,경북 영천시 화남면 천문로 1506,http://place.map.kakao.com/634891124
별빛순두부,음식점,128.893661,36.05233863,경북 영천시 화남면 천문로 1502-7,http://place.map.kakao.com/1115804038
들꽃,음식점,128.8933725,36.05687649,경북 영천시 화남면 학지길 34-25,http://place.map.kakao.com/138119287
원조영천돌메기매운탕 영천본점,음식점,128.8919874,36.06016025,경북 영천시 화남면 천문로 1598,http://place.map.kakao.com/1028347826
자연숯불갈비식육점,음식점,128.8917255,36.06002111,경북 영천시 화남면 천문로 1595,http://place.map.kakao.com/17331934
통큰고깃집,음식점,128.8904712,36.05963722,경북 영천시 화남면 신화로 1211,http://place.map.kakao.com/614269884
삼창치킨,음식점,128.8922756,36.06093242,경북 영천시 화남면 천문로 1608,http://place.map.kakao.com/1301729171
명인제빵소,음식점,128.8920462,36.06094686,경북 영천시 화남면 천문로 1607,http://place.map.kakao.com/1013632228
강산구이,음식점,128.892459,36.06136114,경북 영천시 화남면 천문로 1612-2,http://place.map.kakao.com/8734308
손칼국수,음식점,128.8921789,36.06060506,경북 영천시 화남면 천문로 1604,http://place.map.kakao.com/978938611
장모식육식당,음식점,128.8923277,36.06070002,경북 영천시 화남면 천문로 1606-1,http://place.map.kakao.com/21499513
충청도아줌마,음식점,128.8916879,36.05988835,경북 영천시 화남면 천문로 1595,http://place.map.kakao.com/1646188143
황소식당,음식점,128.8922395,36.06141687,경북 영천시 화남면 천문로 1613,http://place.map.kakao.com/27594730
물자리매운탕,음식점,128.8934395,36.06411735,경북 영천시 화남면 현고길 9,http://place.map.kakao.com/1445706512
감포참가자미식당,음식점,128.8928627,36.06227836,경북 영천시 화남면 천문로 1624-1,http://place.map.kakao.com/1325558617
7080막창,음식점,128.8931734,36.0626474,경북 영천시 화남면 천문로 1628,http://place.map.kakao.com/1618800558
정든식당,음식점,128.8950419,35.87530767,경북 영천시 대창면 금박로 1051,http://place.map.kakao.com/10719592
형제식당,음식점,128.8946182,35.87499627,경북 영천시 대창면 금박로 1047,http://place.map.kakao.com/16281461
수정식당,음식점,128.8951803,35.87535234,경북 영천시 대창면 금박로 1053,http://place.map.kakao.com/8425109
짬뽕차이나,음식점,128.8922494,35.88292813,경북 영천시 대창면 금창로 588,http://place.map.kakao.com/88616807
산동왕짜장,음식점,128.8957342,35.87694575,경북 영천시 대창면 금창로 663,http://place.map.kakao.com/2065146159
대창식당,음식점,128.894363,35.87799193,경북 영천시 대창면 금창로 648-1,http://place.map.kakao.com/16228205
참조은식당,음식점,128.8953865,35.87619972,경북 영천시 대창면 금창로 672-10,http://place.map.kakao.com/15935900
용명식당,음식점,128.8955709,35.87557686,경북 영천시 대창면 금박로 1057,http://place.map.kakao.com/21499828
은해식당,음식점,128.8954887,35.87584488,경북 영천시 대창면 금창로 672-9,http://place.map.kakao.com/832511647
대창돼지국밥,음식점,128.8922229,35.8829799,경북 영천시 대창면 금창로 588,http://place.map.kakao.com/920620246
만석궁식당,음식점,128.8953508,35.87600204,경북 영천시 대창면 금창로 672-11,http://place.map.kakao.com/18730717
새토담구이,음식점,128.8955693,35.87606708,경북 영천시 대창면 금창로 672-7,http://place.map.kakao.com/15580125
송정코다리찜,음식점,128.8913603,35.88642217,경북 영천시 대창면 금창로 549-2,http://place.map.kakao.com/1280056081
가람숯불회,음식점,128.8917989,35.88502847,경북 영천시 대창면 금창로 567,http://place.map.kakao.com/1717047727
콩사랑,음식점,128.8967277,35.91979237,경북 영천시 금호읍 어은길 127,http://place.map.kakao.com/456095652
금호참숯뒷고기,음식점,128.8842689,35.93479805,경북 영천시 금호읍 금호로 213,http://place.map.kakao.com/16294017
중앙반점,음식점,128.8781989,35.93262606,경북 영천시 금호읍 금호로 152-1,http://place.map.kakao.com/9996701
청기와,음식점,128.8775641,35.93215752,경북 영천시 금호읍 거여로 2,http://place.map.kakao.com/1556396083
윤씨네반점,음식점,128.8962366,35.94055582,경북 영천시 금호읍 금호로 337-12,http://place.map.kakao.com/1515813406
신일식당,음식점,128.879489,35.93301676,경북 영천시 금호읍 금호로 166,http://place.map.kakao.com/9178679
서산미풍식당,음식점,128.8980188,35.98150899,경북 영천시 서운길 24-1,http://place.map.kakao.com/2134667320
청호한우식당,음식점,128.894518,35.99389925,경북 영천시 청통면 장수로 447,http://place.map.kakao.com/16281493
봉산식당,음식점,128.8955658,36.064391,경북 영천시 화남면 천문로 1656,http://place.map.kakao.com/1065904674
전가네손짜장,음식점,128.8987321,36.06674763,경북 영천시 화남면 천문로 1697,http://place.map.kakao.com/781746245
WHC치킨,음식점,128.8999085,36.06748318,경북 영천시 화남면 천문로 1709-1,http://place.map.kakao.com/1088183454
은행나무집,음식점,128.896056,36.07676665,경북 영천시 화남면 한천길 166,http://place.map.kakao.com/11318220
다금,음식점,128.8978022,35.87299151,경북 영천시 대창면 금창로 706-8,http://place.map.kakao.com/731772031
대창골식육식당,음식점,128.8972773,35.8741478,경북 영천시 대창면 대창시장길 27,http://place.map.kakao.com/1353552582
밥이술술,음식점,128.8964525,35.87461228,경북 영천시 대창면 대창시장길 14,http://place.map.kakao.com/1532040681
포항식육식당,음식점,128.8968268,35.8751281,경북 영천시 대창면 금창로 685-1,http://place.map.kakao.com/14498698
어은감나무집,음식점,128.8975084,35.91889967,경북 영천시 금호읍 어은길 142-2,http://place.map.kakao.com/9226830
전원숯불 영천본점,음식점,128.8982932,35.94115857,경북 영천시 금호읍 원제1길 4,http://place.map.kakao.com/9384703
오복성,음식점,128.8980249,35.94087447,경북 영천시 금호읍 원제1길 5,http://place.map.kakao.com/1140980127
보백관 영천점,음식점,128.898531,35.94118995,경북 영천시 금호읍 금호로 361,http://place.map.kakao.com/1517885697
탑못휴게식당,음식점,128.8994564,35.94031477,경북 영천시 금호읍 금호로 372-12,http://place.map.kakao.com/21462169
소담손칼국수,음식점,128.8997377,35.94151417,경북 영천시 금호읍 금호로 371,http://place.map.kakao.com/1851070650
압구정김밥,음식점,128.8991319,35.94305561,경북 영천시 금호읍 원제2길 16-8,http://place.map.kakao.com/11285724
술이술술,음식점,128.8989603,35.94222842,경북 영천시 금호읍 원제2길 13,http://place.map.kakao.com/633318420
양자강반점,음식점,128.8991503,35.94308055,경북 영천시 금호읍 원제2길 16-5,http://place.map.kakao.com/10581900
대박,음식점,128.8992937,35.94231325,경북 영천시 금호읍 원제2길 14,http://place.map.kakao.com/1340668802
윤성치킨,음식점,128.8991761,35.9430477,경북 영천시 금호읍 원제2길 16-8,http://place.map.kakao.com/10071046
윤성곰장어,음식점,128.8993171,35.94190289,경북 영천시 금호읍 원제2길 9,http://place.map.kakao.com/11727548
사오정식당,음식점,128.8993776,35.94183615,경북 영천시 금호읍 원제2길 9,http://place.map.kakao.com/1340299505
우로들토종닭,음식점,128.8991415,35.94308429,경북 영천시 금호읍 원제2길 16-8,http://place.map.kakao.com/8465428
월드푸드포장마차,음식점,128.8989955,35.94268021,경북 영천시 금호읍 원제2길 16-3,http://place.map.kakao.com/298903933
딱좋은밤,음식점,128.8991299,35.94278531,경북 영천시 금호읍 원제2길 16-7,http://place.map.kakao.com/924559638
송정닭과오리,음식점,128.9016577,36.06992887,경북 영천시 화남면 천문로 1743,http://place.map.kakao.com/449390535
서산옥,음식점,128.9067213,35.95084317,경북 영천시 금호읍 금호로 504,http://place.map.kakao.com/12110774
덕수물회,음식점,128.9053693,35.9497401,경북 영천시 금호읍 금호로 487,http://place.map.kakao.com/2123601561
달강,음식점,128.9055027,35.94998668,경북 영천시 금호읍 금호로 487,http://place.map.kakao.com/274261890
효사랑요양병원 장례식장 식당,음식점,128.9063812,35.94942126,경북 영천시 금호읍 금호로 484,http://place.map.kakao.com/21274035
ok잔치국수,음식점,128.9069903,35.95124979,경북 영천시 금호읍 금호로 510,http://place.map.kakao.com/209368767
국시사랑,음식점,128.9055237,35.94993679,경북 영천시 금호읍 금호로 487,http://place.map.kakao.com/19984194
맛자랑식당,음식점,128.9060559,35.9805174,경북 영천시 장수로 259,http://place.map.kakao.com/970868487
보현각,음식점,128.908211,36.07982834,경북 영천시 화남면 천문로 1872,http://place.map.kakao.com/736760270
이가옥,음식점,128.9082906,36.07705899,경북 영천시 화남면 내지길 4,http://place.map.kakao.com/535531994
화남대천식당,음식점,128.9087401,36.08073089,경북 영천시 화남면 천문로 1884,http://place.map.kakao.com/1191802950
새부천성,음식점,128.9098736,36.08371968,경북 영천시 화남면 천문로 1918,http://place.map.kakao.com/2079325243
천리향텍사스바비큐,음식점,128.9099259,35.9555256,경북 영천시 최무선로 52,http://place.map.kakao.com/1249308175
영천영대병원 구내식당,음식점,128.9131455,35.95731882,경북 영천시 오수1길 10,http://place.map.kakao.com/16900893
신화숯불가든,음식점,128.9133855,35.95862967,경북 영천시 오수2길 6,http://place.map.kakao.com/9183736
비룡수타전문면옥,음식점,128.9134967,35.95901086,경북 영천시 최무선로 102,http://place.map.kakao.com/18922929
푸디스트 영천영남대학교병원점,음식점,128.9133314,35.95739965,경북 영천시 오수1길 10,http://place.map.kakao.com/742953187
청송기사식당,음식점,128.9139959,35.97179465,경북 영천시 장수로 135,http://place.map.kakao.com/9969578
소문난국밥집,음식점,128.9137053,35.97224622,경북 영천시 장수로 141,http://place.map.kakao.com/27007170
남연허브식당,음식점,128.9186298,36.15385167,경북 영천시 화북면 천문로 3054,http://place.map.kakao.com/9726540
보현산댐식당,음식점,128.9158742,36.15548887,경북 영천시 화북면 천문로 3087,http://place.map.kakao.com/27416737
상송삼거리식당,음식점,128.9194516,36.15274281,경북 영천시 화북면 천문로 3042,http://place.map.kakao.com/27179942
대곡휴게식당,음식점,128.9164928,35.89233669,경북 영천시 금호읍 칠백로 296,http://place.map.kakao.com/19501223
오수식당,음식점,128.9165635,35.96098753,경북 영천시 오수4길 3-3,http://place.map.kakao.com/10631880
대한식육식당,음식점,128.9185627,35.96537448,경북 영천시 장수로 51,http://place.map.kakao.com/9784066
장수네 비빔밥이랑국수랑,음식점,128.9187368,35.9657898,경북 영천시 장수로 52-3,http://place.map.kakao.com/1305949793
별별포차,음식점,128.9188386,35.96559714,경북 영천시 장수로 52-2,http://place.map.kakao.com/1572687160
콜제과점 서문점,음식점,128.9199772,35.96428137,경북 영천시 장수로 35,http://place.map.kakao.com/10813262
부흥밥집,음식점,128.9207231,35.96460102,경북 영천시 상아탑길 1,http://place.map.kakao.com/1445250507
희야네국수,음식점,128.920658,35.96465793,경북 영천시 상아탑길 1,http://place.map.kakao.com/875405844
한입더도시락,음식점,128.9204099,35.96443754,경북 영천시 장수로 31-2,http://place.map.kakao.com/27599402
사천해물짬뽕,음식점,128.9198266,36.03750431,경북 영천시 화남면 천문로 1200,http://place.map.kakao.com/501745723
백송식당,음식점,128.9216958,36.11010838,경북 영천시 화북면 자천9길 6,http://place.map.kakao.com/26633011
BHC치킨 영천화북점,음식점,128.9206461,36.11018559,경북 영천시 화북면 화북길 68,http://place.map.kakao.com/27544924
동강자연산민물매운탕,음식점,128.9224823,36.10729526,경북 영천시 화북면 천문로 2250,http://place.map.kakao.com/340009430
자천식당,음식점,128.9199202,36.10910514,경북 영천시 화북면 화북길 81,http://place.map.kakao.com/1947078983
청룡수타손짜장,음식점,128.9224937,36.10730589,경북 영천시 화북면 천문로 2250,http://place.map.kakao.com/20305514
천석식육식당,음식점,128.921089,36.11049566,경북 영천시 화북면 화북길 64,http://place.map.kakao.com/1132608829
현대식육식당,음식점,128.9206895,36.1101894,경북 영천시 화북면 화북길 68,http://place.map.kakao.com/16437477
솔밭식당,음식점,128.9237982,36.10866177,경북 영천시 화북면 천문로 2268,http://place.map.kakao.com/1154293961
24시 오거리돼지국밥,음식점,128.923685,35.96250631,경북 영천시 강변로 4,http://place.map.kakao.com/21477813
순자네명가식당,음식점,128.920996,35.96442725,경북 영천시 장수로 28-1,http://place.map.kakao.com/749765624
주영이네분식,음식점,128.923254,35.96228525,경북 영천시 수원지길 17,http://place.map.kakao.com/1828172843
화평대군,음식점,128.9243824,35.96292674,경북 영천시 최무선로 212,http://place.map.kakao.com/21184295
서문분식,음식점,128.923332,35.9635374,경북 영천시 운동장로 7,http://place.map.kakao.com/9818798
황룡,음식점,128.9261807,35.96103535,경북 영천시 강변로 34,http://place.map.kakao.com/26353118
둠키,음식점,128.9253594,35.96482136,경북 영천시 서문길 37,http://place.map.kakao.com/1182312348
꽃동산국수,음식점,128.9250888,35.96682339,경북 영천시 왕평길 44,http://place.map.kakao.com/1339901707
옛날짜장면,음식점,128.9210781,35.965983,경북 영천시 상아탑길 13,http://place.map.kakao.com/15479559
교촌식육식당,음식점,128.9244197,35.96620157,경북 영천시 운동장로 36,http://place.map.kakao.com/541565467
점심시간,음식점,128.921582,35.96628851,경북 영천시 상아탑길 23-5,http://place.map.kakao.com/1437623106
길,음식점,128.9216176,35.96354865,경북 영천시 장수로 15-1,http://place.map.kakao.com/1567462783
큰기와집,음식점,128.9226506,35.97734926,경북 영천시 천문로 485,http://place.map.kakao.com/1452657926
정금식당,음식점,128.9228853,35.9784313,경북 영천시 천문로 489,http://place.map.kakao.com/115832014
조양식당,음식점,128.9231247,35.97906993,경북 영천시 천문로 484,http://place.map.kakao.com/12642021
구가네짬뽕,음식점,128.9240696,35.98807906,경북 영천시 천문로 598,http://place.map.kakao.com/2105379237
삼오식당,음식점,128.9239133,35.9888547,경북 영천시 천문로 606,http://place.map.kakao.com/24450296
정가네생갈치,음식점,128.923565,35.9927277,경북 영천시 천문로 650,http://place.map.kakao.com/1057162660
박가네 돼지국밥,음식점,128.9237527,35.9930626,경북 영천시 천문로 650,http://place.map.kakao.com/804806516
금나한우 오리한마당,음식점,128.9242055,35.99088914,경북 영천시 천문로 626,http://place.map.kakao.com/8811814
정원돼지국밥,음식점,128.9245247,35.996723,경북 영천시 천문로 696,http://place.map.kakao.com/20026488
영풍대말식육식당,음식점,128.9296053,35.92812687,경북 영천시 동강포길 29-9,http://place.map.kakao.com/756483602
가마솥소머리국밥,음식점,128.9286909,35.94429619,경북 영천시 천문로 63,http://place.map.kakao.com/10114593
약천숯불,음식점,128.9296897,35.94240137,경북 영천시 천문로 44,http://place.map.kakao.com/10573624
공아춘,음식점,128.9297587,35.94833659,경북 영천시 천문로 110,http://place.map.kakao.com/285371241
천안축산식육식당,음식점,128.9291712,35.94919395,경북 영천시 천문로 115,http://place.map.kakao.com/1020453176
영천백년식당,음식점,128.9297882,35.95214589,경북 영천시 천문로 149,http://place.map.kakao.com/1863211865
편대장영화식당 영천본점,음식점,128.9280476,35.96041515,경북 영천시 강변로 50-15,http://place.map.kakao.com/8117317
대아반점,음식점,128.9290908,35.96147157,경북 영천시 강변로 59-1,http://place.map.kakao.com/11003686
하눅베이커리 영천터미널점,음식점,128.927543,35.96062781,경북 영천시 강변로 44,http://place.map.kakao.com/139046623
토박이 생고기숯불가든,음식점,128.9236685,35.96347253,경북 영천시 운동장로 6-1,http://place.map.kakao.com/10904935
와이식당,음식점,128.9290642,35.96693614,경북 영천시 백신애길 2,http://place.map.kakao.com/338415411
소담길,음식점,128.9304133,35.9657142,경북 영천시 창대서원1길 9-14,http://place.map.kakao.com/10564284
청호한우숯불,음식점,128.9279884,35.97393139,경북 영천시 천문로 409-8,http://place.map.kakao.com/10843649
배떡 영천중앙점,음식점,128.9299654,35.9739041,경북 영천시 중앙동3길 88,http://place.map.kakao.com/1904560516
옹스베이커리카페,음식점,128.9299654,35.9739068,경북 영천시 중앙동3길 88,http://place.map.kakao.com/1077075468
블루웨이 영천점,음식점,128.9304299,35.97449855,경북 영천시 중앙동1길 129,http://place.map.kakao.com/1478835039
김밥나라 문내점,음식점,128.930612,35.97041283,경북 영천시 충효로 7,http://place.map.kakao.com/9742545
영천우리식당,음식점,128.9300642,35.97300233,경북 영천시 중앙동2길 132,http://place.map.kakao.com/556598709
봉구스밥버거 영천중앙점,음식점,128.9313401,35.97359273,경북 영천시 중앙동2길 108,http://place.map.kakao.com/1559779496
옛길가든,음식점,128.9279633,35.97745681,경북 영천시 천문로 434-31,http://place.map.kakao.com/25618666
명산기사식당,음식점,128.9284593,36.01676815,경북 영천시 천문로 921,http://place.map.kakao.com/8341347
금강매운탕,음식점,128.9284929,36.01596115,경북 영천시 천문로 911-1,http://place.map.kakao.com/254095167
천문대로맛집,음식점,128.9299437,36.01855992,경북 영천시 선창길 9,http://place.map.kakao.com/15601135
가야골수라간,음식점,128.9318206,35.90082709,경북 영천시 금호읍 가야길 93-29,http://place.map.kakao.com/505715367
회운정식당,음식점,128.931398,35.92767633,경북 영천시 동강포길 16,http://place.map.kakao.com/21685548
부강뷔페식당,음식점,128.9361504,35.93569868,경북 영천시 칠백로 847,http://place.map.kakao.com/1611938331
푸줏간한우숯불,음식점,128.9358011,35.9372785,경북 영천시 칠백로 865,http://place.map.kakao.com/1089152908
고궁한정식,음식점,128.9327808,35.94315268,경북 영천시 한방로 27,http://place.map.kakao.com/15638564
짬뽕의달인,음식점,128.9368515,35.9385483,경북 영천시 칠백로 885-7,http://place.map.kakao.com/514217104
왕손짜장,음식점,128.9317791,35.94351843,경북 영천시 한방로 23,http://place.map.kakao.com/10625133
영천돼지국밥,음식점,128.9335322,35.94229446,경북 영천시 한방로 41-1,http://place.map.kakao.com/679192047
가마솥순대국밥 도동점,음식점,128.9317623,35.9435115,경북 영천시 한방로 23,http://place.map.kakao.com/1969133720
새부산식당,음식점,128.9331404,35.9419034,경북 영천시 한방로 42,http://place.map.kakao.com/12240733
한고궁,음식점,128.9327925,35.94317953,경북 영천시 한방로 27,http://place.map.kakao.com/2137661556
청하식당,음식점,128.9316366,35.95659721,경북 영천시 천문로 201,http://place.map.kakao.com/21455964
별돈까스,음식점,128.9316401,35.95660437,경북 영천시 천문로 201,http://place.map.kakao.com/669933982
일번지해바라기식당,음식점,128.9284672,35.96043995,경북 영천시 강변로 50-7,http://place.map.kakao.com/644653131
착한밥상,음식점,128.9284722,35.96046149,경북 영천시 강변로 50-7,http://place.map.kakao.com/2069972425
용천삼계탕,음식점,128.9284599,35.96050494,경북 영천시 강변로 50-7,http://place.map.kakao.com/457574190
"아,라이스",음식점,128.932126,35.95935385,경북 영천시 담안7길 35-8,http://place.map.kakao.com/641542359
뼈대있는돼지갈비,음식점,128.9325682,35.9605812,경북 영천시 금완로 39,http://place.map.kakao.com/754159554
바다양푼이동태탕 경북영천점,음식점,128.9341106,35.96020042,경북 영천시 금완로 52-3,http://place.map.kakao.com/27348531
영천숯불,음식점,128.9348364,35.9605131,경북 영천시 금완로 59,http://place.map.kakao.com/1569187405
빨간지붕,음식점,128.935319,35.96398438,경북 영천시 강남길 14-1,http://place.map.kakao.com/11060925
역전식육식당,음식점,128.9361518,35.96141188,경북 영천시 통운길 4,http://place.map.kakao.com/9243733
영양숯불갈비 완산점,음식점,128.9348732,35.96369963,경북 영천시 시장로 43,http://place.map.kakao.com/10646980
희락식당,음식점,128.93534,35.96284508,경북 영천시 완산중앙1길 5,http://place.map.kakao.com/8631400
하우치짬뽕,음식점,128.9323493,35.96637866,경북 영천시 조양공원길 27-11,http://place.map.kakao.com/730202242
광명식당,음식점,128.9366879,35.96067155,경북 영천시 통운길 13,http://place.map.kakao.com/10152689
포항할매집,음식점,128.9373936,35.96437981,경북 영천시 시장4길 30,http://place.map.kakao.com/9535626
완산옥 영천본점,음식점,128.9370043,35.96509254,경북 영천시 시장2길 35,http://place.map.kakao.com/667859979
해물촌,음식점,128.9320118,35.96781141,경북 영천시 옛군청1길 20,http://place.map.kakao.com/26950056
삼송꾼만두 영천본점,음식점,128.9345743,35.97261611,경북 영천시 중앙동1길 12,http://place.map.kakao.com/760296003
빨간지붕 영천시청점,음식점,128.9348234,35.97237781,경북 영천시 중앙동1길 8,http://place.map.kakao.com/728974959
진설옥설렁탕 영천본점,음식점,128.9325929,35.9737789,경북 영천시 중앙동3길 21,http://place.map.kakao.com/900631416
어울림,음식점,128.9341411,35.96799426,경북 영천시 문화원길 23-10,http://place.map.kakao.com/491091483
고운정,음식점,128.9366617,35.97307621,경북 영천시 충효로 65,http://place.map.kakao.com/171910086
영천대표밀면,음식점,128.9324699,35.97437379,경북 영천시 중앙동3길 36,http://place.map.kakao.com/585926225
봄내반점,음식점,128.932515,35.9739027,경북 영천시 중앙동3길 27,http://place.map.kakao.com/401459463
베풀장어 영천점,음식점,128.9324644,35.97391883,경북 영천시 중앙동3길 27,http://place.map.kakao.com/1439195143
찜순이,음식점,128.9364399,35.97338796,경북 영천시 무궁화길 33-3,http://place.map.kakao.com/8104475
화산식육식당 영천점,음식점,128.9372493,35.97339381,경북 영천시 충효로 73,http://place.map.kakao.com/1251295906
42스시,음식점,128.932438,35.97442657,경북 영천시 중앙동3길 36,http://place.map.kakao.com/1467195857
아쯔다무라 영천직영점,음식점,128.9338748,35.97357171,경북 영천시 중앙동1길 36,http://place.map.kakao.com/563111400
스마일돈까스,음식점,128.9331838,35.973873,경북 영천시 중앙동1길 51,http://place.map.kakao.com/9209827
산과보롬,음식점,128.9316531,35.97497265,경북 영천시 중앙동1길 103,http://place.map.kakao.com/1694925564
든담,음식점,128.9364908,36.03567289,경북 영천시 화남면 신선로 113,http://place.map.kakao.com/1397773525
영양숯불갈비 도남점,음식점,128.9371058,35.9362131,경북 영천시 봉도길 6-7,http://place.map.kakao.com/11387900
경성관,음식점,128.9377513,35.93596839,경북 영천시 봉도길 6-14,http://place.map.kakao.com/10175370
도남한우숯불촌,음식점,128.9375273,35.93595759,경북 영천시 봉도길 6-10,http://place.map.kakao.com/8889316
누리한우숯불갈비,음식점,128.9379546,35.93630752,경북 영천시 봉도길 6-13,http://place.map.kakao.com/1835251164
도남공단매점식당,음식점,128.9406958,35.93168212,경북 영천시 도남공단3길 76,http://place.map.kakao.com/19189598
복지회관식당,음식점,128.9407132,35.93167103,경북 영천시 도남공단3길 76,http://place.map.kakao.com/15412844
돌섬대어횟집,음식점,128.936749,35.94047917,경북 영천시 한방로 77,http://place.map.kakao.com/25471524
고속기사식당,음식점,128.9397328,35.93956233,경북 영천시 한방로 109,http://place.map.kakao.com/292260788
대영아구전문점,음식점,128.9338239,35.96012304,경북 영천시 금완로 52-6,http://place.map.kakao.com/11014504
영천할매추어탕,음식점,128.9377166,35.96004221,경북 영천시 금완로 86,http://place.map.kakao.com/717995105
북경만두,음식점,128.9362412,35.96257463,경북 영천시 완산중앙2길 13,http://place.map.kakao.com/10453903
파리바게뜨 경북영천점,음식점,128.9349148,35.96322679,경북 영천시 시장로 42-1,http://place.map.kakao.com/12354334
청춘짜장,음식점,128.9388721,35.96156348,경북 영천시 완산로 15-2,http://place.map.kakao.com/933939548
산성식당,음식점,128.9387691,35.96419539,경북 영천시 시장4길 52,http://place.map.kakao.com/15188906
미각루,음식점,128.9377569,35.97357214,경북 영천시 청산1길 6,http://place.map.kakao.com/10414102
배스킨라빈스 영천시청점,음식점,128.9363574,35.97255129,경북 영천시 충효로 62,http://place.map.kakao.com/26794277
신식반점,음식점,128.9426012,35.973847,경북 영천시 상록2길 21,http://place.map.kakao.com/801566152
돼지만왕소금구이 영천점,음식점,128.9354632,35.97261438,경북 영천시 충효로 55,http://place.map.kakao.com/1994643218
파리바게뜨 영천시청점,음식점,128.9361647,35.97283193,경북 영천시 충효로 63,http://place.map.kakao.com/1431013891
민정해물손수제비,음식점,128.9369948,35.97323483,경북 영천시 충효로 71,http://place.map.kakao.com/11281605
장어독립,음식점,128.937224,35.97353749,경북 영천시 무궁화길 48,http://place.map.kakao.com/11162851
낙원떡집,음식점,128.9392642,35.98022025,경북 영천시 야사오미길 58-9,http://place.map.kakao.com/1894466200
둘둘오리 영천점,음식점,128.93229,35.97467675,경북 영천시 중앙동3길 40,http://place.map.kakao.com/22177042
여여숲,음식점,128.9422754,35.98854881,경북 영천시 삼밭골길 89,http://place.map.kakao.com/252333778
대내실식당,음식점,128.9391191,36.03970683,경북 영천시 화남면 신선로 163,http://place.map.kakao.com/8872931
산수정,음식점,128.9400551,36.04222188,경북 영천시 화남면 신선로 199,http://place.map.kakao.com/15463706
신호못안식당,음식점,128.940863,36.04295489,경북 영천시 화남면 신선로 210,http://place.map.kakao.com/10612346
재천본가,음식점,128.943819,35.931318,경북 영천시 봉동1길 29-48,http://place.map.kakao.com/405887970
구육복손짜장 IC지점,음식점,128.9445116,35.93494354,경북 영천시 영천아이시로 46,http://place.map.kakao.com/11029434
멕시카나치킨 영천봉동점,음식점,128.9434107,35.93342323,경북 영천시 봉동2길 23-46,http://place.map.kakao.com/1684289884
경신기사식당,음식점,128.947206,35.93150007,경북 영천시 영천아이시로 93,http://place.map.kakao.com/10173240
영천반점,음식점,128.9453108,35.93445752,경북 영천시 영천아이시로 51,http://place.map.kakao.com/1208536488
영천닭칼국수,음식점,128.9457154,35.93921317,경북 영천시 한방로 163,http://place.map.kakao.com/22099979
역전김밥나라,음식점,128.9386347,35.95996971,경북 영천시 금완로 94-6,http://place.map.kakao.com/11250657
돈가스소바집,음식점,128.9387945,35.96052219,경북 영천시 역전로 51-3,http://place.map.kakao.com/1145446244
완산골콩나물라면,음식점,128.9388386,35.96046651,경북 영천시 역전로 53,http://place.map.kakao.com/19208696
역전돼지국밥,음식점,128.9391557,35.95951796,경북 영천시 금완로 98,http://place.map.kakao.com/12182434
33BAR,음식점,128.9381316,35.96033556,경북 영천시 금완로 87-1,http://place.map.kakao.com/960908847
샤브마니아 영천롯데시네마점,음식점,128.9407161,35.96336195,경북 영천시 시장로 96,http://place.map.kakao.com/584775827
김밥천국 영천점,음식점,128.937426,35.96329799,경북 영천시 시장로 66,http://place.map.kakao.com/10201784
산성한우곰탕,음식점,128.9385349,35.96422801,경북 영천시 시장4길 52,http://place.map.kakao.com/22953205
영천할매곰탕,음식점,128.9380422,35.96424769,경북 영천시 시장4길 38,http://place.map.kakao.com/2098531746
별빛산골능이버섯,음식점,128.9392861,35.9721886,경북 영천시 시청남길 20,http://place.map.kakao.com/20029058
제주초밥,음식점,128.9376395,35.97167096,경북 영천시 삼산길 10-5,http://place.map.kakao.com/16868438
황금순두부,음식점,128.9415798,35.97468893,경북 영천시 상록8길 29,http://place.map.kakao.com/8691218
신라삼계탕,음식점,128.9395156,35.97223895,경북 영천시 시청남길 24,http://place.map.kakao.com/9194832
원조동부막창,음식점,128.9426603,35.97589329,경북 영천시 충효로 129,http://place.map.kakao.com/8331139
통큰생오리시대 영천점,음식점,128.9436017,35.97595012,경북 영천시 충효로 138,http://place.map.kakao.com/16457212
맘스터치 경북영천점,음식점,128.9415566,35.97537051,경북 영천시 모란2길 22-6,http://place.map.kakao.com/13312383
만두독립 영천점,음식점,128.9434819,35.97576464,경북 영천시 상록5길 57,http://place.map.kakao.com/10351171
동대문엽기떡볶이 영천야사점,음식점,128.9408053,35.97501864,경북 영천시 충효로 109,http://place.map.kakao.com/1520572802
야사막썰어횟집,음식점,128.9434576,35.97617593,경북 영천시 충효로 137,http://place.map.kakao.com/1914202618
강남뭉티기,음식점,128.9373999,35.9747484,경북 영천시 청산길 63,http://place.map.kakao.com/542157799
황금생막창,음식점,128.9401153,35.97572543,경북 영천시 모란1길 12,http://place.map.kakao.com/19050477
뒷골뭉티기육회,음식점,128.9414514,35.97501269,경북 영천시 충효로 116,http://place.map.kakao.com/1785181076
알리앙스제과점,음식점,128.9443189,35.97658277,경북 영천시 충효로 145,http://place.map.kakao.com/709719911
가온포차,음식점,128.9442682,35.97618802,경북 영천시 충효로 144,http://place.map.kakao.com/186760364
마마미양꼬치,음식점,128.9425731,35.97586497,경북 영천시 충효로 127-1,http://place.map.kakao.com/635370174
짚라인 타는 산골마을 식당,음식점,128.9522542,36.14055636,경북 영천시 화북면 배나무정길 67,http://place.map.kakao.com/1516306510
영천공단식당,음식점,128.9512396,35.90700533,경북 영천시 채신2공단길 100,http://place.map.kakao.com/22279817
동진식당,음식점,128.952173,35.90568539,경북 영천시 채신2공단길 78,http://place.map.kakao.com/16349604
최고의밥상,음식점,128.9481679,35.91435039,경북 영천시 영천산단로 359,http://place.map.kakao.com/1690475386
만당중화요리,음식점,128.9483724,35.91541936,경북 영천시 영천산단로 345,http://place.map.kakao.com/1190584292
별미,음식점,128.9481835,35.914898,경북 영천시 영천산단로 349,http://place.map.kakao.com/1469725554
건행식당,음식점,128.9483191,35.91505168,경북 영천시 영천산단로 349,http://place.map.kakao.com/191253082
강이네,음식점,128.9481281,35.91494215,경북 영천시 영천산단로 349,http://place.map.kakao.com/2097007522
금창 구내식당,음식점,128.9515672,35.91835725,경북 영천시 본촌공단1길 9,http://place.map.kakao.com/8782966
신토불이,음식점,128.9485968,35.92894096,경북 영천시 영천아이시로 122,http://place.map.kakao.com/15748223
남영천기사님식당,음식점,128.9481279,35.92951805,경북 영천시 영천아이시로 114,http://place.map.kakao.com/15376350
뼈마시감자탕부대찌개 영천점,음식점,128.9486879,35.93143367,경북 영천시 산업단지로 323,http://place.map.kakao.com/25602450
호식이두마리치킨 영천봉동점,음식점,128.9480219,35.93170129,경북 영천시 산업단지로 323,http://place.map.kakao.com/671127034
고속기사식당,음식점,128.94727,35.93040873,경북 영천시 영천아이시로 102,http://place.map.kakao.com/8746412
맛데이치킨 영천점,음식점,128.9471158,35.93148171,경북 영천시 영천아이시로 93,http://place.map.kakao.com/20028334
황금돈돼지,음식점,128.9480204,35.93245371,경북 영천시 산업단지로 320,http://place.map.kakao.com/1823645322
고향손칼국수,음식점,128.9486421,35.93146595,경북 영천시 산업단지로 323,http://place.map.kakao.com/1177453443
영남반점,음식점,128.9440997,35.93205955,경북 영천시 봉동1길 29-6,http://place.map.kakao.com/9250786
남영천기사식당,음식점,128.9461203,35.9307797,경북 영천시 도남공단길 94-11,http://place.map.kakao.com/8249740
토방식당,음식점,128.9485154,35.93154009,경북 영천시 산업단지로 323,http://place.map.kakao.com/116607729
삼거리기사식당,음식점,128.9442358,35.93924436,경북 영천시 한방로 149,http://place.map.kakao.com/16236481
맛고을고등어정식,음식점,128.9478343,35.93954013,경북 영천시 한방로 186-4,http://place.map.kakao.com/627488597
산수기사식당,음식점,128.9450876,35.93927741,경북 영천시 한방로 157,http://place.map.kakao.com/9122575
영일향,음식점,128.948482,35.94046853,경북 영천시 한방로 193-1,http://place.map.kakao.com/78424462
국수맛집,음식점,128.9437587,35.9577152,경북 영천시 영화로 142,http://place.map.kakao.com/450259516
쟈빠따베이커리 고든스퀘어점,음식점,128.9410745,35.96328677,경북 영천시 시장로 96,http://place.map.kakao.com/14068293
보배반점 경북영천점,음식점,128.9444277,35.96352712,경북 영천시 시장로 128,http://place.map.kakao.com/924543313
피망,음식점,128.9402491,35.96090145,경북 영천시 약전1길 24,http://place.map.kakao.com/689281872
백정가 다섯째네,음식점,128.944638,35.96360481,경북 영천시 시장로 128,http://place.map.kakao.com/1978326261
영천공동어시장,음식점,128.9489165,35.96740009,경북 영천시 영화로 280,http://place.map.kakao.com/1669198442
온달육회뭉티기,음식점,128.9478729,35.97454995,경북 영천시 야사시장길 13-26,http://place.map.kakao.com/9941905
교동면옥 영천점,음식점,128.95182,35.97241782,경북 영천시 영화로 340-1,http://place.map.kakao.com/357166572
정현대영천식육식당,음식점,128.9482712,35.97221871,경북 영천시 동부로 25,http://place.map.kakao.com/11305293
BBQ 영천시청점,음식점,128.9414424,35.97206541,경북 영천시 호국로 30,http://place.map.kakao.com/17317866
신제주해장국 본점,음식점,128.9526441,35.97535993,경북 영천시 영화로 373,http://place.map.kakao.com/18567426
삼송꾼만두 영천1호점,음식점,128.9485814,35.97491689,경북 영천시 호국로 100,http://place.map.kakao.com/95301331
강남한우식육식당 영천점,음식점,128.9453064,35.97665957,경북 영천시 충효로 156,http://place.map.kakao.com/26579515
맥도날드 영천DT점,음식점,128.9526446,35.97627992,경북 영천시 호국로 141,http://place.map.kakao.com/1901591277
참뼈 영천점,음식점,128.9495893,35.97505821,경북 영천시 호국로 112-8,http://place.map.kakao.com/22139247
육식인생,음식점,128.9518276,35.981815,경북 영천시 망정1길 176-12,http://place.map.kakao.com/1948163507
주왕산삼계탕 영천점,음식점,128.9492545,35.98528723,경북 영천시 오미망정로 131,http://place.map.kakao.com/10797668
정자항참가자미,음식점,128.9515856,35.98211719,경북 영천시 망정1길 176-15,http://place.map.kakao.com/69916353
가장맛있는족발 경북영천점,음식점,128.9515691,35.9824842,경북 영천시 망정1길 200,http://place.map.kakao.com/1661687237
60계치킨 경북영천점,음식점,128.9517739,35.98179695,경북 영천시 망정1길 176-12,http://place.map.kakao.com/271298443
바보형제쭈꾸미 경북영천점,음식점,128.9524088,35.98047826,경북 영천시 망정로 47,http://place.map.kakao.com/725476052
그집국수,음식점,128.9518389,35.98857646,경북 영천시 망정로 136,http://place.map.kakao.com/1342447776
한우막구이,음식점,128.9518471,35.98845649,경북 영천시 망정로 136,http://place.map.kakao.com/1851160546
가람식육식당,음식점,128.9542596,35.98557882,경북 영천시 언하공단로 79-10,http://place.map.kakao.com/436391806
소대장,음식점,128.9521785,35.98485671,경북 영천시 우로들길 109,http://place.map.kakao.com/17663176
리코파파 영천점,음식점,128.9526503,35.98415791,경북 영천시 우로들길 105-1,http://place.map.kakao.com/97938319
가마치통닭 영천창신점,음식점,128.9536716,35.98623447,경북 영천시 언하공단로 92,http://place.map.kakao.com/390964549
막창도둑 영천망정점,음식점,128.9537245,35.98582002,경북 영천시 언하공단로 91,http://place.map.kakao.com/506824222
아이스크림 특공대,음식점,128.9543335,35.98632551,경북 영천시 언하공단로 84,http://place.map.kakao.com/37050376
스모프치킨 창신점,음식점,128.9532221,35.98576693,경북 영천시 언하공단로 95,http://place.map.kakao.com/2086850868
영천이가정숯불갈비,음식점,128.9520507,35.98232318,경북 영천시 망정1길 176-22,http://place.map.kakao.com/1853161472
망정동빵집,음식점,128.9521734,35.98874132,경북 영천시 창신길 31,http://place.map.kakao.com/1868484121
오산조은참치 경북영천점,음식점,128.9521424,35.98874363,경북 영천시 창신길 31,http://place.map.kakao.com/155370177
육해공포차,음식점,128.9518748,35.98841369,경북 영천시 망정로 136,http://place.map.kakao.com/1135680200
보배숯불,음식점,128.9517586,35.98630707,경북 영천시 망정로 114,http://place.map.kakao.com/787973266
별밤,음식점,128.9517459,35.9863316,경북 영천시 망정로 114,http://place.map.kakao.com/1012584928
5900대포,음식점,128.9517448,35.98632982,경북 영천시 망정로 114,http://place.map.kakao.com/1347865253
카페린,음식점,128.9545074,36.00303304,경북 영천시 상신기길 95-135,http://place.map.kakao.com/537521549
별마루,음식점,128.9527431,36.12702448,경북 영천시 화북면 천문로 2610,http://place.map.kakao.com/484313091
본촌식당,음식점,128.9552837,35.92073959,경북 영천시 산업단지로 172,http://place.map.kakao.com/1729751531
통큰집,음식점,128.952843,35.92582088,경북 영천시 본촌마을길 31,http://place.map.kakao.com/653073944
또바기식당,음식점,128.9482285,35.93167811,경북 영천시 산업단지로 323,http://place.map.kakao.com/1642347293
신흥춘해물짬뽕,음식점,128.9526685,35.94214587,경북 영천시 한방로 237,http://place.map.kakao.com/822836147
고향한방순대돼지국밥,음식점,128.9527203,35.94217746,경북 영천시 한방로 237,http://place.map.kakao.com/18766933
정코다리 영천점,음식점,128.9481455,35.96462018,경북 영천시 영화로 245,http://place.map.kakao.com/1944448108
고기박사냉면 초계막국수,음식점,128.9481252,35.96460609,경북 영천시 영화로 245,http://place.map.kakao.com/49650085
갯벌의조개 영천점,음식점,128.9442677,35.96288094,경북 영천시 완산9길 16,http://place.map.kakao.com/529572943
BBQ 영천완산점,음식점,128.9437427,35.96348235,경북 영천시 시장로 120,http://place.map.kakao.com/701464609
장땡식당,음식점,128.9445677,35.96146499,경북 영천시 약전길 102,http://place.map.kakao.com/83082065
상필가한우,음식점,128.9404524,35.96196234,경북 영천시 완산7길 6-3,http://place.map.kakao.com/1370695933
소풍경 영천점,음식점,128.9439596,35.96296973,경북 영천시 완산9길 15,http://place.map.kakao.com/720358958
야키토리 미미,음식점,128.943748,35.96347055,경북 영천시 시장로 120,http://place.map.kakao.com/118797612
국가대표정육식당,음식점,128.9438759,35.9634009,경북 영천시 시장로 120,http://place.map.kakao.com/551933157
돈복네돼지국밥 본점,음식점,128.94808,35.96457078,경북 영천시 영화로 245,http://place.map.kakao.com/989480772
전주명가콩나물국밥,음식점,128.9511352,35.97125757,경북 영천시 영화로 328,http://place.map.kakao.com/1748538680
현수산회도매,음식점,128.9528464,35.96962581,경북 영천시 장천길 27,http://place.map.kakao.com/519624876
남천민물매운탕 영천점,음식점,128.949966,35.97081703,경북 영천시 동부로 3,http://place.map.kakao.com/1715702462
아이러브피자,음식점,128.9469116,35.96682532,경북 영천시 동부로 7,http://place.map.kakao.com/387301108
다담뜰한식뷔페 영천점,음식점,128.955106,35.97607223,경북 영천시 호국로 162,http://place.map.kakao.com/1288243628
만복이쭈꾸미낙지볶음 영천점,음식점,128.9524529,35.9733131,경북 영천시 영화로 354,http://place.map.kakao.com/26591767
영천부산가야밀면,음식점,128.95182,35.97241782,경북 영천시 영화로 340-1,http://place.map.kakao.com/207004371
롯데리아 영천DT점,음식점,128.9517714,35.972242,경북 영천시 영화로 338,http://place.map.kakao.com/24263176
감포횟집,음식점,128.947227,35.97303131,경북 영천시 문화새길 25,http://place.map.kakao.com/21353618
명륜진사갈비 경북영천점,음식점,128.9524635,35.97622069,경북 영천시 호국로 139,http://place.map.kakao.com/81260409
써브웨이 영천점,음식점,128.9483294,35.97481196,경북 영천시 동부로 52,http://place.map.kakao.com/1450607529
배스킨라빈스 영천동부점,음식점,128.947948,35.97471903,경북 영천시 동부로 49,http://place.map.kakao.com/12163301
제일손칼국수,음식점,128.9561269,35.97795504,경북 영천시 우로들길 11-4,http://place.map.kakao.com/11163195
버거킹 영천DT점,음식점,128.9540213,35.97591419,경북 영천시 영화로 382,http://place.map.kakao.com/1823063830
포구어가,음식점,128.9520765,35.97616933,경북 영천시 호국로 135,http://place.map.kakao.com/1090193925
대림식육점,음식점,128.9546466,35.98634383,경북 영천시 언하공단로 84,http://place.map.kakao.com/15752119
파리바게뜨 영천창신점,음식점,128.9529509,35.98160118,경북 영천시 망정로 60,http://place.map.kakao.com/791935363
깡통갈비,음식점,128.9544536,35.98571352,경북 영천시 언하공단로 79-10,http://place.map.kakao.com/2112821138
창신돌곱창 창신본점,음식점,128.9571966,35.98652391,경북 영천시 언하공단로 60,http://place.map.kakao.com/22233785
명성우렁이쌈밥,음식점,128.9564534,35.99162529,경북 영천시 언하공단뒷길 85,http://place.map.kakao.com/1008049157
오늘은칼국수한그릇 영천점,음식점,128.955629,35.98635034,경북 영천시 언하공단로 74,http://place.map.kakao.com/1250637322
봄향월남쌈샤브샤브커피,음식점,128.9568063,35.99199618,경북 영천시 언하공단뒷길 82,http://place.map.kakao.com/1636583499
굽네치킨 영천동부점,음식점,128.9544635,35.98957175,경북 영천시 창신1길 42,http://place.map.kakao.com/313989564
큼지막,음식점,128.9565303,35.98894785,경북 영천시 창신길 113,http://place.map.kakao.com/1772323528
소백산식육식당,음식점,128.9556531,35.99100759,경북 영천시 청솔길 50,http://place.map.kakao.com/956685711
별빛고을참숯불,음식점,128.9559827,35.98962898,경북 영천시 청솔길 34,http://place.map.kakao.com/24123231
성아케이크,음식점,128.9542432,35.98895631,경북 영천시 창신1길 35,http://place.map.kakao.com/427964823
김밥이랑국수랑,음식점,128.9544574,35.98954933,경북 영천시 창신1길 42,http://place.map.kakao.com/961107640
밥심,음식점,128.9591344,35.91081807,경북 영천시 산업단지로 50-7,http://place.map.kakao.com/1445174242
정성담아국수마을,음식점,128.94825,35.93164983,경북 영천시 산업단지로 323,http://place.map.kakao.com/1155905142
한해정,음식점,128.9484115,35.93263209,경북 영천시 산업단지로 314,http://place.map.kakao.com/332724905
명물추어탕,음식점,128.9489342,35.96379099,경북 영천시 영화로 240,http://place.map.kakao.com/14833213
늘솜물회,음식점,128.9528464,35.96962581,경북 영천시 장천길 27,http://place.map.kakao.com/395995188
알콩달콩,음식점,128.9481174,35.96424398,경북 영천시 영화로 241,http://place.map.kakao.com/2096879896
별마로감자탕,음식점,128.949265,35.96768908,경북 영천시 영화로 284,http://place.map.kakao.com/27252328
임가네해물촌 영천점,음식점,128.9524196,35.96993912,경북 영천시 장천길 21,http://place.map.kakao.com/1625076300
원조삼계탕집,음식점,128.9548873,35.97111628,경북 영천시 장천2길 33,http://place.map.kakao.com/1889162913
장치국수,음식점,128.9531058,35.97012168,경북 영천시 장천2길 16,http://place.map.kakao.com/26412443
홍익돈까스 영천점,음식점,128.9549224,35.97604368,경북 영천시 호국로 160,http://place.map.kakao.com/1711774378
참바다해물백숙 영천점,음식점,128.9520406,35.97543103,경북 영천시 호국로 138-10,http://place.map.kakao.com/11752078
우즈베이커리 영천점,음식점,128.9541281,35.97665133,경북 영천시 호국로 155,http://place.map.kakao.com/1355048493
교촌치킨 영천1호점,음식점,128.9522066,35.97614018,경북 영천시 망정3길 7,http://place.map.kakao.com/17610096
오늘은 짬뽕땡기는날,음식점,128.9595827,35.98209492,경북 영천시 새천년공원길 31,http://place.map.kakao.com/407597044
막창사냥꾼 영천점,음식점,128.955265,35.98642386,경북 영천시 창신1길 4,http://place.map.kakao.com/27608619
싸가지없는갈비,음식점,128.9564391,35.98673811,경북 영천시 창신길 140,http://place.map.kakao.com/1643542109
족발명가,음식점,128.9557248,35.9863677,경북 영천시 언하공단로 74,http://place.map.kakao.com/24580783
황토갈비한마당,음식점,128.956573,35.9898248,경북 영천시 창신2길 39,http://place.map.kakao.com/26334131
엄마애국수,음식점,128.9566627,35.98838342,경북 영천시 창신길 121,http://place.map.kakao.com/1717138441
가마솥등뼈감자탕,음식점,128.956677,35.98824442,경북 영천시 창신길 121-1,http://place.map.kakao.com/2114690366
숲속안골길,음식점,128.9684377,35.89016987,경북 영천시 안골길 20-75,http://place.map.kakao.com/25813473
밥통,음식점,128.9481852,35.93167521,경북 영천시 산업단지로 323,http://place.map.kakao.com/205772460
조개를까는사람들,음식점,128.9570346,35.97125517,경북 영천시 장천2길 52,http://place.map.kakao.com/573799455
서대숙성한우,음식점,128.9528955,35.96963942,경북 영천시 장천길 27,http://place.map.kakao.com/1796307660
칼국수 한마당,음식점,128.9523874,35.97038387,경북 영천시 장천2길 9,http://place.map.kakao.com/415744448
무봉리토종순대국 영천점,음식점,128.9510098,35.97052974,경북 영천시 장천길 5,http://place.map.kakao.com/956984922
베스트베이커리,음식점,128.9510386,35.97048421,경북 영천시 장천길 5,http://place.map.kakao.com/2020549128
구만정,음식점,128.9552728,35.97218498,경북 영천시 장천3길 13,http://place.map.kakao.com/1441197580
오동추야,음식점,128.9570346,35.97125517,경북 영천시 장천2길 52,http://place.map.kakao.com/57678819
부산기사식당,음식점,128.9523321,35.97034603,경북 영천시 장천2길 9,http://place.map.kakao.com/1936575256
병천순대돼지국밥 영천점,음식점,128.9599772,35.97720106,경북 영천시 호국로 208,http://place.map.kakao.com/143763593
운주골한우가마솥국밥,음식점,128.9625667,35.9784058,경북 영천시 호국로 233-10,http://place.map.kakao.com/539550590
영천참품한우,음식점,128.9701793,35.97733307,경북 영천시 고경면 단포구보길 19,http://place.map.kakao.com/26376196
삼겹세상 영천점,음식점,128.9533663,35.97506704,경북 영천시 영화로 374,http://place.map.kakao.com/2126765325
시골뚝배기 영천점,음식점,128.9624157,35.97978331,경북 영천시 포은로 21,http://place.map.kakao.com/2146244379
옹심이메밀칼국수,음식점,128.9624136,35.97978875,경북 영천시 포은로 21,http://place.map.kakao.com/782046983
장원오리백숙 매생이국밥,음식점,128.9615526,35.98298182,경북 영천시 새천년공원길 14,http://place.map.kakao.com/158292511
흥부네식당,음식점,128.9620393,35.98624925,경북 영천시 언하2길 16,http://place.map.kakao.com/9622551
미풍식당,음식점,128.9570505,35.9865335,경북 영천시 언하공단로 60,http://place.map.kakao.com/1735829700
산골순두부보쌈 영천점,음식점,128.9568827,35.98647407,경북 영천시 언하공단로 60,http://place.map.kakao.com/23366223
부천성해물짬뽕,음식점,128.9664353,35.99384355,경북 영천시 임고면 포은로 185,http://place.map.kakao.com/23677361
왕궁손짜장,음식점,128.9712497,35.93905953,경북 영천시 북안면 대경로 2166-34,http://place.map.kakao.com/9289662
진미식당,음식점,128.9739313,35.93781882,경북 영천시 북안면 유하큰길 15,http://place.map.kakao.com/21554097
한그릇의만족,음식점,128.9703316,35.97471927,경북 영천시 고경면 단포구보길 43-6,http://place.map.kakao.com/8977073
궁전손짜장,음식점,128.960794,35.97741478,경북 영천시 호국로 216,http://place.map.kakao.com/10216174
바다마을생아구촌,음식점,128.9594672,35.97701837,경북 영천시 호국로 204,http://place.map.kakao.com/91258886
영천순보리빵,음식점,128.9594669,35.97700756,경북 영천시 호국로 204,http://place.map.kakao.com/99512236
양푼이갈비찜,음식점,128.9555813,35.97624289,경북 영천시 호국로 168,http://place.map.kakao.com/355676817
자매콩마을,음식점,128.9624275,35.97932087,경북 영천시 포은로 17,http://place.map.kakao.com/552228675
배밭골,음식점,128.9729092,35.98171786,경북 영천시 고경면 방천길 23,http://place.map.kakao.com/9816457
단포반점,음식점,128.9750796,35.97939252,경북 영천시 고경면 호국로 346,http://place.map.kakao.com/15867910
영천돌짜장,음식점,128.9753002,35.98304002,경북 영천시 고경면 단포2안길 35-38,http://place.map.kakao.com/1189651106
제일반점,음식점,128.9620649,35.98630019,경북 영천시 언하2길 16,http://place.map.kakao.com/18440870
고봉,음식점,128.9729361,35.98213191,경북 영천시 고경면 방천길 29,http://place.map.kakao.com/1298315587
대길식당,음식점,128.9616127,35.98634904,경북 영천시 언하2길 15,http://place.map.kakao.com/1972694200
보현스타식당,음식점,128.9740584,36.01181263,경북 영천시 임고면 포은로 396,http://place.map.kakao.com/1628760548
옛날통닭,음식점,128.9745266,36.01502082,경북 영천시 임고면 포은로 430,http://place.map.kakao.com/1331705822
영천새우칼국수,음식점,128.9740087,36.01977886,경북 영천시 임고면 포은로 483,http://place.map.kakao.com/1193703727
임고식당,음식점,128.9742071,36.01812845,경북 영천시 임고면 포은로 467,http://place.map.kakao.com/18035408
운주식당,음식점,128.975724,36.01651398,경북 영천시 임고면 운주로 12,http://place.map.kakao.com/610779306
포은식당,음식점,128.9747758,36.01673865,경북 영천시 임고면 운주로 3,http://place.map.kakao.com/10881946
일미식육식당,음식점,128.9745452,36.01660909,경북 영천시 임고면 포은로 448,http://place.map.kakao.com/24122246
뚝배기식당,음식점,128.9745676,36.01675289,경북 영천시 임고면 포은로 450,http://place.map.kakao.com/8280196
영보손짜장,음식점,128.9745311,36.02133451,경북 영천시 임고면 포은로 502,http://place.map.kakao.com/21034660
조옹대식당,음식점,128.974475,36.02206529,경북 영천시 임고면 포은로 510,http://place.map.kakao.com/805967486
대명식당,음식점,128.9744701,36.02155897,경북 영천시 임고면 포은로 504,http://place.map.kakao.com/806394213
석류레스,음식점,128.9745053,36.02207741,경북 영천시 임고면 포은로 510,http://place.map.kakao.com/470550801
삼겹살삼국지 영천점,음식점,128.9742152,36.02769761,경북 영천시 임고면 포은로 580,http://place.map.kakao.com/695972885
원광농원가든,음식점,128.9777733,35.92587578,경북 영천시 북안면 유상길 199-63,http://place.map.kakao.com/11639956
북촌한식,음식점,128.9776758,35.98027514,경북 영천시 고경면 호국로 371,http://place.map.kakao.com/582050795
신라숯불갈비,음식점,128.9753013,35.9830409,경북 영천시 고경면 단포2안길 35-38,http://place.map.kakao.com/996660225
한국전통곰탕,음식점,128.9807119,35.9813694,경북 영천시 고경면 호국로 403,http://place.map.kakao.com/1715831251
장춘원,음식점,128.9823074,36.04128633,경북 영천시 임고면 포은로 752-1,http://place.map.kakao.com/1933934310
평천매운탕,음식점,128.9821841,36.04123701,경북 영천시 임고면 포은로 752,http://place.map.kakao.com/517958035
금성식당반점,음식점,128.980848,36.04082389,경북 영천시 임고면 포은로 737,http://place.map.kakao.com/747020540
영식당,음식점,128.983252,36.04214563,경북 영천시 임고면 신선로 755,http://place.map.kakao.com/15536713
정각농장,음식점,128.9831599,36.12577942,경북 영천시 화북면 별빛로 508,http://place.map.kakao.com/17166707
송포식당,음식점,128.983193,35.93670015,경북 영천시 북안면 대경로 2309,http://place.map.kakao.com/15872524
송포반점,음식점,128.9833426,35.9368788,경북 영천시 북안면 엿들길 10-10,http://place.map.kakao.com/92150843
대동식당,음식점,128.9843757,35.98255591,경북 영천시 고경면 호국로 434-14,http://place.map.kakao.com/15856847
오삼불고기,음식점,128.9861413,35.98368726,경북 영천시 고경면 호국로 458-1,http://place.map.kakao.com/1207782091
중앙반점,음식점,128.9863883,35.98376607,경북 영천시 고경면 호국로 462-6,http://place.map.kakao.com/27037778
덕향숯불가든,음식점,128.9886101,36.04855529,경북 영천시 임고면 덕연길 20,http://place.map.kakao.com/8885376
태양가든,음식점,128.9885624,36.04710267,경북 영천시 임고면 포은로 841-10,http://place.map.kakao.com/701483641
영천소머리곰탕,음식점,128.9883275,36.04702817,경북 영천시 임고면 포은로 841-12,http://place.map.kakao.com/877978012
떡마루,음식점,128.9889933,36.04738116,경북 영천시 임고면 덕연길 6,http://place.map.kakao.com/1117273492
충성대체력단련장 한식점,음식점,128.9927689,35.99360438,경북 영천시 고경면 호국로 575-79,http://place.map.kakao.com/2057600898
덕수식당,음식점,128.989669,36.047251,경북 영천시 임고면 포은로 845,http://place.map.kakao.com/284244482
강변참숯불,음식점,128.9893888,36.04713851,경북 영천시 임고면 포은로 841-2,http://place.map.kakao.com/15685002
천문대식당,음식점,128.9945955,36.13702556,경북 영천시 화북면 별빛로 678,http://place.map.kakao.com/15437655
보현산식당,음식점,128.9956638,36.14832488,경북 영천시 화북면 정각길 128,http://place.map.kakao.com/16353798
원곡식당,음식점,128.9938411,35.87182641,경북 영천시 북안면 운북로 1429,http://place.map.kakao.com/15473681
새명주식당,음식점,128.9943234,35.87198781,경북 영천시 북안면 운북로 1432-1,http://place.map.kakao.com/16291113
초담,음식점,128.9979037,36.02672937,경북 영천시 임고면 운주로 245,http://place.map.kakao.com/165033325
초원숯불갈비,음식점,129.0013974,35.92413252,경북 영천시 북안면 운북로 2125,http://place.map.kakao.com/176028366
안동식당,음식점,129.0025804,35.92359737,경북 영천시 북안면 운북로 2113,http://place.map.kakao.com/10581336
대성농원식당,음식점,128.9995861,35.96145981,경북 영천시 고경면 거곡로 333,http://place.map.kakao.com/9710841
대박터돼지국밥,음식점,129.0022031,35.99117295,경북 영천시 고경면 호국로 624,http://place.map.kakao.com/19047899
부자정식,음식점,129.0021814,35.99119313,경북 영천시 고경면 호국로 624,http://place.map.kakao.com/1468402861
허니문식당,음식점,129.0016179,35.99100611,경북 영천시 고경면 호국로 620,http://place.map.kakao.com/22025686
단골석쇠불고기,음식점,129.0036069,35.99196767,경북 영천시 고경면 호국로 642-12,http://place.map.kakao.com/21536364
윤가네,음식점,129.0038238,35.99317507,경북 영천시 고경면 호국로 649,http://place.map.kakao.com/10683347
효리정,음식점,129.0022037,36.02977439,경북 영천시 임고면 운주로 297,http://place.map.kakao.com/381532787
한성민물회매운탕,음식점,129.0076865,35.91646568,경북 영천시 북안면 팔암길 21-3,http://place.map.kakao.com/12171346
삼진식육식당,음식점,129.0083557,35.9185738,경북 영천시 북안면 운북로 2033,http://place.map.kakao.com/16318602
김순희순두부,음식점,129.0083312,35.91870036,경북 영천시 북안면 운북로 2035,http://place.map.kakao.com/725076406
별빛분식,음식점,129.0080593,35.91999435,경북 영천시 북안면 운북로 2050,http://place.map.kakao.com/1164352135
부성기사님식당,음식점,129.006163,35.99447674,경북 영천시 고경면 호국로 675,http://place.map.kakao.com/15763857
도암단골석쇠불고기,음식점,129.0067407,35.99487075,경북 영천시 고경면 호국로 681,http://place.map.kakao.com/15734964
안심정,음식점,129.0079684,36.03592048,경북 영천시 임고면 방목길 38-2,http://place.map.kakao.com/21360929
진미손칼국수,음식점,129.0083023,36.05592282,경북 영천시 임고면 포은로 1067-22,http://place.map.kakao.com/2120812926
맛나정가든,음식점,129.0103512,36.0573761,경북 영천시 임고면 삼매용천길 4,http://place.map.kakao.com/1075636387
미진네보양집,음식점,129.0102784,36.05748185,경북 영천시 임고면 삼매용천길 4,http://place.map.kakao.com/21461745
삼명숯불가든,음식점,129.0102032,35.91261382,경북 영천시 북안면 운북로 1964,http://place.map.kakao.com/8393783
영림식육숯불가든,음식점,129.0093895,35.9156938,경북 영천시 북안면 운북로 1999-1,http://place.map.kakao.com/358129895
금오식당,음식점,129.0090923,35.91721347,경북 영천시 북안면 팔암길 2,http://place.map.kakao.com/16954715
가마솥토종순대국밥,음식점,129.0101004,35.91607926,경북 영천시 북안면 운북로 2004,http://place.map.kakao.com/831005596
육일숯불가든,음식점,129.0101355,35.91624087,경북 영천시 북안면 운북로 2004-1,http://place.map.kakao.com/9319154
우미관,음식점,129.00844,35.91927613,경북 영천시 북안면 운북로 2042,http://place.map.kakao.com/753913983
임포닭집,음식점,129.0087321,35.91882431,경북 영천시 북안면 운북로 2034-1,http://place.map.kakao.com/2003248297
맥시칸치킨 임포점,음식점,129.0087609,35.91900314,경북 영천시 북안면 운북로 2036,http://place.map.kakao.com/2130439940
영광분식,음식점,129.0099797,35.91734909,경북 영천시 북안면 임포역길 97-1,http://place.map.kakao.com/755775793
신단골석쇠불고기,음식점,129.0119341,35.92409691,경북 영천시 북안면 개미곡길 47-35,http://place.map.kakao.com/22088570
토속 음식세림,음식점,129.0158713,36.05835382,경북 영천시 임고면 신방로 63,http://place.map.kakao.com/21466734
산천횟집,음식점,129.01668,36.05873667,경북 영천시 임고면 신방로 71,http://place.map.kakao.com/21506689
자양식당,음식점,129.0174811,36.07828049,경북 영천시 자양면 포은로 1626,http://place.map.kakao.com/21252723
영천댐식당,음식점,129.0173178,36.07832199,경북 영천시 자양면 포은로 1624,http://place.map.kakao.com/10060635
영화식당,음식점,129.0177013,36.07821101,경북 영천시 자양면 포은로 1628,http://place.map.kakao.com/27026259
환타지아,음식점,129.0137587,35.89285496,경북 영천시 북안면 운북로 1732,http://place.map.kakao.com/1570852692
도암기사식당,음식점,129.0195978,36.00232112,경북 영천시 고경면 호국로 825,http://place.map.kakao.com/16294070
착한생선구이정식,음식점,129.0185691,36.07790085,경북 영천시 자양면 포은로 1636,http://place.map.kakao.com/1575291412
남일횟집,음식점,129.0186343,36.07806194,경북 영천시 자양면 포은로 1635,http://place.map.kakao.com/15391608
새임고식당,음식점,129.0181133,36.07800223,경북 영천시 자양면 포은로 1632,http://place.map.kakao.com/25018802
썩썩비빔밥,음식점,129.0225227,35.90870346,경북 영천시 북안면 방산길 30-14,http://place.map.kakao.com/1467684239
오븐마루치킨 영천북안점,음식점,129.0226474,35.90868604,경북 영천시 북안면 방산길 30-14,http://place.map.kakao.com/887760672
할매손두부,음식점,129.0202068,35.92913007,경북 영천시 북안면 돌할매로 215,http://place.map.kakao.com/1642855531
삼사낚시터식당,음식점,129.023967,35.98688259,경북 영천시 고경면 추곡길 215-12,http://place.map.kakao.com/16293925
성곡횟집,음식점,129.0235882,36.07681061,경북 영천시 자양면 포은로 1680-1,http://place.map.kakao.com/444464061
자원미조개문어탕,음식점,129.0383554,36.00117294,경북 영천시 고경면 호국로 996,http://place.map.kakao.com/1869641859
자원미,음식점,129.0383622,36.00118004,경북 영천시 고경면 호국로 996,http://place.map.kakao.com/2121328156
88영양돌솥밥,음식점,129.0405344,36.00044567,경북 영천시 고경면 호국로 1018,http://place.map.kakao.com/8596223
송원정한정식,음식점,129.0424251,36.00109018,경북 영천시 고경면 호국로 1033,http://place.map.kakao.com/16899045
팔팔고기뷔페식당,음식점,129.0418594,36.00057089,경북 영천시 고경면 호국로 1028,http://place.map.kakao.com/21554599
통나무가든,음식점,129.041951,36.00119556,경북 영천시 고경면 호국로 1027,http://place.map.kakao.com/10035110
영천휴게소 포항방향 식당,음식점,129.042572,36.05137087,경북 영천시 임고면 운주로 777,http://place.map.kakao.com/21555223
던킨 영천휴게소포항방향점,음식점,129.0425482,36.0513064,경북 영천시 임고면 운주로 777,http://place.map.kakao.com/2079936616
코바코 영천휴게소포항방향점,음식점,129.0426543,36.05129108,경북 영천시 임고면 운주로 777,http://place.map.kakao.com/2049550300
던킨 영천휴게소대구방향점,음식점,129.0442789,36.05322586,경북 영천시 임고면 운주로 791,http://place.map.kakao.com/512781617
코바코 영천휴게소대구방향점,음식점,129.0443676,36.0532685,경북 영천시 임고면 운주로 791,http://place.map.kakao.com/955852168
산나루식당,음식점,129.0415642,36.08313012,경북 영천시 자양면 포은로 1937,http://place.map.kakao.com/21457747
돌할매식당매점,음식점,129.0453279,35.93978222,경북 영천시 북안면 돌할매로 479,http://place.map.kakao.com/317741232
백소백반,음식점,129.0446003,35.99506379,경북 영천시 고경면 백소길 66-9,http://place.map.kakao.com/1786826382
고경식당,음식점,129.0465669,36.00083754,경북 영천시 고경면 호국로 1072,http://place.map.kakao.com/10165881
OK치킨,음식점,129.0470686,36.00094341,경북 영천시 고경면 호국로 1076-3,http://place.map.kakao.com/27599786
고경치킨,음식점,129.0469111,36.00128219,경북 영천시 고경면 호국로 1075,http://place.map.kakao.com/630265602
대영식당,음식점,129.0466072,36.00124053,경북 영천시 고경면 호국로 1073,http://place.map.kakao.com/8924761
대성식당,음식점,129.0474248,36.0009959,경북 영천시 고경면 호국로 1080,http://place.map.kakao.com/630009834
고경가마솥곰탕,음식점,129.0691633,36.00391878,경북 영천시 고경면 호국로 1281,http://place.map.kakao.com/21511890
자양댐쉼터식당,음식점,129.069059,36.10544746,경북 영천시 자양면 포은로 2399,http://place.map.kakao.com/1748805883
금화림,음식점,129.0738614,36.00343935,경북 영천시 고경면 호국로 1321,http://place.map.kakao.com/12135604
덕타운,음식점,129.0755587,36.00350459,경북 영천시 고경면 호국로 1335-14,http://place.map.kakao.com/1789506682
고향매운탕,음식점,129.079955,36.0020498,경북 영천시 고경면 가수길 19,http://place.map.kakao.com/8664538
약콩칼국수,음식점,129.0846611,35.99632031,경북 영천시 고경면 호국로 1456,http://place.map.kakao.com/23442638
미성칼국수,음식점,129.0837816,35.99964064,경북 영천시 고경면 호국로 1433-38,http://place.map.kakao.com/9769863
석계손칼국수,음식점,129.0860447,35.99639716,경북 영천시 고경면 호국로 1457-10,http://place.map.kakao.com/9110404
석계웰빙손칼국수,음식점,129.0840241,35.99722522,경북 영천시 고경면 호국로 1440,http://place.map.kakao.com/10489269
언양돼지국밥,음식점,129.0852206,35.99705935,경북 영천시 고경면 호국로 1447,http://place.map.kakao.com/2101831364
초원식육식당,음식점,129.0856514,35.99636796,경북 영천시 고경면 호국로 1457,http://place.map.kakao.com/16228069
석계기사식당,음식점,129.0851883,35.99705721,경북 영천시 고경면 호국로 1447,http://place.map.kakao.com/962749322
뭐라꼬,음식점,129.0922268,35.98722131,경북 영천시 고경면 심청길 19,http://place.map.kakao.com/407974986
송원정 1호점,음식점,129.0901699,35.99217059,경북 영천시 고경면 호국로 1521,http://place.map.kakao.com/988581486
밀방앗간옆빵집,음식점,129.0977382,35.98622488,경북 영천시 고경면 청정길 11-3,http://place.map.kakao.com/21297107
청정석쇠촌,음식점,129.0981597,35.98618778,경북 영천시 고경면 청정길 15,http://place.map.kakao.com/10846578
홍진한정식당,음식점,129.0985595,35.98621322,경북 영천시 고경면 청정길 17,http://place.map.kakao.com/8656570
논실농원식당,음식점,129.1063163,35.94289267,경북 영천시 고경면 용담로 1589,http://place.map.kakao.com/1498584795
벗나무식당,음식점,129.1054276,35.98224807,경북 영천시 고경면 용담로 2072,http://place.map.kakao.com/1932034989
호숫가 풍경소리,음식점,129.1116576,35.97008615,경북 영천시 고경면 용담로 1920,http://place.map.kakao.com/1235967015
부여금강방,음식점,129.1116861,35.97007393,경북 영천시 고경면 용담로 1920,http://place.map.kakao.com/10458405
고경수산가든,음식점,129.109506,35.9779514,경북 영천시 고경면 용담로 2016-9,http://place.map.kakao.com/10165319
산아래,음식점,129.1153004,35.92688604,경북 영천시 고경면 용담로 1379-3,http://place.map.kakao.com/21490756
창성식당,음식점,129.1153007,35.92656526,경북 영천시 고경면 용담로 1379-11,http://place.map.kakao.com/16644849
건천식당,음식점,129.1154082,35.92610923,경북 영천시 고경면 용담로 1379-16,http://place.map.kakao.com/8786388
덕정식당,음식점,129.1151751,35.92634401,경북 영천시 고경면 용담로 1379-14,http://place.map.kakao.com/8892599
나비드,카페,128.7160181,36.05565632,경북 영천시 신녕면 치산관광길 175,http://place.map.kakao.com/1517841608
청향제,카페,128.7183781,36.05767612,경북 영천시 신녕면 치산관광길 143,http://place.map.kakao.com/18692372
정카페,카페,128.72754,36.08973696,경북 영천시 신녕면 갑티로 132,http://place.map.kakao.com/1949458807
별다방,카페,128.7883666,36.03940529,경북 영천시 신녕면 장수로 1655,http://place.map.kakao.com/25856423
다래다방,카페,128.7885765,36.03710888,경북 영천시 신녕면 구디티길 6,http://place.map.kakao.com/1456785927
나눔터휴게실,카페,128.7887883,36.03720124,경북 영천시 신녕면 장수로 1629,http://place.map.kakao.com/1639870077
맥향다방,카페,128.7888473,36.03794556,경북 영천시 신녕면 장수로 1638,http://place.map.kakao.com/1639975132
마실커피숍,카페,128.7873187,36.04355333,경북 영천시 신녕면 치산효령로 2,http://place.map.kakao.com/823251929
양파다방,카페,128.7883002,36.03995144,경북 영천시 신녕면 장수로 1661,http://place.map.kakao.com/1568501840
카라커피숍,카페,128.7871172,36.04538555,경북 영천시 신녕면 장수로 1719-4,http://place.map.kakao.com/9198258
아리랑다방,카페,128.7880134,36.04169212,경북 영천시 신녕면 장수로 1681,http://place.map.kakao.com/1859622872
황제다방,카페,128.7892876,36.04127483,경북 영천시 신녕면 불바위길 10-1,http://place.map.kakao.com/87753574
화성다방,카페,128.7871376,36.04412732,경북 영천시 신녕면 장수로 1709,http://place.map.kakao.com/9632508
거성다방,카페,128.7875036,36.04323879,경북 영천시 신녕면 장수로 1697-1,http://place.map.kakao.com/21508064
정다방,카페,128.7875421,36.042147,경북 영천시 신녕면 본관시장길 3,http://place.map.kakao.com/1435909560
경북다방,카페,128.7883262,36.04154328,경북 영천시 신녕면 장수로 1678,http://place.map.kakao.com/8756150
진다방,카페,128.7872473,36.04368235,경북 영천시 신녕면 장수로 1703-1,http://place.map.kakao.com/10777396
양지다방,카페,128.7874169,36.04333019,경북 영천시 신녕면 장수로 1699,http://place.map.kakao.com/26080161
달빛마실,카페,128.7859807,36.04861307,경북 영천시 신녕면 장수로 1761,http://place.map.kakao.com/62867776
화월다방,카페,128.7872206,36.04446489,경북 영천시 신녕면 장수로 1711-1,http://place.map.kakao.com/8688785
신녕다방,카페,128.7877007,36.04331875,경북 영천시 신녕면 장수로 1700,http://place.map.kakao.com/19675371
광장다방,카페,128.7881398,36.04232821,경북 영천시 신녕면 장수로 1688,http://place.map.kakao.com/24717777
더드림커피 영천신녕점,카페,128.7901841,36.03534397,경북 영천시 신녕면 장수로 1607,http://place.map.kakao.com/431951746
청맥다방,카페,128.7901403,36.04149458,경북 영천시 신녕면 불바위길 17,http://place.map.kakao.com/21457776
락다방,카페,128.7891719,36.04145497,경북 영천시 신녕면 불바위길 9,http://place.map.kakao.com/986433196
신녕북카페,카페,128.7897586,36.0453155,경북 영천시 신녕면 화성중앙길 30,http://place.map.kakao.com/1674213638
카페라샹떼,카페,128.7969044,35.98998418,경북 영천시 청통면 은해사로 208-25,http://place.map.kakao.com/1183787869
카페솔,카페,128.7968434,35.99032841,경북 영천시 청통면 은해사로 208-24,http://place.map.kakao.com/521893745
카페봄봄 은해사점(특수),카페,128.7977028,35.99013622,경북 영천시 청통면 은해사로 208-15,http://place.map.kakao.com/1763321318
별카페,카페,128.7973907,35.9900625,경북 영천시 청통면 은해사로 208-19,http://place.map.kakao.com/618327803
쏠쏠한커피,카페,128.8082343,35.99398416,경북 영천시 청통면 은해사로 108,http://place.map.kakao.com/428801109
나다움,카페,128.8201206,35.99449639,경북 영천시 청통면 금송로 1013,http://place.map.kakao.com/27453316
천운다방,카페,128.823406,35.99097638,경북 영천시 청통면 금송로 968-2,http://place.map.kakao.com/1073338619
들메꽃,카페,128.8440513,35.99257733,경북 영천시 청통면 청통로 458,http://place.map.kakao.com/1646806550
해성휴게커피숖,카페,128.8549488,36.01861285,경북 영천시 화산면 장수로 934,http://place.map.kakao.com/21302257
할리스 청통휴게소대구방향점,카페,128.8591699,35.99394784,경북 영천시 청통면 청통로 334-42,http://place.map.kakao.com/17100697
엘리아스커피 청통휴게소점,카페,128.8591632,35.99394795,경북 영천시 청통면 청통로 334-42,http://place.map.kakao.com/332225944
살롱드제이드,카페,128.865143,35.92948302,경북 영천시 금호읍 금호로 30,http://place.map.kakao.com/550152952
카페봄봄 영천금호점,카페,128.8697597,35.93079707,경북 영천시 금호읍 금호로 73,http://place.map.kakao.com/1754084276
행복다방,카페,128.8714546,35.93116352,경북 영천시 금호읍 금호로 89,http://place.map.kakao.com/838216832
수다방,카페,128.8724489,35.93141834,경북 영천시 금호읍 금호로 99,http://place.map.kakao.com/9847344
유천다방,카페,128.8728546,35.93119034,경북 영천시 금호읍 금호로 102-1,http://place.map.kakao.com/1539594363
중앙다방,카페,128.8732341,35.93126191,경북 영천시 금호읍 금호로 106,http://place.map.kakao.com/9439336
카페다와,카페,128.8738868,35.9313166,경북 영천시 금호읍 금호로 112-2,http://place.map.kakao.com/19615676
리주니,카페,128.8745332,35.93157143,경북 영천시 금호읍 금호로 118,http://place.map.kakao.com/1213627165
산과보롬,카페,128.8714456,35.93378945,경북 영천시 금호읍 교대용대길 7-1,http://place.map.kakao.com/343238876
포도다방,카페,128.8745254,35.93151929,경북 영천시 금호읍 금호로 118,http://place.map.kakao.com/10024514
미정커피&티,카페,128.8751117,35.93195076,경북 영천시 금호읍 금호로 123,http://place.map.kakao.com/1540776163
커피베이 영천금호점,카페,128.8766329,35.93237302,경북 영천시 금호읍 금호로 137-1,http://place.map.kakao.com/800441989
미진다방,카페,128.8759544,35.93211961,경북 영천시 금호읍 금호로 131,http://place.map.kakao.com/1541501626
파크다방,카페,128.8781288,35.93251903,경북 영천시 금호읍 금호로 152,http://place.map.kakao.com/582649366
옹그릭,카페,128.8778894,35.93270209,경북 영천시 금호읍 금호로 149-2,http://place.map.kakao.com/252062217
서울다방,카페,128.8798608,35.93318395,경북 영천시 금호읍 금호로 170-1,http://place.map.kakao.com/27470857
평화다방,카페,128.8784755,35.93279384,경북 영천시 금호읍 금호로 156,http://place.map.kakao.com/9514245
커피앤커피,카페,128.8793071,35.93333499,경북 영천시 금호읍 금호로 165,http://place.map.kakao.com/2082722858
희망다방,카페,128.8782089,35.93309357,경북 영천시 금호읍 금호로 155,http://place.map.kakao.com/530595527
대미당,카페,128.8847223,35.9589239,경북 영천시 금호읍 대동마을길 154-9,http://place.map.kakao.com/662609943
카페레이크온,카페,128.890445,35.8743781,경북 영천시 대창면 금박로 1004,http://place.map.kakao.com/425185203
금박산관광농원,카페,128.8904263,35.8743793,경북 영천시 대창면 금박로 1004,http://place.map.kakao.com/1122431216
동화다방,카페,128.878271,35.93305025,경북 영천시 금호읍 금호로 155,http://place.map.kakao.com/21255701
카페시안,카페,128.8892501,36.03274498,경북 영천시 화산면 가래실로 364,http://place.map.kakao.com/21496698
카페휘가람,카페,128.8940183,36.05206266,경북 영천시 화남면 천문로 1502-10,http://place.map.kakao.com/1207781189
카페이이구,카페,128.8919506,36.06070958,경북 영천시 화남면 천문로 1605,http://place.map.kakao.com/527354123
신신휴게실,카페,128.8912371,36.06001801,경북 영천시 화남면 신화로 1217-1,http://place.map.kakao.com/26496029
별,카페,128.8921275,36.06109605,경북 영천시 화남면 천문로 1609,http://place.map.kakao.com/1064845725
길백록다방,카페,128.8922455,36.06083378,경북 영천시 화남면 천문로 1608,http://place.map.kakao.com/1053264166
우정커피숍,카페,128.8926269,36.06193157,경북 영천시 화남면 천문로 1618-1,http://place.map.kakao.com/448570811
목화다방,카페,128.8924375,36.06134616,경북 영천시 화남면 천문로 1612-2,http://place.map.kakao.com/1064982983
은하다방,카페,128.8929271,36.0627414,경북 영천시 화남면 천문로 1627,http://place.map.kakao.com/11181767
대림커피숍,카페,128.8953879,35.87546981,경북 영천시 대창면 금박로 1055,http://place.map.kakao.com/996145731
대창커피숍,카페,128.895267,35.87587811,경북 영천시 대창면 금박로 1057-6,http://place.map.kakao.com/1610976906
가배카페,카페,128.8943619,35.87799285,경북 영천시 대창면 금창로 648-1,http://place.map.kakao.com/761275283
대창다방,카페,128.8955875,35.87627224,경북 영천시 대창면 금창로 672-4,http://place.map.kakao.com/10234510
마실커피 화남점,카페,128.8995522,36.06734285,경북 영천시 화남면 천문로 1709-2,http://place.map.kakao.com/107496501
도기랜드애견카페,카페,128.9006296,36.12342706,경북 영천시 화북면 천문로 2149-284,http://place.map.kakao.com/13305987
솔커피숍,카페,128.8991584,35.94304798,경북 영천시 금호읍 원제2길 16-8,http://place.map.kakao.com/12680951
칼라다방,카페,128.899132,35.94305921,경북 영천시 금호읍 원제2길 16-8,http://place.map.kakao.com/21509336
레이지보스,카페,128.902976,36.0090296,경북 영천시 화산면 대기길 92,http://place.map.kakao.com/1366581578
솔밭커피숍,카페,128.9008528,36.00956068,경북 영천시 화산면 대기길 80-20,http://place.map.kakao.com/2095988357
페이즈나인,카페,128.9028836,36.07230444,경북 영천시 화남면 천문로 1765-10,http://place.map.kakao.com/1584616521
허스모닝,카페,128.9059615,35.94865029,경북 영천시 금호읍 금호로 476,http://place.map.kakao.com/1546554826
자매커피숍,카페,128.9098129,36.08377832,경북 영천시 화남면 천문로 1918,http://place.map.kakao.com/409814256
더카페 영천이마트점,카페,128.9099884,35.95858018,경북 영천시 최무선로 83,http://place.map.kakao.com/18035329
아벨리안 영남대학교병원점,카페,128.9132748,35.957351,경북 영천시 오수1길 10,http://place.map.kakao.com/311009992
카페브리즈,카페,128.9167215,36.10564944,경북 영천시 화북면 천문로 2178,http://place.map.kakao.com/2066227826
스테이클래시,카페,128.9157933,35.96612879,경북 영천시 송정길 85,http://place.map.kakao.com/1746480571
민들레전통찻집,카페,128.9178058,35.96620387,경북 영천시 장수로 62,http://place.map.kakao.com/11333845
송학다방,카페,128.9198831,36.10904086,경북 영천시 화북면 화북길 83,http://place.map.kakao.com/1132002709
송학다실,카페,128.9198841,36.10903454,경북 영천시 화북면 화북길 83,http://place.map.kakao.com/9864373
진커피숲,카페,128.9206994,36.11022889,경북 영천시 화북면 화북길 68,http://place.map.kakao.com/969790233
러셀커피 영천자천점,카페,128.9224371,36.11145258,경북 영천시 화북면 화북길 47,http://place.map.kakao.com/611354764
카페봄봄 영천 서문점,카페,128.9232441,35.9626107,경북 영천시 최무선로 204,http://place.map.kakao.com/1613528732
카페정원,카페,128.9214404,35.96410295,경북 영천시 장수로 22-1,http://place.map.kakao.com/84115679
카페커몬,카페,128.9209836,35.96409585,경북 영천시 장수로 25,http://place.map.kakao.com/27548515
맛동산,카페,128.9237893,35.96324172,경북 영천시 청석길 4,http://place.map.kakao.com/662730009
이수다방,카페,128.9238249,35.96407195,경북 영천시 운동장로 14,http://place.map.kakao.com/11865195
리즈커피,카페,128.9244882,35.96614551,경북 영천시 운동장로 36,http://place.map.kakao.com/532306992
스타티오,카페,128.9230999,35.9711967,경북 영천시 운동장로 94,http://place.map.kakao.com/1435859397
다트나인,카페,128.9259919,35.97789847,경북 영천시 천문로 464,http://place.map.kakao.com/35786787
단아,카페,128.9222859,35.9778534,경북 영천시 천문로 485,http://place.map.kakao.com/1190606830
에멍쁘아,카페,128.9252463,35.98243475,경북 영천시 천문로 524-52,http://place.map.kakao.com/515942166
더노랑카페,카페,128.9236345,35.9854549,경북 영천시 천문로 568,http://place.map.kakao.com/1106797316
아담하다,카페,128.930013,35.93992901,경북 영천시 송죽길 8,http://place.map.kakao.com/2022906194
영신커피숍,카페,128.9269761,35.96124694,경북 영천시 강변로 37,http://place.map.kakao.com/21481130
1994커피 영천점,카페,128.9265875,35.9671922,경북 영천시 왕평길 31,http://place.map.kakao.com/27441628
카페비다,카페,128.9290732,35.96694321,경북 영천시 백신애길 2,http://place.map.kakao.com/40532053
더렁즈커피,카페,128.9277516,35.96647246,경북 영천시 서문길 97-3,http://place.map.kakao.com/1940975546
소나무,카페,128.9310484,35.96653207,경북 영천시 최무선로 284,http://place.map.kakao.com/641870613
애플트리,카페,128.9315688,35.97378909,경북 영천시 중앙동2길 100,http://place.map.kakao.com/1667307442
착한까페,카페,128.9296779,35.97302477,경북 영천시 천문로 398,http://place.map.kakao.com/384383410
어느날카페,카페,128.9305308,35.97417884,경북 영천시 중앙동3길 76,http://place.map.kakao.com/2099993958
카페비엔,카페,128.9327818,35.94314816,경북 영천시 한방로 27,http://place.map.kakao.com/18694041
스타코,카페,128.9341865,35.96126877,경북 영천시 구읍1길 17,http://place.map.kakao.com/694525258
솔방,카페,128.932323,35.95966064,경북 영천시 담안8길 44,http://place.map.kakao.com/9152198
초아당,카페,128.9346981,35.96015941,경북 영천시 금완로 60-6,http://place.map.kakao.com/472832604
이다숲,카페,128.9352992,35.96112738,경북 영천시 구읍1길 41,http://place.map.kakao.com/1689928270
빽다방 영천완산점,카페,128.9360544,35.96359767,경북 영천시 시장로 53,http://place.map.kakao.com/1858560549
더벤티 영천점,카페,128.9347675,35.96350129,경북 영천시 시장로 41,http://place.map.kakao.com/1316296238
카페 리버뷰,카페,128.934092,35.9682086,경북 영천시 최무선로 318,http://place.map.kakao.com/2098261084
별이랑놀자,카페,128.9324462,35.9749031,경북 영천시 중앙동1길 77,http://place.map.kakao.com/1453577090
투썸플레이스 영천시청점,카페,128.9361749,35.97234338,경북 영천시 충효로 60,http://place.map.kakao.com/14411602
파스쿠찌 영천시청점,카페,128.9353104,35.97202844,경북 영천시 충효로 50,http://place.map.kakao.com/26894262
자메이카,카페,128.9368556,35.97279735,경북 영천시 충효로 68,http://place.map.kakao.com/27408450
보리수다방,카페,128.9305836,35.96997807,경북 영천시 충효로 4,http://place.map.kakao.com/1019843452
샐리,카페,128.9334489,35.97315237,경북 영천시 중앙동4길 20,http://place.map.kakao.com/787207023
메가MGC커피 영천시청점,카페,128.9375887,35.97349556,경북 영천시 충효로 75-2,http://place.map.kakao.com/1416376094
쌍화별당전통카페,카페,128.9323248,35.97505824,경북 영천시 중앙동1길 81,http://place.map.kakao.com/1250010871
카페모람,카페,128.9359605,35.97282081,경북 영천시 무궁화길 20,http://place.map.kakao.com/313456245
커피나라빙수왕 영천점,카페,128.9342509,35.97317548,경북 영천시 중앙동1길 28,http://place.map.kakao.com/680971808
안다미로,카페,128.9347813,35.98314095,경북 영천시 오미길 121,http://place.map.kakao.com/2012491221
야미야미,카페,128.9326631,35.97425083,경북 영천시 중앙동2길 78,http://place.map.kakao.com/1976864082
더블유컬렉션 영천점,카페,128.9335261,35.97409095,경북 영천시 중앙동1길 52,http://place.map.kakao.com/1360384949
담숨,카페,128.9399671,35.86809164,경북 영천시 대창면 금창로 1095-60,http://place.map.kakao.com/1234418493
에그마카슈,카페,128.9387924,35.96052402,경북 영천시 역전로 51-3,http://place.map.kakao.com/1719464946
하늘다방,카페,128.9374193,35.9628007,경북 영천시 완산중앙3길 36,http://place.map.kakao.com/176095360
원천다방,카페,128.9384298,35.96074344,경북 영천시 역전로 49,http://place.map.kakao.com/22234048
여심다방,카페,128.9379035,35.96075194,경북 영천시 역전로 46,http://place.map.kakao.com/1441291825
수림다방,카페,128.9375472,35.96172816,경북 영천시 완산중앙3길 12,http://place.map.kakao.com/14872764
열차다방,카페,128.9387751,35.96063424,경북 영천시 역전로 51-1,http://place.map.kakao.com/21507100
북두카페,카페,128.9399155,35.96171692,경북 영천시 완산7길 3,http://place.map.kakao.com/941068516
양지다방,카페,128.9375339,35.96136344,경북 영천시 완산중앙3길 4,http://place.map.kakao.com/8877845
바빈스커피 영천완산점,카페,128.9371738,35.96250461,경북 영천시 완산중앙3길 29-1,http://place.map.kakao.com/1286808768
카페잇데이,카페,128.9359199,35.96366922,경북 영천시 시장로 51-1,http://place.map.kakao.com/1002576457
컴포즈커피 영천롯데시네마점,카페,128.9409698,35.9634011,경북 영천시 시장로 96,http://place.map.kakao.com/65031887
빽다방 영천시청점,카페,128.9376074,35.97321412,경북 영천시 충효로 74,http://place.map.kakao.com/1779220423
읍천리382 경북영천점,카페,128.9351353,35.97198531,경북 영천시 충효로 48-1,http://place.map.kakao.com/680070678
핸즈커피 영천시청점,카페,128.9387198,35.97197068,경북 영천시 시청남길 6,http://place.map.kakao.com/14735717
느루,카페,128.9349239,35.97031903,경북 영천시 문외1길 23,http://place.map.kakao.com/1117726155
설렘 영천점,카페,128.9357399,35.97377591,경북 영천시 청산길 25,http://place.map.kakao.com/1638576774
카페봄봄 영천 문외점,카페,128.9363184,35.97254291,경북 영천시 충효로 62,http://place.map.kakao.com/244416597
공차 영천시청점,카페,128.9373536,35.97339844,경북 영천시 충효로 75,http://place.map.kakao.com/1467893166
더벤티 영천시청점,카페,128.9386595,35.97403512,경북 영천시 시청동길 31,http://place.map.kakao.com/178695590
카페더반,카페,128.9402499,35.98973317,경북 영천시 삼밭골길 109,http://place.map.kakao.com/655831955
메가MGC커피 영천IC점,카페,128.9443675,35.93520989,경북 영천시 영천아이시로 42,http://place.map.kakao.com/345551277
카페바인,카페,128.9433752,35.9334193,경북 영천시 봉동2길 23-46,http://place.map.kakao.com/192867104
커피집,카페,128.9394892,35.96064702,경북 영천시 완산로 6,http://place.map.kakao.com/619514645
은하수다방,카페,128.9386158,35.96064762,경북 영천시 역전로 51,http://place.map.kakao.com/1920348916
수향다방,카페,128.9384891,35.96036132,경북 영천시 역전로 52,http://place.map.kakao.com/9843620
명지커피숍,카페,128.9386071,35.96065137,경북 영천시 역전로 51,http://place.map.kakao.com/1409721724
이디야커피 영천완산점,카페,128.9444279,35.96353793,경북 영천시 시장로 128,http://place.map.kakao.com/921790242
황금다방,카페,128.9383173,35.96271682,경북 영천시 완산중앙9길 18,http://place.map.kakao.com/439552158
청춘문화공간 썰툰 본점,카페,128.9382354,35.9713802,경북 영천시 시청로 5,http://place.map.kakao.com/50571930
루의하루,카페,128.9394033,35.97145143,경북 영천시 호국로 9,http://place.map.kakao.com/688114779
요거트월드 영천점,카페,128.9392767,35.97429727,경북 영천시 충효로 93,http://place.map.kakao.com/835058455
이음,카페,128.9389124,35.97413196,경북 영천시 충효로 93,http://place.map.kakao.com/1619278365
명림당,카페,128.9412056,35.97624483,경북 영천시 모란2길 21-12,http://place.map.kakao.com/9030655
앙금앙금,카페,128.9414858,35.97546627,경북 영천시 모란2길 22-6,http://place.map.kakao.com/427267840
카고커피,카페,128.9481167,35.91434311,경북 영천시 영천산단로 359,http://place.map.kakao.com/1456660994
뉴커피,카페,128.9489875,35.91443711,경북 영천시 영천산단로 359-7,http://place.map.kakao.com/1719033703
데이앤데이 영천점,카페,128.9518958,35.92748706,경북 영천시 정모길 5,http://place.map.kakao.com/1719939018
토프레소 영천점,카페,128.9476486,35.9317479,경북 영천시 산업단지로 323,http://place.map.kakao.com/22542990
신초원다방,카페,128.9367143,35.96147849,경북 영천시 역전로 32,http://place.map.kakao.com/1000585249
스타벅스 영천완산DT점,카페,128.9491147,35.96698688,경북 영천시 영화로 272,http://place.map.kakao.com/874174807
달다방,카페,128.940829,35.96661482,경북 영천시 완산6길 38,http://place.map.kakao.com/902910913
벨빌 베이크하우스 영천점,카페,128.949966,35.97081703,경북 영천시 동부로 3,http://place.map.kakao.com/2087737124
아이팡팡키즈랜드,카페,128.9512437,35.97143151,경북 영천시 영화로 330,http://place.map.kakao.com/1873518742
어름,카페,128.944322,35.97390472,경북 영천시 새말1길 7,http://place.map.kakao.com/1647802860
호국로111,카페,128.9494561,35.97559381,경북 영천시 호국로 111,http://place.map.kakao.com/2102219837
레터커피,카페,128.9507267,35.97839531,경북 영천시 망정3길 64-2,http://place.map.kakao.com/117485186
쓰리에이치카페,카페,128.9536978,35.97916333,경북 영천시 망정로 30,http://place.map.kakao.com/463123299
설렘디저트,카페,128.9475509,35.975158,경북 영천시 호국로 93-1,http://place.map.kakao.com/820244913
만화카페보니,카페,128.9483294,35.97481196,경북 영천시 동부로 52,http://place.map.kakao.com/277064923
블리벨리,카페,128.9497656,35.97614294,경북 영천시 망정2길 7-5,http://place.map.kakao.com/1904849902
듀잇,카페,128.9542422,35.98505108,경북 영천시 언하공단로 91-14,http://place.map.kakao.com/1863077111
레이크410,카페,128.9539176,35.98519693,경북 영천시 언하공단로 91-12,http://place.map.kakao.com/482215281
하삼동커피 영천망정점,카페,128.9516496,35.98156649,경북 영천시 망정1길 174,http://place.map.kakao.com/411800595
더리터 영천한신점,카페,128.9516957,35.98141256,경북 영천시 망정1길 174,http://place.map.kakao.com/5702686
멘토슬라임 영천점,카페,128.9515904,35.98253881,경북 영천시 망정1길 200,http://place.map.kakao.com/863190736
카페달샘트리,카페,128.9521187,35.98886296,경북 영천시 창신길 33,http://place.map.kakao.com/841854782
카페인중독 영천점,카페,128.9536716,35.98623447,경북 영천시 언하공단로 92,http://place.map.kakao.com/554103465
달콤하다,카페,128.9521423,35.98874003,경북 영천시 창신길 31,http://place.map.kakao.com/1022648130
컴포즈커피 망정점,카페,128.9545323,35.9891264,경북 영천시 창신1길 42,http://place.map.kakao.com/698308622
커피왕 영천점,카페,128.9544899,35.98637522,경북 영천시 언하공단로 84,http://place.map.kakao.com/1223674688
루머팡 망정점,카페,128.9542072,35.98898032,경북 영천시 창신1길 35,http://place.map.kakao.com/1628127003
텀브커피 영천망정점,카페,128.9545118,35.98914746,경북 영천시 창신1길 42,http://place.map.kakao.com/1291383184
카페지,카페,128.9545085,36.00303212,경북 영천시 상신기길 95-135,http://place.map.kakao.com/1747978605
별담은호수,카페,128.953327,36.12992446,경북 영천시 화북면 은하수길 27,http://place.map.kakao.com/1230060229
보현산 전망대카페,카페,128.9527431,36.12702448,경북 영천시 화북면 천문로 2610,http://place.map.kakao.com/1565126266
봉봉,카페,128.9413645,35.96164122,경북 영천시 완산8길 3,http://place.map.kakao.com/597311305
타인의서재,카페,128.9402215,35.96104337,경북 영천시 약전1길 26,http://place.map.kakao.com/546257669
수진다방,카페,128.9404307,35.9613013,경북 영천시 약전길 28-4,http://place.map.kakao.com/349829181
키즈몽,카페,128.9509599,35.97061885,경북 영천시 장천길 5,http://place.map.kakao.com/540028229
카페다인에,카페,128.9475602,35.97147786,경북 영천시 문화새길 68,http://place.map.kakao.com/2146028171
케이브커피,카페,128.9477457,35.97198756,경북 영천시 문화새길 61-7,http://place.map.kakao.com/434427114
더리터 영천망정점,카페,128.9482217,35.97358464,경북 영천시 동부로 39,http://place.map.kakao.com/1956716243
디카프리 완산,카페,128.9380678,35.96634048,경북 영천시 강남길 49,http://place.map.kakao.com/2038103207
커피하우스,카페,128.9479076,35.97325364,경북 영천시 야사시장길 42,http://place.map.kakao.com/418676182
3H,카페,128.9533183,35.97910283,경북 영천시 망정로 30,http://place.map.kakao.com/1349565671
카페봄봄 영천 2호점,카페,128.9544753,35.98591681,경북 영천시 언하공단로 83,http://place.map.kakao.com/1838816427
소디스커피 경북영천점,카페,128.9568351,35.98867436,경북 영천시 창신2길 27,http://place.map.kakao.com/171121136
도그휴,카페,128.9579652,35.88849569,경북 영천시 신성일로 300,http://place.map.kakao.com/270398621
카페고니,카페,128.961038,35.96236828,경북 영천시 바깥완산길 274,http://place.map.kakao.com/58766494
카페우내,카페,128.9642286,35.99754437,경북 영천시 임고면 매호운천길 13-40,http://place.map.kakao.com/1464600778
릴리베이커리카페,카페,128.9659668,35.97022966,경북 영천시 장천길 183,http://place.map.kakao.com/1821208283
멍애견카페,카페,128.966463,35.9939305,경북 영천시 임고면 포은로 185,http://place.map.kakao.com/6853615
카페 인,카페,128.9704956,36.01980782,경북 영천시 임고면 포은로 453-51,http://place.map.kakao.com/1005324061
보리떡머슴과 커피마님,카페,128.9759802,36.0117188,경북 영천시 임고면 양항2길 27-4,http://place.map.kakao.com/2117096103
카페온당,카페,128.9745806,36.01691847,경북 영천시 임고면 포은로 452,http://place.map.kakao.com/1282047321
커들리,카페,128.974022,36.01817835,경북 영천시 임고면 포은로 465,http://place.map.kakao.com/396983212
나무그늘,카페,128.97467,36.01729905,경북 영천시 임고면 포은로 456,http://place.map.kakao.com/20453364
카페 고요림,카페,128.9741625,36.01887436,경북 영천시 임고면 포은로 475,http://place.map.kakao.com/336652836
윈느타임,카페,128.9758324,36.01659149,경북 영천시 임고면 운주로 14,http://place.map.kakao.com/988094553
카페아낙466,카페,128.9745829,36.01816461,경북 영천시 임고면 포은로 466,http://place.map.kakao.com/1576499229
카페작은숲,카페,128.9741797,36.01987696,경북 영천시 임고면 포은로 485,http://place.map.kakao.com/20601123
쉼카페,카페,128.974022,36.01817835,경북 영천시 임고면 포은로 465,http://place.map.kakao.com/1133130642
카페펀,카페,128.9742739,36.02769575,경북 영천시 임고면 포은로 580,http://place.map.kakao.com/1724237864
수갤러리&카페,카페,128.98516,36.04261864,경북 영천시 임고면 포은로 782,http://place.map.kakao.com/944005520
명주다방,카페,128.9943549,35.87200981,경북 영천시 북안면 운북로 1432-1,http://place.map.kakao.com/1934449607
마누리 카페,카페,128.9985219,36.03074049,경북 영천시 임고면 승마휴양림길 62-16,http://place.map.kakao.com/1331944519
복고다방 영천북안점,카페,129.0076848,35.91937797,경북 영천시 북안면 운북로 2043,http://place.map.kakao.com/104289520
쁠랑,카페,129.0085852,36.03627057,경북 영천시 임고면 방목길 27,http://place.map.kakao.com/1724479769
신천다방,카페,129.0100759,35.91738443,경북 영천시 북안면 임포역길 97,http://place.map.kakao.com/11114993
원다방,카페,129.0092062,35.91838656,경북 영천시 북안면 운북로 2028,http://place.map.kakao.com/9961251
서울개공원,카페,129.0129868,36.03781953,경북 영천시 임고면 운주로 421-25,http://place.map.kakao.com/1232870034
영천휴게소포항방향 팜스,카페,129.0425622,36.051335,경북 영천시 임고면 운주로 777,http://place.map.kakao.com/21555459
탐앤탐스 영천휴게소 포항방향점,카페,129.0425444,36.0513317,경북 영천시 임고면 운주로 777,http://place.map.kakao.com/27545625
탐앤탐스 영천휴게소 대구방향점,카페,129.0444458,36.05320229,경북 영천시 임고면 운주로 791,http://place.map.kakao.com/436588733
카페나무,카페,129.044454,35.99523748,경북 영천시 고경면 백소길 66-2,http://place.map.kakao.com/540643047
동남휴게실,카페,129.0467789,36.00127544,경북 영천시 고경면 호국로 1073-1,http://place.map.kakao.com/655324149
동남다방,카페,129.0467343,36.00126629,경북 영천시 고경면 호국로 1073,http://place.map.kakao.com/8263532
카페디아망,카페,129.0690691,36.00209578,경북 영천시 고경면 호국로 1282-2,http://place.map.kakao.com/854991719
정원카페,카페,129.1114615,36.05675445,경북 영천시 임고면 운주로 1546-8,http://place.map.kakao.com/685147592
계영약국,약국,128.788151,36.04243077,경북 영천시 신녕면 장수로 1688-1,http://place.map.kakao.com/8755642
휘명동산약국,약국,128.7995303,36.04516018,경북 영천시 신녕면 신화로 114-8,http://place.map.kakao.com/13548640
경동약국,약국,128.8705714,35.93068439,경북 영천시 금호읍 금호로 80-1,http://place.map.kakao.com/8760120
금호동산약국,약국,128.8718935,35.93234522,경북 영천시 금호읍 교대길 14,http://place.map.kakao.com/10214995
조은약국,약국,128.8703408,35.93053931,경북 영천시 금호읍 금호로 78,http://place.map.kakao.com/10791919
서강약국,약국,128.8757952,35.93208876,경북 영천시 금호읍 금호로 129,http://place.map.kakao.com/7929670
구생약방,약국,128.8921855,36.06059955,경북 영천시 화남면 천문로 1604,http://place.map.kakao.com/1564639358
대구약국,약국,128.8970285,35.87448334,경북 영천시 대창면 금창로 692-1,http://place.map.kakao.com/8865057
영천약국,약국,128.9128226,35.95789886,경북 영천시 오수1길 8,http://place.map.kakao.com/10641745
정온누리약국,약국,128.9130953,35.95817835,경북 영천시 오수1길 5,http://place.map.kakao.com/1061738893
온누리정약국,약국,128.9130953,35.95817745,경북 영천시 오수1길 5,http://place.map.kakao.com/1664334500
하나약국,약국,128.9267367,35.96074168,경북 영천시 강변로 38,http://place.map.kakao.com/10863562
강남약국,약국,128.9279235,35.96109926,경북 영천시 강변로 47,http://place.map.kakao.com/9686708
터미널약국,약국,128.927795,35.96069224,경북 영천시 강변로 44,http://place.map.kakao.com/8115471
대학당약국,약국,128.9366019,35.96359334,경북 영천시 시장로 57-1,http://place.map.kakao.com/8897836
고려약국,약국,128.9359777,35.96353944,경북 영천시 시장로 51-1,http://place.map.kakao.com/10160671
새영천약국,약국,128.9368367,35.96358684,경북 영천시 시장로 59-1,http://place.map.kakao.com/12560083
완산약국,약국,128.9360802,35.96356301,경북 영천시 시장로 53,http://place.map.kakao.com/8457523
제일약국,약국,128.9354053,35.96352164,경북 영천시 시장로 47,http://place.map.kakao.com/20004280
화평당약국,약국,128.9325322,35.96797063,경북 영천시 옛군청1길 34-4,http://place.map.kakao.com/9625137
영천심야약국,약국,128.9367125,35.97279606,경북 영천시 삼산길 26,http://place.map.kakao.com/1314651042
안도약국,약국,128.9372709,35.97033161,경북 영천시 최무선로 353,http://place.map.kakao.com/9918901
온누리유명약국,약국,128.9384377,35.96333571,경북 영천시 시장로 74-1,http://place.map.kakao.com/10688519
중앙약국,약국,128.9371658,35.96326435,경북 영천시 시장로 62-1,http://place.map.kakao.com/8081575
중원약국,약국,128.9392173,35.96484864,경북 영천시 완산로 52,http://place.map.kakao.com/8076510
인제약국,약국,128.9395534,35.96526401,경북 영천시 완산3길 12,http://place.map.kakao.com/13549225
새복약국,약국,128.9386866,35.96512754,경북 영천시 완산로 57,http://place.map.kakao.com/9097599
선린약국,약국,128.939256,35.96529585,경북 영천시 완산로 58,http://place.map.kakao.com/13546994
사랑약국,약국,128.9390949,35.96646084,경북 영천시 완산로 70,http://place.map.kakao.com/9119108
소원약국,약국,128.9475711,35.97498827,경북 영천시 호국로 93,http://place.map.kakao.com/7959907
새동산약국,약국,128.9483145,35.97339391,경북 영천시 동부로 35,http://place.map.kakao.com/10506327
현약국,약국,128.9476843,35.97517475,경북 영천시 호국로 95,http://place.map.kakao.com/26347491
진약국,약국,128.9532696,35.9768996,경북 영천시 망정로 7,http://place.map.kakao.com/1778219201
라온약국,약국,128.9515497,35.98255029,경북 영천시 망정1길 200,http://place.map.kakao.com/1432873934
예약국,약국,128.954678,35.98815628,경북 영천시 창신1길 22,http://place.map.kakao.com/2123792643
현대연합의원,병원,128.7880744,36.04100638,경북 영천시 신녕면 장수로 1673,http://place.map.kakao.com/10982669
신령의원,병원,128.7882096,36.04247134,경북 영천시 신녕면 장수로 1688-1,http://place.map.kakao.com/8409801
신녕치과의원,병원,128.7882942,36.04150051,경북 영천시 신녕면 장수로 1678,http://place.map.kakao.com/11120355
온누리동물병원,병원,128.8232746,35.99095134,경북 영천시 청통면 금송로 966-1,http://place.map.kakao.com/433693176
굿모닝정형외과연합의원,병원,128.8703635,35.93056058,경북 영천시 금호읍 금호로 78,http://place.map.kakao.com/10135555
금호의원,병원,128.8718827,35.9323544,경북 영천시 금호읍 교대길 14,http://place.map.kakao.com/403559382
경북연합의원,병원,128.8707242,35.93068111,경북 영천시 금호읍 금호로 82-1,http://place.map.kakao.com/8762902
알프스동물병원,병원,128.8705329,35.93361445,경북 영천시 금호읍 교대길 31,http://place.map.kakao.com/1538996073
팔공동물병원,병원,128.8712912,35.9335828,경북 영천시 금호읍 교대용대길 6,http://place.map.kakao.com/1432727994
미래연합동물병원,병원,128.8745893,35.93155343,경북 영천시 금호읍 금호로 118,http://place.map.kakao.com/10414276
참사랑연합의원,병원,128.8757619,35.93208387,경북 영천시 금호읍 금호로 129,http://place.map.kakao.com/11238733
알프스동물병원,병원,128.8762519,35.93359726,경북 영천시 금호읍 교대5길 35,http://place.map.kakao.com/1034581681
효산동물병원,병원,128.8978204,35.93862859,경북 영천시 금호읍 금호로 360-22,http://place.map.kakao.com/1314744321
영남대학교 영천병원,병원,128.9131326,35.95733524,경북 영천시 오수1길 10,http://place.map.kakao.com/17357215
영남대학교영천병원 정형외과,병원,128.9131578,35.95727537,경북 영천시 오수1길 10,http://place.map.kakao.com/10062845
해오름요양병원,병원,128.9141609,35.95852179,경북 영천시 오수1길 21,http://place.map.kakao.com/2112953836
대운동물병원,병원,128.9182174,35.96594588,경북 영천시 장수로 58,http://place.map.kakao.com/16020655
성수의과병원,병원,128.9249817,35.96423811,경북 영천시 서문길 25,http://place.map.kakao.com/1967289050
우진동물병원,병원,128.9261054,35.96436875,경북 영천시 최무선로 233,http://place.map.kakao.com/290930454
영천요양병원,병원,128.9248928,35.98759819,경북 영천시 천문로 596-8,http://place.map.kakao.com/1228493968
동승병원,병원,128.9295221,35.93254712,경북 영천시 동강포길 87,http://place.map.kakao.com/9254238
베드로내과의원,병원,128.9275504,35.96066013,경북 영천시 강변로 44,http://place.map.kakao.com/9038786
대동정형외과의원,병원,128.9281618,35.96119095,경북 영천시 강변로 49,http://place.map.kakao.com/8302509
하달봉 피부비뇨기과의원,병원,128.9267811,35.96074457,경북 영천시 강변로 38,http://place.map.kakao.com/8124496
중앙치과의원,병원,128.9269761,35.96124604,경북 영천시 강변로 37,http://place.map.kakao.com/11151683
동산의원,병원,128.9277478,35.96111831,경북 영천시 강변로 45,http://place.map.kakao.com/10292333
아진동물병원,병원,128.9299146,36.01841171,경북 영천시 선창길 11,http://place.map.kakao.com/1503627804
영천손한방병원,병원,128.9332073,35.96302004,경북 영천시 시장로 28,http://place.map.kakao.com/8006154
영신치과의원,병원,128.9331541,35.96347504,경북 영천시 시장로 27,http://place.map.kakao.com/1116748298
김피부과의원,병원,128.9362878,35.96371284,경북 영천시 시장로 55,http://place.map.kakao.com/22541868
박안과,병원,128.9350925,35.96360238,경북 영천시 시장로 45,http://place.map.kakao.com/9015822
영천성모안과의원,병원,128.9368722,35.96367818,경북 영천시 시장로 59-1,http://place.map.kakao.com/11192688
서비뇨기과의원,병원,128.936841,35.96362552,경북 영천시 시장로 59-1,http://place.map.kakao.com/9861256
편한속내과의원,병원,128.9362878,35.96371284,경북 영천시 시장로 55,http://place.map.kakao.com/2067640318
서울미소치과의원,병원,128.9360544,35.96359767,경북 영천시 시장로 53,http://place.map.kakao.com/164865292
오치과의원,병원,128.9319694,35.96752735,경북 영천시 최무선로 297,http://place.map.kakao.com/10621681
리셋운동재활센터,병원,128.9327559,35.97351045,경북 영천시 중앙동3길 15,http://place.map.kakao.com/1463111351
경북신경외과의원,병원,128.9373475,35.97042859,경북 영천시 최무선로 355,http://place.map.kakao.com/10180722
한솔동물병원,병원,128.9357593,35.97211942,경북 영천시 충효로 56-1,http://place.map.kakao.com/9589435
정이비인후과,병원,128.9375265,35.96328466,경북 영천시 시장로 66-1,http://place.map.kakao.com/410915944
행복나눔 부부치과의원,병원,128.9371223,35.96320918,경북 영천시 시장로 62-1,http://place.map.kakao.com/16585395
파티마내과의원,병원,128.9379667,35.96329286,경북 영천시 시장로 70-1,http://place.map.kakao.com/11225728
강기훈의 당신내과의원,병원,128.9393407,35.96626764,경북 영천시 완산로 68,http://place.map.kakao.com/1510339285
최재성 이비인후과의원,병원,128.9391882,35.96483739,경북 영천시 완산로 52,http://place.map.kakao.com/11254634
삼성안과의원,병원,128.9391888,35.96485901,경북 영천시 완산로 52,http://place.map.kakao.com/11190487
영천중앙이비인후과의원,병원,128.9386227,35.96482671,경북 영천시 완산로 53,http://place.map.kakao.com/1344349430
마디튼튼정형외과의원,병원,128.9392084,35.96625086,경북 영천시 완산로 68,http://place.map.kakao.com/334722055
동산정형외과의원,병원,128.9391605,35.96642014,경북 영천시 완산로 70,http://place.map.kakao.com/8968206
가톨릭연합정형외과,병원,128.9392441,35.96530866,경북 영천시 완산로 58,http://place.map.kakao.com/23109905
동산치과의원,병원,128.9382661,35.97118507,경북 영천시 동문길 147,http://place.map.kakao.com/16434466
마리플란트치과의원,병원,128.9422848,35.97287806,경북 영천시 호국로 41,http://place.map.kakao.com/881839655
누리동물병원,병원,128.9399736,35.97174497,경북 영천시 호국로 15,http://place.map.kakao.com/1157334267
YC리더스치과의원,병원,128.9427379,35.97300228,경북 영천시 호국로 45,http://place.map.kakao.com/1087687792
새이치과의원,병원,128.9392628,35.96371525,경북 영천시 완산로 40,http://place.map.kakao.com/10510166
새영천경대연합 정형외과의원,병원,128.9367061,35.96359436,경북 영천시 시장로 59,http://place.map.kakao.com/12774888
영천 제일내과의원,병원,128.9391928,35.96484093,경북 영천시 완산로 52,http://place.map.kakao.com/8447239
바른정치과의원,병원,128.9392526,35.96583835,경북 영천시 완산로 64,http://place.map.kakao.com/13079330
미산부인과의원,병원,128.9462059,35.97455989,경북 영천시 호국로 79-1,http://place.map.kakao.com/9828922
영천연합소아청소년과의원,병원,128.947539,35.97503565,경북 영천시 호국로 93,http://place.map.kakao.com/10641750
상쾌한이비인후과의원,병원,128.9476982,35.97519706,경북 영천시 호국로 95,http://place.map.kakao.com/26425341
스마일치과의원,병원,128.947517,35.97504321,경북 영천시 호국로 93,http://place.map.kakao.com/26828665
영천동물병원,병원,128.9448048,35.97393114,경북 영천시 호국로 65,http://place.map.kakao.com/18806902
안심의원,병원,128.944764,35.97633136,경북 영천시 충효로 148,http://place.map.kakao.com/10586014
D편한외과의원,병원,128.9475117,35.97500725,경북 영천시 호국로 93,http://place.map.kakao.com/8371041
성삼연합의원,병원,128.9480771,35.97563964,경북 영천시 망정1길 15,http://place.map.kakao.com/10477187
고은치과의원,병원,128.9407441,35.96301098,경북 영천시 시장로 96,http://place.map.kakao.com/1499910821
김헌수안과의원,병원,128.9384196,35.96332159,경북 영천시 시장로 74-1,http://place.map.kakao.com/10196098
중앙연합정형외과의원,병원,128.9371095,35.96323102,경북 영천시 시장로 62-1,http://place.map.kakao.com/9460567
경대연합 비뇨기과,병원,128.9391892,35.96487703,경북 영천시 완산로 52,http://place.map.kakao.com/9682174
류정신건강의학과의원,병원,128.9392374,35.96412655,경북 영천시 완산로 46,http://place.map.kakao.com/1458487422
참좋은요양병원,병원,128.9487388,35.97640381,경북 영천시 망정1길 32,http://place.map.kakao.com/8005629
이동준내과의원,병원,128.9483527,35.97314189,경북 영천시 동부로 31-6,http://place.map.kakao.com/10676729
별앤빛소아청소년과의원,병원,128.9515844,35.98265425,경북 영천시 망정1길 200,http://place.map.kakao.com/2073265212
윤치과의원,병원,128.947717,35.9752418,경북 영천시 호국로 95,http://place.map.kakao.com/9345134
영천퍼스트치과의원,병원,128.9540468,35.98625539,경북 영천시 언하공단로 88,http://place.map.kakao.com/26911488
현대중앙의원,병원,128.954704,35.98808827,경북 영천시 창신1길 22,http://place.map.kakao.com/733650142
이편한치과의원,병원,128.9392621,35.96531918,경북 영천시 완산로 58,http://place.map.kakao.com/25159869
한국제통마취과의원,병원,128.9391696,35.96411954,경북 영천시 완산로 46,http://place.map.kakao.com/10946883
심박내과의원,병원,128.9386204,35.96482495,경북 영천시 완산로 53,http://place.map.kakao.com/1463711778
신세계치과의원,병원,128.9392373,35.96412295,경북 영천시 완산로 46,http://place.map.kakao.com/1902061563
참조은박치과의원,병원,128.9391411,35.96653579,경북 영천시 완산로 72,http://place.map.kakao.com/1730091053
조가정의학과의원,병원,128.9482873,35.97336912,경북 영천시 동부로 35,http://place.map.kakao.com/10808804
녹십자의원,병원,128.9453812,35.97419842,경북 영천시 호국로 69-4,http://place.map.kakao.com/8851443
북안동산의원,병원,129.0104557,35.91571829,경북 영천시 북안면 못안길 2-87,http://place.map.kakao.com/11056458
마야병원,병원,129.0150286,35.91088215,경북 영천시 북안면 내서로 55-25,http://place.map.kakao.com/10344525
세븐일레븐 영천동길점,편의점,128.7302557,36.06370838,경북 영천시 신녕면 치산관광길 5,http://place.map.kakao.com/1711044319
CU 다와아이엔씨신녕점,편의점,128.7879672,36.04274168,경북 영천시 신녕면 장수로 1692,http://place.map.kakao.com/1876360286
이마트24 영천신녕점,편의점,128.7927356,36.03773609,경북 영천시 신녕면 완전공단길 2,http://place.map.kakao.com/1741242299
GS25 영천청통점,편의점,128.8232949,35.99115739,경북 영천시 청통면 금송로 968,http://place.map.kakao.com/27537776
CU 영천화산로드점,편의점,128.8552209,36.01829867,경북 영천시 화산면 장수로 929,http://place.map.kakao.com/1853360581
CU 청통우천삼거리점,편의점,128.865062,35.98767671,경북 영천시 청통면 청통로 253,http://place.map.kakao.com/1553144641
CU 금호점,편의점,128.8697363,35.93084068,경북 영천시 금호읍 금호로 73,http://place.map.kakao.com/17041661
CU 영천금호교대점,편의점,128.8709173,35.93394006,경북 영천시 금호읍 교대용대길 1,http://place.map.kakao.com/268919597
이마트24 R영천금호점,편의점,128.8751071,35.932086,경북 영천시 금호읍 금호시장길 29,http://place.map.kakao.com/728249544
CU 금호2호점,편의점,128.8773838,35.93217115,경북 영천시 금호읍 금호로 144,http://place.map.kakao.com/11207031
CU 영천오계공단점,편의점,128.8875288,35.91355315,경북 영천시 금호읍 오계공단길 6,http://place.map.kakao.com/156754013
CU 다와아이엔씨대창점,편의점,128.8955921,35.87627938,경북 영천시 대창면 금창로 672-4,http://place.map.kakao.com/114362154
세븐일레븐 영천윤성점,편의점,128.8993305,35.94237124,경북 영천시 금호읍 원제2길 14,http://place.map.kakao.com/13056222
세븐일레븐 영천천문로점,편의점,128.9118155,36.1006882,경북 영천시 화북면 천문로 2118,http://place.map.kakao.com/431354461
CU 영남대영천병원점,편의점,128.9129426,35.95837182,경북 영천시 오수1길 5,http://place.map.kakao.com/307599041
GS25 영천병원점,편의점,128.9136828,35.95744901,경북 영천시 오수1길 10,http://place.map.kakao.com/2056155837
CU 영천서남점,편의점,128.9203102,35.96480317,경북 영천시 장수로 36,http://place.map.kakao.com/16981762
CU 영천천문로드점,편의점,128.923635,35.98547471,경북 영천시 천문로 568,http://place.map.kakao.com/27075577
GS25 영천오미점,편의점,128.9245327,35.99673278,경북 영천시 천문로 696,http://place.map.kakao.com/2077156915
CU 다와아이엔씨영천점,편의점,128.9301555,35.94979627,경북 영천시 천문로 128,http://place.map.kakao.com/1577171169
CU 영천주남네거리점,편의점,128.9311792,35.95333456,경북 영천시 천문로 162,http://place.map.kakao.com/1383977292
세븐일레븐 영천터미널점,편의점,128.9284408,35.96071971,경북 영천시 강변로 50-7,http://place.map.kakao.com/16874092
CU 영천중앙점,편의점,128.9313315,35.96737002,경북 영천시 옛군청1길 4,http://place.map.kakao.com/16459753
진영수퍼마켓,편의점,128.9296851,35.96749203,경북 영천시 교창길 33,http://place.map.kakao.com/21509465
CU 영천다은점,편의점,128.931658,35.97498969,경북 영천시 중앙동1길 103,http://place.map.kakao.com/70393493
GS25 북영천IC점,편의점,128.9287585,36.01671378,경북 영천시 천문로 921,http://place.map.kakao.com/1619833854
세븐일레븐 영천도남공단점,편의점,128.9361276,35.93490339,경북 영천시 칠백로 841-1,http://place.map.kakao.com/1025654584
CU 영천완산별빛점,편의점,128.9363178,35.96162907,경북 영천시 통운길 2,http://place.map.kakao.com/1864137719
GS25 영천시장점,편의점,128.9370606,35.96327055,경북 영천시 시장로 62-2,http://place.map.kakao.com/1092309114
세븐일레븐 영천완산희망점,편의점,128.9361447,35.96220855,경북 영천시 역전로 21-1,http://place.map.kakao.com/1944161065
세븐일레븐 영천보건중앙로점,편의점,128.9318937,35.9679692,경북 영천시 옛군청1길 19,http://place.map.kakao.com/62528087
GS25 영천타운점,편의점,128.9324985,35.97431656,경북 영천시 중앙동3길 36,http://place.map.kakao.com/1093897729
CU 영천문외원룸점,편의점,128.9340307,35.97328086,경북 영천시 중앙동4길 5,http://place.map.kakao.com/26896297
이마트24 R영천점,편의점,128.9350477,35.97230391,경북 영천시 충효로 49,http://place.map.kakao.com/445769627
GS25 영천문외점,편의점,128.9362856,35.97288134,경북 영천시 충효로 63,http://place.map.kakao.com/1101080160
GS25 영천완산점,편의점,128.9376763,35.96120705,경북 영천시 역전로 39,http://place.map.kakao.com/1649098876
CU 영천역점,편의점,128.938955,35.96055924,경북 영천시 완산로 5,http://place.map.kakao.com/26896472
로그인 영천역점,편의점,128.9386358,35.95996969,경북 영천시 금완로 94-6,http://place.map.kakao.com/1282731778
CU 영천완산베스트점,편의점,128.9391546,35.9646388,경북 영천시 완산로 50,http://place.map.kakao.com/1499186992
이마트24 영천이편한스퀘어점,편의점,128.9413645,35.96164122,경북 영천시 완산8길 3,http://place.map.kakao.com/1633520284
CU 영천점,편의점,128.9379743,35.97194669,경북 영천시 시청로 15,http://place.map.kakao.com/17895843
GS25 영천무궁화점,편의점,128.9395194,35.97443031,경북 영천시 충효로 93,http://place.map.kakao.com/1444666262
GS25 영천호국로점,편의점,128.941328,35.9720114,경북 영천시 호국로 28-1,http://place.map.kakao.com/1930406014
GS25 영천야사점,편의점,128.9427221,35.97371169,경북 영천시 상록2길 19,http://place.map.kakao.com/12297525
CU 영천도남공단점,편의점,128.9440219,35.93123541,경북 영천시 봉동1길 29-47,http://place.map.kakao.com/23560865
GS25 영천IC점,편의점,128.9450567,35.93313254,경북 영천시 영천아이시로 66,http://place.map.kakao.com/12297482
세븐일레븐 영천IC점,편의점,128.944941,35.93329301,경북 영천시 봉동1길 70,http://place.map.kakao.com/25640909
이편의점,편의점,128.9463441,35.93231692,경북 영천시 영천아이시로 79,http://place.map.kakao.com/124948722
이마트24 영천IC점,편의점,128.9445601,35.93588258,경북 영천시 영천아이시로 36,http://place.map.kakao.com/1312914080
GS25 영천이편한점,편의점,128.9442762,35.96277267,경북 영천시 완산9길 16,http://place.map.kakao.com/301243918
CU 이편한드림점,편의점,128.9442704,35.96343956,경북 영천시 시장로 128,http://place.map.kakao.com/786377690
이마트24 영천미소지움점,편의점,128.9432151,35.96687444,경북 영천시 완산5길 25,http://place.map.kakao.com/2116450591
CU 영천미소지움2차점,편의점,128.9469625,35.96704616,경북 영천시 완산5길 111,http://place.map.kakao.com/282660230
CU 영천동부강변점,편의점,128.9444422,35.97134823,경북 영천시 영천고1길 44,http://place.map.kakao.com/1093277006
CU 영천동부점,편의점,128.9454887,35.97379119,경북 영천시 호국로 70,http://place.map.kakao.com/17050627
CU 영천야사주공점,편의점,128.944008,35.97646887,경북 영천시 충효로 143,http://place.map.kakao.com/797025939
GS25 영천문화점,편의점,128.9483746,35.97312982,경북 영천시 동부로 31-6,http://place.map.kakao.com/12297396
CU 영천망정점,편의점,128.9481896,35.97376898,경북 영천시 동부로 39-1,http://place.map.kakao.com/1560722444
GS25 영천공단점,편의점,128.948164,35.91437569,경북 영천시 영천산단로 359,http://place.map.kakao.com/2138607606
CU 영천경제자유구역점,편의점,128.9482004,35.9150464,경북 영천시 영천산단로 349,http://place.map.kakao.com/22067234
GS25 영천채신공단점,편의점,128.9500602,35.91544782,경북 영천시 영천산단로 347-17,http://place.map.kakao.com/1899197618
씨스페이스 영천한방로점,편의점,128.9513041,35.94167968,경북 영천시 한방로 221,http://place.map.kakao.com/1026378245
GS25 영천망정점,편의점,128.9494643,35.97182538,경북 영천시 동부로 16,http://place.map.kakao.com/2016028167
세븐일레븐 영천황금점,편의점,128.948915,35.97256868,경북 영천시 미륵4길 7,http://place.map.kakao.com/13056152
GS25 영천망정행운점,편의점,128.9498004,35.97530347,경북 영천시 호국로 114,http://place.map.kakao.com/1711570918
CU 영천청호점,편의점,128.9500979,35.97581855,경북 영천시 망정2길 6,http://place.map.kakao.com/53876249
세븐일레븐 영천보성스타점,편의점,128.9513523,35.97962501,경북 영천시 망정1길 138,http://place.map.kakao.com/1406006567
GS25 영천휴플러스점,편의점,128.9512648,35.98147364,경북 영천시 망정1길 171,http://place.map.kakao.com/820166772
CU 영천휴먼시아점,편의점,128.9524987,35.98322687,경북 영천시 망정로 80,http://place.map.kakao.com/17896909
세븐일레븐 영천창신점,편의점,128.9528632,35.9860521,경북 영천시 언하공단로 98,http://place.map.kakao.com/15836116
CU 영천창신타운점,편의점,128.9536846,35.9861811,경북 영천시 언하공단로 92,http://place.map.kakao.com/2011982506
GS25 영천청솔점,편의점,128.9547063,35.98804318,경북 영천시 창신1길 22,http://place.map.kakao.com/733603341
GS25 영천창신점,편의점,128.9545922,35.98678985,경북 영천시 창신1길 5,http://place.map.kakao.com/1486771103
CU 영천코아루점,편의점,128.9544566,35.98960701,경북 영천시 창신1길 42,http://place.map.kakao.com/1333327558
CU 영천조교점,편의점,128.9510232,35.97120893,경북 영천시 영화로 328,http://place.map.kakao.com/1290467661
GS25 영천별빛점,편의점,128.9561853,35.97646011,경북 영천시 호국로 174,http://place.map.kakao.com/458076451
세븐일레븐 영천창신대로점,편의점,128.95721,35.98652639,경북 영천시 언하공단로 60,http://place.map.kakao.com/1848398263
CU 영천망정원룸점,편의점,128.9562868,35.98865087,경북 영천시 창신길 118,http://place.map.kakao.com/19509390
세븐일레븐 영천단포대로점,편의점,128.9734458,35.97962666,경북 영천시 고경면 호국로 331,http://place.map.kakao.com/1135542526
CU 영천임고점,편의점,128.975877,36.01655831,경북 영천시 임고면 운주로 14,http://place.map.kakao.com/1948278258
세븐일레븐 영천송포점,편의점,128.9832998,35.93684977,경북 영천시 북안면 엿들길 10-10,http://place.map.kakao.com/1092147424
이마트24 영천강변공원점,편의점,128.9900108,36.04703267,경북 영천시 임고면 포은로 842-3,http://place.map.kakao.com/2076563836
씨스페이스 영천3사점,편의점,128.9971379,35.98992744,경북 영천시 고경면 호국로 575-8,http://place.map.kakao.com/1426961964
세븐일레븐 영천북안터미널점,편의점,129.0089427,35.91861174,경북 영천시 북안면 운북로 2032-1,http://place.map.kakao.com/19045022
이마트24 영천고경점,편의점,129.0474283,36.0010454,경북 영천시 고경면 호국로 1080,http://place.map.kakao.com/200515474
세븐일레븐 영천석계대로점,편의점,129.0856437,35.9963708,경북 영천시 고경면 호국로 1457,http://place.map.kakao.com/566829879
CU 영천고경별빛점,편의점,129.0901586,35.99220233,경북 영천시 고경면 호국로 1521,http://place.map.kakao.com/1989091000
금호농협하나로마트 청통점,대형마트,128.8239016,35.99034799,경북 영천시 청통면 새학길 7,http://place.map.kakao.com/12265208
청통식자재마트,대형마트,128.8226672,35.99230951,경북 영천시 청통면 금송로 984,http://place.map.kakao.com/774515532
영천화산농협하나로마트,대형마트,128.8554505,36.01863032,경북 영천시 화산면 장수로 930,http://place.map.kakao.com/12265202
금호농협하나로마트,대형마트,128.8757824,35.92835573,경북 영천시 금호읍 금창로 42,http://place.map.kakao.com/861653130
영천농협하나로마트 화남점,대형마트,128.8913643,36.05957988,경북 영천시 화남면 천문로 1589,http://place.map.kakao.com/12265186
금호농협하나로마트 대창점,대형마트,128.8962335,35.8760602,경북 영천시 대창면 금창로 671,http://place.map.kakao.com/12265089
금호농협하나로마트 거여점,대형마트,128.9113553,35.92809452,경북 영천시 금호읍 관지길 2,http://place.map.kakao.com/23860459
이마트 영천점,대형마트,128.9103339,35.95838185,경북 영천시 최무선로 83,http://place.map.kakao.com/8533168
영천농협하나로마트 화북점,대형마트,128.9217629,36.11067317,경북 영천시 화북면 자천9길 10,http://place.map.kakao.com/12265169
나이스할인마트,대형마트,128.9292178,35.97356831,경북 영천시 천문로 406,http://place.map.kakao.com/2086662024
영천농협하나로마트 남부지점,대형마트,128.933443,35.96082301,경북 영천시 천문로 252,http://place.map.kakao.com/355991739
영천축협하나로마트 본점,대형마트,128.940275,35.97192391,경북 영천시 호국로 17,http://place.map.kakao.com/12265113
탑마트 영천점,대형마트,128.9481094,35.97614101,경북 영천시 동부로 64,http://place.map.kakao.com/12380731
노브랜드 영천조교점,대형마트,128.9523858,35.97320156,경북 영천시 영화로 354,http://place.map.kakao.com/506559568
홈플러스익스프레스 영천망정점,대형마트,128.9551617,35.98636968,경북 영천시 창신1길 4,http://place.map.kakao.com/1739119839
북안농협하나로마트 유동점,대형마트,128.972577,35.93896563,경북 영천시 북안면 대경로 2166-44,http://place.map.kakao.com/12265131
임고농협 하나로마트,대형마트,128.9747666,36.01374817,경북 영천시 임고면 포은로 422,http://place.map.kakao.com/12265182
고경농협하나로마트 단포점,대형마트,128.9797773,35.98097033,경북 영천시 고경면 호국로 393,http://place.map.kakao.com/12265287
임고농협하나로마트 북부점,대형마트,128.9829717,36.04193762,경북 영천시 임고면 포은로 757,http://place.map.kakao.com/12264999
북안농협하나로마트 명주점,대형마트,128.9935529,35.8721664,경북 영천시 북안면 운북로 1431-1,http://place.map.kakao.com/12264978
북안농협하나로마트,대형마트,129.0090524,35.91738715,경북 영천시 북안면 운북로 2019,http://place.map.kakao.com/11058565
고경농협하나로마트,대형마트,129.0480365,36.00175225,경북 영천시 고경면 호국로 1087,http://place.map.kakao.com/8178684
은해사 성보박물관,문화시설,128.7906965,35.99190806,경북 영천시 청통면 은해사로 300,http://place.map.kakao.com/24000013
최무선과학관,문화시설,128.8810481,35.90772568,경북 영천시 금호읍 창산길 100-29,http://place.map.kakao.com/17659122
월드음악당,문화시설,128.8819657,35.91943273,경북 영천시 금호읍 금창로 172-2,http://place.map.kakao.com/1576368217
연지원,문화시설,128.8876468,36.04945996,경북 영천시 화남면 유천길 70-2,http://place.map.kakao.com/1403759978
시안미술관,문화시설,128.8892289,36.03283001,경북 영천시 화산면 가래실로 364,http://place.map.kakao.com/10524719
경북문화재단 문화재연구원 역사박물관,문화시설,128.8971179,35.94428051,경북 영천시 금호읍 원제2길 38,http://place.map.kakao.com/83914412
갤러리움,문화시설,128.9236892,35.96249903,경북 영천시 강변로 4,http://place.map.kakao.com/1727923807
영천민속관,문화시설,128.9244396,35.9676592,경북 영천시 운동장로 54,http://place.map.kakao.com/8011096
한약재전시관,문화시설,128.9305022,35.94241083,경북 영천시 한방로 10,http://place.map.kakao.com/876412708
영천역사박물관,문화시설,128.9299769,36.01859994,경북 영천시 선창길 9,http://place.map.kakao.com/29531599
갤러리N,문화시설,128.9338104,35.94266303,경북 영천시 한방로 39,http://place.map.kakao.com/29868836
영천문화원,문화시설,128.9332961,35.96738703,경북 영천시 문화원길 6,http://place.map.kakao.com/8478396
롯데시네마 영천,문화시설,128.9409309,35.96285477,경북 영천시 시장로 96,http://place.map.kakao.com/63940729
갤러리큐브,문화시설,128.9402141,35.97088325,경북 영천시 호국로 14-36,http://place.map.kakao.com/27305081
영천역사박물관 수장고,문화시설,128.9450223,35.97926828,경북 영천시 안야사1길 35,http://place.map.kakao.com/317060118
보현산천문과학관,문화시설,128.9967177,36.14029161,경북 영천시 화북면 별빛로 681-32,http://place.map.kakao.com/15225528
보현산 천문전시체험관,문화시설,128.9973734,36.1402158,경북 영천시 화북면 별빛로 681-32,http://place.map.kakao.com/1807355036
영천댐망향공원 전시장,문화시설,129.022599,36.07623622,경북 영천시 자양면 포은로 1674,http://place.map.kakao.com/1523517406
노계문학관,문화시설,129.0219949,35.88852564,경북 영천시 북안면 신평탑골길 93-33,http://place.map.kakao.com/910779235
영천전투호국기념관,문화시설,129.10762,35.98056515,경북 영천시 고경면 용담로 2054,http://place.map.kakao.com/1284465988
코리아세븐 세븐-영천동길 ATM,은행,128.7302678,36.06385328,경북 영천시 신녕면 치산관광길 5,http://place.map.kakao.com/2100933649
별빛새마을금고 청통지점,은행,128.8230768,35.98929454,경북 영천시 청통면 금송로 947,http://place.map.kakao.com/26881122
NH농협은행 365코너 화산농협,은행,128.8555403,36.01886321,경북 영천시 화산면 장수로 926-3,http://place.map.kakao.com/265529922
금호새마을금고 본점,은행,128.8729112,35.93147691,경북 영천시 금호읍 금호로 103,http://place.map.kakao.com/18959427
CU ATM 금호점,은행,128.8697621,35.93080424,경북 영천시 금호읍 금호로 73,http://place.map.kakao.com/1079938026
NH농협은행 365코너 금호농협,은행,128.874334,35.93148623,경북 영천시 금호읍 금호로 116,http://place.map.kakao.com/626785154
IBK기업은행365 금호슈퍼마켓앞,은행,128.8734046,35.93158545,경북 영천시 금호읍 금호로 107,http://place.map.kakao.com/687490914
CU 영천금호교대점 ATM,은행,128.8709341,35.93394701,경북 영천시 금호읍 교대용대길 1,http://place.map.kakao.com/971556639
별빛새마을금고 본점,은행,128.8767054,35.93201686,경북 영천시 금호읍 금호로 138,http://place.map.kakao.com/18959429
CU 금호2호점 ATM,은행,128.8774167,35.93211026,경북 영천시 금호읍 금호로 144,http://place.map.kakao.com/1071529110
영천새마을금고 화남지점,은행,128.8917631,36.06043321,경북 영천시 화남면 천문로 1601,http://place.map.kakao.com/26528926
금호새마을금고 대창지점,은행,128.8966574,35.87550023,경북 영천시 대창면 금창로 681,http://place.map.kakao.com/19140393
코리아세븐 세븐-영천천문로 ATM,은행,128.9117833,36.10077972,경북 영천시 화북면 천문로 2118,http://place.map.kakao.com/1070735540
KB국민은행 이마트영천점 ATM,은행,128.9099826,35.95843069,경북 영천시 최무선로 83,http://place.map.kakao.com/477473585
교동새마을금고 본점,은행,128.9244988,35.96306725,경북 영천시 최무선로 214,http://place.map.kakao.com/18959424
하나은행365 한국폴리텍대학 로봇캠퍼스,은행,128.9220683,35.97258197,경북 영천시 로봇캠퍼스로 1,http://place.map.kakao.com/1787706837
CU ATM 영천천문로드점,은행,128.9235794,35.98519717,경북 영천시 천문로 568,http://place.map.kakao.com/1100723893
NH농협은행 365코너,은행,128.9298843,35.93249444,경북 영천시 동강포길 87,http://place.map.kakao.com/151070782
코리아세븐 세븐-영천터미널 ATM,은행,128.9285826,35.96071833,경북 영천시 강변로 50-7,http://place.map.kakao.com/582365256
NH농협은행 영천중앙지점,은행,128.9306536,35.96729984,경북 영천시 백신애길 37,http://place.map.kakao.com/10274356
NH농협은행 365코너 영천중앙지점,은행,128.9306306,35.96735427,경북 영천시 백신애길 37,http://place.map.kakao.com/2087891877
CU영천중앙점 ATM,은행,128.9313245,35.96740257,경북 영천시 옛군청1길 4,http://place.map.kakao.com/973445703
iM뱅크 영천영업부,은행,128.9350743,35.9636279,경북 영천시 시장로 45,http://place.map.kakao.com/7816714
영천새마을금고 본점,은행,128.9347985,35.96304755,경북 영천시 역전로 7,http://place.map.kakao.com/10517696
iM뱅크 영천영업부365 ATM,은행,128.9350944,35.96363568,경북 영천시 시장로 45,http://place.map.kakao.com/1080882081
IBK기업은행365 KT영천지사,은행,128.9369606,35.96130872,경북 영천시 역전로 36,http://place.map.kakao.com/644953551
코리아세븐 세븐-영천완산희망 ATM,은행,128.9361914,35.96226186,경북 영천시 역전로 21-1,http://place.map.kakao.com/583843835
영천새마을금고 중앙지점,은행,128.9357904,35.97271092,경북 영천시 충효로 59,http://place.map.kakao.com/292225066
기업은행 도남공단 ATM,은행,128.9407096,35.93166027,경북 영천시 도남공단3길 76,http://place.map.kakao.com/263815150
CU 영천역점 ATM,은행,128.9389544,35.96057727,경북 영천시 완산로 5,http://place.map.kakao.com/1037569790
KB국민은행 영천,은행,128.941218,35.96389628,경북 영천시 시장로 99,http://place.map.kakao.com/9666769
NH농협은행 영천시지부,은행,128.9392929,35.96435903,경북 영천시 완산로 48,http://place.map.kakao.com/17445724
IBK기업은행 영천,은행,128.9393418,35.96585763,경북 영천시 완산로 64,http://place.map.kakao.com/10206873
KB국민은행 영천점 ATM,은행,128.941218,35.96389628,경북 영천시 시장로 99,http://place.map.kakao.com/713738874
NH농협은행 영천시청 출장소,은행,128.9384025,35.97213891,경북 영천시 시청로 16,http://place.map.kakao.com/8251960
IBK기업은행365 영천점365,은행,128.9379766,35.97195025,경북 영천시 시청로 15,http://place.map.kakao.com/687467927
iM뱅크 영천시청지점,은행,128.9380427,35.97324584,경북 영천시 시청로 28,http://place.map.kakao.com/8303459
영동새마을금고 본점,은행,128.9419994,35.972224,경북 영천시 호국로 36,http://place.map.kakao.com/17623096
CU 영천점 ATM,은행,128.9379755,35.97194937,경북 영천시 시청로 15,http://place.map.kakao.com/1028628074
롯데ATM 세븐일레븐 영천시청(CD),은행,128.9385795,35.97185401,경북 영천시 시청로 12,http://place.map.kakao.com/457915355
영동새마을금고 제2지점,은행,128.9421791,35.97535052,경북 영천시 충효로 122-1,http://place.map.kakao.com/18959419
iM뱅크 영천시청지점365 ATM,은행,128.9380201,35.97318223,경북 영천시 시청로 16,http://place.map.kakao.com/1095466061
NH농협은행 365코너 영천시청출장소,은행,128.9381255,35.9734148,경북 영천시 시청로 16,http://place.map.kakao.com/2126290805
KB국민은행 영천야사점 ATM,은행,128.9410912,35.97487975,경북 영천시 충효로 112-1,http://place.map.kakao.com/34654366
NH농협은행 365코너 영천축산농협,은행,128.9401927,35.97182072,경북 영천시 호국로 17,http://place.map.kakao.com/825442269
CU ATM 영천도남공단점,은행,128.9441098,35.93120516,경북 영천시 봉동1길 29-47,http://place.map.kakao.com/962303251
코리아세븐 세븐-영천IC ATM,은행,128.9443917,35.93244588,경북 영천시 봉동1길 70,http://place.map.kakao.com/2115460458
농협은행 영천시지부 ATM,은행,128.9392929,35.96435903,경북 영천시 완산로 48,http://place.map.kakao.com/653488679
영동새마을금고 제1지점,은행,128.9482228,35.97358733,경북 영천시 동부로 39,http://place.map.kakao.com/18959418
CU 영천동부점 ATM,은행,128.9455118,35.97373766,경북 영천시 호국로 70,http://place.map.kakao.com/1023001208
IBK기업은행365 한중엔시에스정문,은행,128.9490396,35.91358294,경북 영천시 영천산단로 379,http://place.map.kakao.com/268210340
CU ATM 영천경제자유구역점,은행,128.948318,35.9150508,경북 영천시 영천산단로 349,http://place.map.kakao.com/1963688980
KB국민은행ATM 화신,은행,128.9527444,35.92478263,경북 영천시 예실큰길 8,http://place.map.kakao.com/49532596
KB국민은행ATM 영천망정점,은행,128.9492214,35.97186537,경북 영천시 동부로 16,http://place.map.kakao.com/1717384468
코리아세븐 세븐-영천보성스타 ATM,은행,128.9512344,35.97969902,경북 영천시 망정1길 138,http://place.map.kakao.com/763133484
기업은행 망정주공아파트 ATM,은행,128.9493801,35.97371991,경북 영천시 동부로 40,http://place.map.kakao.com/2119285347
CU ATM 영천휴먼시아점,은행,128.9526245,35.98347352,경북 영천시 망정로 80,http://place.map.kakao.com/1100707975
코리아세븐 세븐-영천창신 ATM,은행,128.9529264,35.98618533,경북 영천시 언하공단로 98,http://place.map.kakao.com/1269791765
영동새마을금고 창신지점,은행,128.9543388,35.98708142,경북 영천시 창신1길 11,http://place.map.kakao.com/18959420
KB국민은행 영천아이존빌 365자동화점 ATM,은행,128.9540925,35.98932189,경북 영천시 창신1길 35,http://place.map.kakao.com/1017493164
기업은행 창신아파트 ATM,은행,128.9535497,35.98740965,경북 영천시 창신1길 11,http://place.map.kakao.com/1496178866
IBK기업은행365 창신아파트점,은행,128.9544737,35.98742614,경북 영천시 창신1길 11,http://place.map.kakao.com/838351730
KB국민은행 영천망정점 ATM,은행,128.9493311,35.97186178,경북 영천시 동부로 14,http://place.map.kakao.com/1987302956
IBK기업은행365,은행,128.9548254,35.9871645,경북 영천시 창신1길 12,http://place.map.kakao.com/732982548
CU ATM 영천망정원룸점,은행,128.9562728,35.98862226,경북 영천시 창신길 118,http://place.map.kakao.com/994755749
CU ATM 영천코아루점,은행,128.9550553,35.99068574,경북 영천시 창신1길 42,http://place.map.kakao.com/1149456844
KB국민은행ATM 화신제작소 (언하공단),은행,128.9612271,35.98846205,경북 영천시 언하공단1길 14,http://place.map.kakao.com/580412006
NH농협은행 365코너 임고농협,은행,128.9747604,36.01576575,경북 영천시 임고면 포은로 440,http://place.map.kakao.com/954806320
영동새마을금고 임고지점,은행,128.9746639,36.01714507,경북 영천시 임고면 포은로 454,http://place.map.kakao.com/27092332
NH농협은행 365코너 임고농협북부지점,은행,128.9827251,36.04183718,경북 영천시 임고면 포은로 757,http://place.map.kakao.com/1961528178
코리아세븐 세븐-영천송포 ATM,은행,128.9837703,35.93701319,경북 영천시 북안면 엿들길 10-10,http://place.map.kakao.com/622620781
코리아세븐 세븐-영천북안터미널 ATM,은행,129.0089127,35.91878434,경북 영천시 북안면 운북로 2032,http://place.map.kakao.com/1203740833
KB국민은행ATM 영천CC,은행,129.0123682,36.04803617,경북 영천시 임고면 방목길 34-2,http://place.map.kakao.com/1047365234
iM뱅크 영천시 상수도사업소 ATM,은행,129.0180211,36.05650111,경북 영천시 임고면 신방로 50-35,http://place.map.kakao.com/1085841216
NH농협은행 365코너 임고농협보현지점,은행,129.0413174,36.13484688,경북 영천시 자양면 별빛로 1125,http://place.map.kakao.com/809506439
영동새마을금고 고경지점,은행,129.0469816,36.00139632,경북 영천시 고경면 호국로 1075-1,http://place.map.kakao.com/10507627
기업은행 오펠CC ATM,은행,129.0578604,36.01046031,경북 영천시 고경면 호국로 1221-24,http://place.map.kakao.com/959003183
치산관광지 주차장,주차장,128.720491,36.03707908,경북 영천시 신녕면 신암길 17,http://place.map.kakao.com/423625550
성운대학교 주차장1,주차장,128.7591409,36.06204794,경북 영천시 신녕면 대학길 95,http://place.map.kakao.com/17570973
성운대학교 주차장2,주차장,128.7615037,36.06369287,경북 영천시 신녕면 대학길 105,http://place.map.kakao.com/17565363
성운대학교 주차장3,주차장,128.762745,36.06421527,경북 영천시 신녕면 대학길 105,http://place.map.kakao.com/17571982
신녕공설시장 주차장,주차장,128.7877149,36.0408099,경북 영천시 신녕면 본관시장길 3,http://place.map.kakao.com/1453616382
시엘골프클럽 주차장,주차장,128.8566528,35.99309296,경북 영천시 청통면 청통로 334-41,http://place.map.kakao.com/20518446
대구대학교경산캠퍼스 주차장8,주차장,128.856482,35.89923049,경북 영천시 금호읍 대구대길 333,http://place.map.kakao.com/17569161
대구대학교 경산캠퍼스 주차장1,주차장,128.855885,35.90306759,경북 영천시 금호읍 대구대길 333,http://place.map.kakao.com/17572018
금호공설시장주차장,주차장,128.8727609,35.9316802,경북 영천시 금호읍 금호로 101,http://place.map.kakao.com/20514019
금호공공도서관주차장,주차장,128.880028,35.93388058,경북 영천시 금호읍 금호로 171,http://place.map.kakao.com/20514018
경상북도문화재연구원 주차장,주차장,128.8975806,35.94360999,경북 영천시 금호읍 원제2길 38,http://place.map.kakao.com/27032543
영천 경찰서 주차장1,주차장,128.9070341,35.95224029,경북 영천시 금호읍 최무선로 1,http://place.map.kakao.com/17568567
영천경찰서 주차장2,주차장,128.9064622,35.95242239,경북 영천시 금호읍 최무선로 1,http://place.map.kakao.com/17555258
이마트영천점 고객전용주차장,주차장,128.911151,35.9582589,경북 영천시 최무선로 83,http://place.map.kakao.com/20562950
이마트영천점 주차장3,주차장,128.9109514,35.95788362,경북 영천시 최무선로 83,http://place.map.kakao.com/17575916
영남대학교영천병원 주차장2,주차장,128.9135737,35.95779497,경북 영천시 오수1길 10,http://place.map.kakao.com/18080022
경북차량용임베디드연구원 주차장,주차장,128.9126842,36.00626471,경북 영천시 명산길 97-70,http://place.map.kakao.com/1814875203
자광원 주차장,주차장,128.9181809,35.89620965,경북 영천시 금호읍 칠백로 339,http://place.map.kakao.com/17557850
콜마트 주차장,주차장,128.9202535,35.96443013,경북 영천시 장수로 35,http://place.map.kakao.com/885103861
영천교육지원청 주차장,주차장,128.9220298,35.96409351,경북 영천시 장수로 18-2,http://place.map.kakao.com/17555208
청소년수련관주차장,주차장,128.9229365,35.97039736,경북 영천시 운동장로 94,http://place.map.kakao.com/20587684
영천시민운동장 주차장2,주차장,128.9242775,35.96810513,경북 영천시 운동장로 60,http://place.map.kakao.com/17575288
한국폴리텍대학 로봇캠퍼스 주차장,주차장,128.9225823,35.97225024,경북 영천시 로봇캠퍼스로 1,http://place.map.kakao.com/1613042299
시민운동장 주차장,주차장,128.9234903,35.96983341,경북 영천시 운동장로 84,http://place.map.kakao.com/1986822744
시민운동장(영천민속관 옆) 주차장,주차장,128.9244352,35.96765927,경북 영천시 운동장로 54,http://place.map.kakao.com/1676734737
한국폴리텍대학 로봇캠퍼스 별빛관 주차장,주차장,128.9214029,35.972981,경북 영천시 로봇캠퍼스로 1,http://place.map.kakao.com/232713553
동의참누리원 영천한의마을 정문주차장,주차장,128.9231887,35.9782363,경북 영천시 천문로 485,http://place.map.kakao.com/1346422353
동승병원 주차장1,주차장,128.9298696,35.93280105,경북 영천시 동강포길 87,http://place.map.kakao.com/17572711
동승병원 주차장2,주차장,128.9296781,35.93221662,경북 영천시 동강포길 87,http://place.map.kakao.com/17573969
한국전력공사 주차장,주차장,128.930874,35.95641125,경북 영천시 천문로 199,http://place.map.kakao.com/17991684
교육문화센터 주차장,주차장,128.9269256,35.96504941,경북 영천시 최무선로 241,http://place.map.kakao.com/1653725232
영천향교 주차장,주차장,128.928524,35.96933449,경북 영천시 교촌길 34,http://place.map.kakao.com/20519425
대구지방법원영천시법원 주차장,주차장,128.9299247,35.96895513,경북 영천시 천문로 353,http://place.map.kakao.com/17568568
과전1 공영주차장,주차장,128.9293839,35.96704994,경북 영천시 백신애길 8,http://place.map.kakao.com/230682170
NH농협은행 영천중앙지점 주차장,주차장,128.9305006,35.96752306,경북 영천시 백신애길 37,http://place.map.kakao.com/324836599
영천시보건소 주차장,주차장,128.932432,35.96831645,경북 영천시 옛군청1길 31,http://place.map.kakao.com/27364215
영천시립도서관 주차장,주차장,128.9330008,35.97545824,경북 영천시 중앙동1길 80,http://place.map.kakao.com/41933038
한국국토정보공사 영천지사 주차장,주차장,128.9326424,35.97458096,경북 영천시 중앙동1길 67,http://place.map.kakao.com/1936698069
영천역 주차장,주차장,128.9401996,35.95969391,경북 영천시 약전2길 12,http://place.map.kakao.com/196679626
영천공설시장 주차장,주차장,128.9374388,35.96418805,경북 영천시 시장4길 30,http://place.map.kakao.com/20519422
완산3 공영주차장,주차장,128.9367425,35.96608435,경북 영천시 완산둑길 76,http://place.map.kakao.com/1533701792
영천시청 주차장,주차장,128.9389837,35.9727882,경북 영천시 시청로 16,http://place.map.kakao.com/20572694
영천명성교회 공유주차장,주차장,128.9411482,35.97127543,경북 영천시 보목2길 8,http://place.map.kakao.com/406023938
시청동남편일대 공영주차장,주차장,128.9395576,35.97272846,경북 영천시 시청로 16,http://place.map.kakao.com/1454437785
동부동 행정복지센터 주차장,주차장,128.9423822,35.97458943,경북 영천시 상록2길 36,http://place.map.kakao.com/1918400405
구 완산어린이집 주차장,주차장,128.9408502,35.96517455,경북 영천시 완산2길 43,http://place.map.kakao.com/1463878056
영천시농산물도매시장 주차장,주차장,128.9537524,35.96950293,경북 영천시 장천길 35-3,http://place.map.kakao.com/1416586703
영천참좋은요양병원 주차장,주차장,128.9485182,35.97608662,경북 영천시 망정1길 32,http://place.map.kakao.com/20587384
조교1 쌈지공영주차장,주차장,128.9627412,35.97707837,경북 영천시 조흔달1길 34,http://place.map.kakao.com/702364198
조교2 쌈지공영주차장,주차장,128.9627196,35.97728057,경북 영천시 조흔달1길 33,http://place.map.kakao.com/697881377
임고서원 주차장,주차장,128.9733091,36.01716648,경북 영천시 임고면 포은로 447,http://place.map.kakao.com/360107065
보현산천문과학관 주차장,주차장,128.9966465,36.13997924,경북 영천시 화북면 별빛로 681-32,http://place.map.kakao.com/1941539371
충성대컨트리클럽 주차장1,주차장,128.9955731,36.00209983,경북 영천시 고경면 호국로 575-79,http://place.map.kakao.com/723377058
북안2공영주차장,주차장,129.0095587,35.91756519,경북 영천시 북안면 운북로 2020,http://place.map.kakao.com/1660966294
경북영광학교 주차장,주차장,129.0148284,35.89246307,경북 영천시 북안면 신평탑골길 4,http://place.map.kakao.com/17569086
신선암주차장,주차장,129.0193026,36.08665749,경북 영천시 자양면 포은로 1643-151,http://place.map.kakao.com/20518592
도계서원 주차장,주차장,129.0227717,35.88837288,경북 영천시 북안면 신평탑골길 93-33,http://place.map.kakao.com/20515196
영천오펠GC 주차장,주차장,129.0584487,36.00885806,경북 영천시 고경면 호국로 1221-24,http://place.map.kakao.com/1879602670
충효사주차장,주차장,129.0659365,36.10772873,경북 영천시 자양면 별빛로 1538-17,http://place.map.kakao.com/20587835
영천충효제주차장,주차장,129.0670398,36.10796919,경북 영천시 자양면 별빛로 1538-2,http://place.map.kakao.com/20519424
국립영천호국원 주차장,주차장,129.1090362,35.98162512,경북 영천시 고경면 호국로 1720,http://place.map.kakao.com/25619145
인덕원가족공원 주차장,주차장,129.1286276,36.01595101,경북 영천시 고경면 상계로 699,http://place.map.kakao.com/20563007
경북바이오마이스터고등학교,학교,128.7805658,36.04309696,경북 영천시 신녕면 찰방길 8,http://place.map.kakao.com/330969145
신녕중학교,학교,128.7806172,36.04370533,경북 영천시 신녕면 찰방길 8,http://place.map.kakao.com/11121453
신녕초등학교,학교,128.7896654,36.04600352,경북 영천시 신녕면 큰골길 9,http://place.map.kakao.com/7967702
청통중학교,학교,128.8253049,35.99119529,경북 영천시 청통면 새학길 33-11,http://place.map.kakao.com/8105989
청통초등학교,학교,128.8241616,35.99528202,경북 영천시 청통면 청통초등길 43,http://place.map.kakao.com/8095463
청통초등학교 체육관,학교,128.8235363,35.99552582,경북 영천시 청통면 청통초등길 43,http://place.map.kakao.com/1121768938
화산중학교,학교,128.8492814,36.01968078,경북 영천시 화산면 연유길 14,http://place.map.kakao.com/8187489
화산초등학교,학교,128.8549344,36.0204621,경북 영천시 화산면 장수로 942-9,http://place.map.kakao.com/10970976
경북휴먼테크고등학교,학교,128.8737512,35.9323748,경북 영천시 금호읍 교대길 8-18,http://place.map.kakao.com/2006672983
금호중학교,학교,128.8731202,35.93300821,경북 영천시 금호읍 교대길 8-18,http://place.map.kakao.com/8011088
금호초등학교,학교,128.8804975,35.93461662,경북 영천시 금호읍 금호로 179,http://place.map.kakao.com/8239241
포은고등학교,학교,128.8781638,35.93994347,경북 영천시 금호읍 성천앞길 112-53,http://place.map.kakao.com/10177358
금호여자중학교,학교,128.8777061,35.93989297,경북 영천시 금호읍 성천앞길 112-53,http://place.map.kakao.com/8182183
지곡초등학교,학교,128.8901581,36.06055765,경북 영천시 화남면 천문로 1597-5,http://place.map.kakao.com/8076823
영천전자고등학교,학교,128.8978335,36.06861176,경북 영천시 화남면 천문로 1709,http://place.map.kakao.com/7909925
영천산동중학교,학교,128.8978875,36.06836491,경북 영천시 화남면 천문로 1709,http://place.map.kakao.com/1961749771
대창초등학교,학교,128.9058138,35.86963691,경북 영천시 대창면 금창로 787,http://place.map.kakao.com/8011090
거여초등학교,학교,128.9094803,35.93139352,경북 영천시 금호읍 관정1길 31,http://place.map.kakao.com/8674586
영천여자고등학교,학교,128.9206436,35.96232437,경북 영천시 최무선로 180,http://place.map.kakao.com/8018033
영천중앙초등학교 화남분교장,학교,128.9175993,36.03894293,경북 영천시 화남면 천문로 1224,http://place.map.kakao.com/14565940
자천초등학교,학교,128.9213703,36.10987212,경북 영천시 화북면 화북길 75,http://place.map.kakao.com/8503723
영화초등학교,학교,128.9222762,35.96547723,경북 영천시 영화새싹길 22,http://place.map.kakao.com/8005681
영천여자중학교,학교,128.9221714,35.96700714,경북 영천시 상아탑길 28,http://place.map.kakao.com/10648566
선화여자고등학교,학교,128.9224292,35.96813116,경북 영천시 상아탑길 36,http://place.map.kakao.com/8372721
영천중앙초등학교,학교,128.9319347,35.97174496,경북 영천시 조양길 71,http://place.map.kakao.com/11193389
영천중학교,학교,128.9293872,35.97510913,경북 영천시 중앙동1길 126,http://place.map.kakao.com/11188435
영천성남여자고등학교,학교,128.9316408,35.94894517,경북 영천시 남촌길 17,http://place.map.kakao.com/8005644
성남여자중학교,학교,128.9327008,35.94896775,경북 영천시 남촌길 17,http://place.map.kakao.com/10488247
영천초등학교,학교,128.9319537,35.96160932,경북 영천시 천문로 253,http://place.map.kakao.com/8011927
영천고등학교,학교,128.9444161,35.97317603,경북 영천시 영천고2길 12,http://place.map.kakao.com/8005139
영동고등학교,학교,128.9460792,35.97752468,경북 영천시 안야사길 13,http://place.map.kakao.com/8501496
영동중학교,학교,128.9459718,35.97802742,경북 영천시 안야사길 13,http://place.map.kakao.com/8649926
포은초등학교,학교,128.950441,35.98034448,경북 영천시 망정4길 72,http://place.map.kakao.com/10651965
영천동부초등학교,학교,128.960259,35.97837506,경북 영천시 호국로 209,http://place.map.kakao.com/8484693
단포초등학교,학교,128.9748063,35.98061617,경북 영천시 고경면 호국로 343,http://place.map.kakao.com/10262073
임고초등학교,학교,128.9730629,36.02135147,경북 영천시 임고면 포은로 491-2,http://place.map.kakao.com/10740621
평천초등학교,학교,128.9861317,36.04353604,경북 영천시 임고면 포은로 814-40,http://place.map.kakao.com/10889329
영안중학교,학교,129.007802,35.91805324,경북 영천시 북안면 운북로 2025,http://place.map.kakao.com/10643402
북안초등학교,학교,129.0111328,35.91502754,경북 영천시 북안면 운북로 1984,http://place.map.kakao.com/8400286
별빛중학교,학교,129.043266,36.00243554,경북 영천시 고경면 월천길 1-27,http://place.map.kakao.com/27290317
자천초등학교 보현분교장,학교,129.0469042,36.13337831,경북 영천시 자양면 별빛로 1183,http://place.map.kakao.com/8057954
고경초등학교,학교,129.0681702,36.00325923,경북 영천시 고경면 호국로 1276,http://place.map.kakao.com/8681039
예승수학,학원,128.7881788,36.04199152,경북 영천시 신녕면 장수로 1684,http://place.map.kakao.com/1641674642
파머스영어학원,학원,128.8697621,35.93080424,경북 영천시 금호읍 금호로 73,http://place.map.kakao.com/921094150
YBM시스템학원,학원,128.8704454,35.93272193,경북 영천시 금호읍 덕성길 8,http://place.map.kakao.com/10997353
차수학캠퍼스 영천금호스마트교습소,학원,128.8703589,35.93380098,경북 영천시 금호읍 교대길 33-3,http://place.map.kakao.com/984348756
페이머스뮤직음악교습소,학원,128.8703018,35.93377304,경북 영천시 금호읍 교대길 33-3,http://place.map.kakao.com/353194972
금호색소폰스튜디오,학원,128.878121,35.93251645,경북 영천시 금호읍 금호로 152,http://place.map.kakao.com/1547837140
효성음악학원,학원,128.8818004,35.93423846,경북 영천시 금호읍 금호로 189-1,http://place.map.kakao.com/10963825
엘리트미술학원,학원,128.8817914,35.934235,경북 영천시 금호읍 금호로 189-1,http://place.map.kakao.com/9874091
성림자동차운전전문학원,학원,128.895493,35.93749036,경북 영천시 금호읍 금호로 338-40,http://place.map.kakao.com/10491457
대안간호학원,학원,128.922768,35.96336082,경북 영천시 장수로 8,http://place.map.kakao.com/8931269
남경장례지도사교육원,학원,128.9228103,35.96336735,경북 영천시 장수로 8,http://place.map.kakao.com/22249552
팝걸아트 미술교습소,학원,128.9236748,35.96249927,경북 영천시 강변로 4,http://place.map.kakao.com/1725575221
김종관색소폰스튜디오,학원,128.9233262,35.96325185,경북 영천시 장수로 2,http://place.map.kakao.com/1554540064
소피아영어교습소,학원,128.923766,35.96328895,경북 영천시 청석길 4,http://place.map.kakao.com/1663939580
송재서예연구원,학원,128.9307917,35.96750486,경북 영천시 백신애길 41,http://place.map.kakao.com/1088060467
하늘수학전문학원,학원,128.930486,35.96979131,경북 영천시 천문로 362,http://place.map.kakao.com/1019748271
셀파우등생학원,학원,128.9305698,35.97323389,경북 영천시 중앙동2길 120-1,http://place.map.kakao.com/17411641
아이카스어학원,학원,128.9314972,35.96889378,경북 영천시 옛군청3길 35,http://place.map.kakao.com/2052973159
바임잉글리시중앙센터영어교습소,학원,128.9306388,35.97306157,경북 영천시 중앙동2길 121,http://place.map.kakao.com/1584342163
EiE고려대어학원 경북영천1캠퍼스,학원,128.93171,35.97043931,경북 영천시 충효로 14,http://place.map.kakao.com/535099189
잉글리시아이 영천중앙초점,학원,128.930602,35.97323517,경북 영천시 중앙동2길 120-1,http://place.map.kakao.com/1512945719
통문장영어 중앙학원,학원,128.9317035,35.97044392,경북 영천시 충효로 14,http://place.map.kakao.com/12586072
고쌤잉글리시,학원,128.9305509,35.97359462,경북 영천시 중앙동3길 81-9,http://place.map.kakao.com/1487304864
EM플러스학원 영천점,학원,128.9304854,35.9744553,경북 영천시 중앙동1길 129,http://place.map.kakao.com/1385227108
김시언미주아뷰티아카데미미용학원,학원,128.9318286,35.97480492,경북 영천시 중앙동3길 50,http://place.map.kakao.com/883906905
숲에서웃는아이들,학원,128.9319419,35.9752248,경북 영천시 중앙동1길 97,http://place.map.kakao.com/586124929
기탄사고력교실 영천중앙다숲점,학원,128.9310037,35.97516332,경북 영천시 중앙동1길 102-11,http://place.map.kakao.com/1123573164
BM잉글리쉬,학원,128.9314738,35.97548284,경북 영천시 중앙동1길 102-9,http://place.map.kakao.com/289922759
브람스피아노,학원,128.931512,35.9754597,경북 영천시 중앙동1길 102-9,http://place.map.kakao.com/585969973
리더스학원,학원,128.9314631,35.97490903,경북 영천시 중앙동1길 105-1,http://place.map.kakao.com/564836506
재경수학,학원,128.9315362,35.97372203,경북 영천시 중앙동2길 100,http://place.map.kakao.com/570566350
안젤라한솔플러스 영어교습소,학원,128.9311102,35.97448309,경북 영천시 중앙동3길 66,http://place.map.kakao.com/201627584
아이비피아노교습소,학원,128.9319383,35.97521315,경북 영천시 중앙동1길 97,http://place.map.kakao.com/575235584
영천제일중장비학원,학원,128.9362867,35.95740531,경북 영천시 주남1길 37,http://place.map.kakao.com/1157231035
엘리제피아노,학원,128.9332104,35.96168999,경북 영천시 천문로 261,http://place.map.kakao.com/9222891
지영서예,학원,128.932946,35.96793873,경북 영천시 최무선로 309,http://place.map.kakao.com/810435918
포텐체대입시,학원,128.9336145,35.96840102,경북 영천시 최무선로 315,http://place.map.kakao.com/655425558
하나잉글리시영어교습소,학원,128.9337981,35.97138063,경북 영천시 문내1길 30,http://place.map.kakao.com/1323615870
한아름수학,학원,128.9338279,35.9714198,경북 영천시 문내1길 30,http://place.map.kakao.com/2009817221
GnB어학원 영천캠퍼스,학원,128.9348745,35.97220217,경북 영천시 중앙동1길 2,http://place.map.kakao.com/11833036
뮤엠영어교습소,학원,128.9323533,35.97268074,경북 영천시 중앙동4길 40,http://place.map.kakao.com/1244673246
엠베스트SE 영천점,학원,128.9324307,35.97444741,경북 영천시 중앙동3길 36,http://place.map.kakao.com/420999900
공터영어 영천중앙학원,학원,128.9327531,35.97430345,경북 영천시 중앙동2길 76,http://place.map.kakao.com/555660736
칼로스수학,학원,128.9331692,35.97386693,경북 영천시 중앙동1길 51,http://place.map.kakao.com/563201656
아트&하트 경북영천중앙교육원,학원,128.9329384,35.97381208,경북 영천시 중앙동3길 20,http://place.map.kakao.com/1226104304
엘리제피아노교습소,학원,128.9368807,35.96538649,경북 영천시 강남길 33,http://place.map.kakao.com/448497495
별빛무용학원,학원,128.9386196,35.96601618,경북 영천시 완산로 65,http://place.map.kakao.com/584567377
초람서예연구소,학원,128.9340578,35.96835152,경북 영천시 최무선로 318-1,http://place.map.kakao.com/587850214
팩트체대입시,학원,128.9335375,35.96837793,경북 영천시 최무선로 315,http://place.map.kakao.com/394400785
영동미용학원,학원,128.9396288,35.97115493,경북 영천시 호국로 10,http://place.map.kakao.com/9306532
키즈북클럽,학원,128.9338368,35.97142326,경북 영천시 문내1길 30,http://place.map.kakao.com/986194204
영천제과제빵학원,학원,128.9390444,35.97128062,경북 영천시 호국로 5,http://place.map.kakao.com/27465495
소리엘피아노교습소,학원,128.9401284,35.97607844,경북 영천시 모란1길 16,http://place.map.kakao.com/11131001
고려학원 영천분원,학원,128.9317977,35.97476487,경북 영천시 중앙동3길 50,http://place.map.kakao.com/575815634
김미정 동요 피아노음악교습소,학원,128.9439618,35.9630616,경북 영천시 완산9길 15,http://place.map.kakao.com/240285438
이루지오학원,학원,128.943748,35.96347055,경북 영천시 시장로 120,http://place.map.kakao.com/739884177
글로리영어,학원,128.9432139,35.96691501,경북 영천시 완산5길 25,http://place.map.kakao.com/1820129647
영천제일중장비학원,학원,128.945659,35.97110953,경북 영천시 영천고1길 75,http://place.map.kakao.com/1450361649
큐브아트센터,학원,128.9403912,35.97096509,경북 영천시 호국로 16,http://place.map.kakao.com/426041881
공감색소폰스튜디오,학원,128.9394012,35.97145957,경북 영천시 호국로 9,http://place.map.kakao.com/1308455935
어반가야금,학원,128.9400662,35.97136502,경북 영천시 호국로 14-3,http://place.map.kakao.com/1301883837
북극성와인,학원,128.9400968,35.9713465,경북 영천시 호국로 14-3,http://place.map.kakao.com/426194497
오영희화실,학원,128.9457538,35.97113323,경북 영천시 영천고1길 75,http://place.map.kakao.com/593594399
브레인입시피아노학원,학원,128.9433417,35.97294114,경북 영천시 영천고1길 6,http://place.map.kakao.com/19232212
일중수학학원,학원,128.9435744,35.97339151,경북 영천시 상록3길 5,http://place.map.kakao.com/17988611
박선생학습실,학원,128.940089,35.9760971,경북 영천시 모란1길 16,http://place.map.kakao.com/9840519
창조의아침미술학원,학원,128.9418465,35.97258871,경북 영천시 호국로 35,http://place.map.kakao.com/798935959
지영피아노교습소,학원,128.9442378,35.97657417,경북 영천시 충효로 145,http://place.map.kakao.com/2100584752
문홍중국어학원,학원,128.9451555,35.97661156,경북 영천시 충효로 154,http://place.map.kakao.com/531181114
바른글논술교습소,학원,128.9443439,35.97656164,경북 영천시 충효로 145,http://place.map.kakao.com/1835217934
소리엘음악교습소,학원,128.940089,35.9760971,경북 영천시 모란1길 16,http://place.map.kakao.com/157934554
스카이영수학원,학원,128.9438662,35.97638286,경북 영천시 충효로 143,http://place.map.kakao.com/449154398
채약서당,학원,128.9501365,35.87486531,경북 영천시 대창면 한들길 110,http://place.map.kakao.com/18039661
에이플러스입시학원,학원,128.9489226,35.97256225,경북 영천시 미륵4길 7,http://place.map.kakao.com/532144541
피아노포르테,학원,128.9476648,35.97320712,경북 영천시 야사시장길 36,http://place.map.kakao.com/418475155
한우리독서논술학원,학원,128.9440405,35.97318662,경북 영천시 호국로 56,http://place.map.kakao.com/18341823
부성입시학원,학원,128.9486576,35.97233228,경북 영천시 동부로 23,http://place.map.kakao.com/532376661
위드수학학원,학원,128.9442471,35.97333826,경북 영천시 호국로 58,http://place.map.kakao.com/1727183853
현대자동차전문학원,학원,128.9497331,35.97824747,경북 영천시 망정1길 80,http://place.map.kakao.com/11201009
니나피아노교습소,학원,128.9464584,35.97418815,경북 영천시 호국로 82,http://place.map.kakao.com/10277729
필즈수학영어학원,학원,128.945434,35.97418315,경북 영천시 호국로 69-4,http://place.map.kakao.com/17778653
J뮤직아카데미음악교습소,학원,128.9448136,35.97392829,경북 영천시 호국로 65,http://place.map.kakao.com/75155616
비엔나피아노교습소,학원,128.9499344,35.97939848,경북 영천시 망정1길 105,http://place.map.kakao.com/189300584
윤선생우리집앞영어교실 영천한신더휴퍼스트,학원,128.9510812,35.98189562,경북 영천시 망정1길 171,http://place.map.kakao.com/469573193
야긴드럼음악학원,학원,128.9524271,35.98140066,경북 영천시 망정2길 184,http://place.map.kakao.com/526762646
날개달기국어교습소,학원,128.9515893,35.98253793,경북 영천시 망정1길 200,http://place.map.kakao.com/1509019342
플레이실용음악학원,학원,128.9515975,35.98215304,경북 영천시 망정1길 176-15,http://place.map.kakao.com/1909894347
그림아트스튜디오,학원,128.951559,35.98135441,경북 영천시 망정1길 174,http://place.map.kakao.com/727021358
버클리피아노,학원,128.9512645,35.98146013,경북 영천시 망정1길 171,http://place.map.kakao.com/725397371
포인트학원,학원,128.9524019,35.9815912,경북 영천시 망정2길 184,http://place.map.kakao.com/1349160585
꿈트리,학원,128.9512504,35.98133871,경북 영천시 망정1길 171,http://place.map.kakao.com/834557458
김은정피아노교습소,학원,128.9515033,35.98130035,경북 영천시 망정1길 174,http://place.map.kakao.com/805332393
윤선생영어숲 영천동부점,학원,128.9542265,35.98621552,경북 영천시 언하공단로 86,http://place.map.kakao.com/19078569
엠베스트se 창신학원,학원,128.9520796,35.9860144,경북 영천시 언하공단로 106-1,http://place.map.kakao.com/1100198163
음악정원,학원,128.9543189,35.98820448,경북 영천시 창신1길 25,http://place.map.kakao.com/740176092
공터영어 영천창신센터,학원,128.954686,35.98825707,경북 영천시 창신1길 22,http://place.map.kakao.com/1849062408
은빛피아노,학원,128.9544603,35.98652438,경북 영천시 창신1길 5,http://place.map.kakao.com/724144914
아르트음악연구회,학원,128.9521698,35.98873057,경북 영천시 창신길 31,http://place.map.kakao.com/776905580
리드인독서논술학원,학원,128.9520796,35.9860144,경북 영천시 언하공단로 106-1,http://place.map.kakao.com/1100719758
이엠탑,학원,128.9518622,35.98601163,경북 영천시 언하공단로 108,http://place.map.kakao.com/1347912032
윤솔지 피아노교습소,학원,128.9546803,35.98824815,경북 영천시 창신1길 22,http://place.map.kakao.com/741253232
기탄사고력교실 영천창신점,학원,128.9531293,35.98762465,경북 영천시 창신1길 21,http://place.map.kakao.com/1233377752
상상톡톡미술교습소,학원,128.9512546,35.98150985,경북 영천시 망정1길 171,http://place.map.kakao.com/1928488332
한빛학원,학원,128.9490395,35.97258198,경북 영천시 미륵4길 7,http://place.map.kakao.com/9549630
양지입시학원,학원,128.949058,35.97261411,경북 영천시 미륵4길 7,http://place.map.kakao.com/14665003
김경아미술학원,학원,128.9480478,35.97138344,경북 영천시 문화새길 77,http://place.map.kakao.com/19082763
민입시학원,학원,128.9476386,35.97146577,경북 영천시 문화새길 68,http://place.map.kakao.com/88825291
정상어학원 영천분원,학원,128.9541371,35.97665749,경북 영천시 호국로 155,http://place.map.kakao.com/1194782276
합기도종합무술관 천하관,학원,128.9556136,35.9863551,경북 영천시 언하공단로 74,http://place.map.kakao.com/18859412
바하피아노학원,학원,128.9556161,35.98645598,경북 영천시 창신길 140-11,http://place.map.kakao.com/15502417
통문장영어 제시카교실,학원,128.9556117,35.98645695,경북 영천시 창신길 140-11,http://place.map.kakao.com/12388389
공터영어&셀파우등생수학학원,학원,128.955139,35.98886692,경북 영천시 청솔길 23-6,http://place.map.kakao.com/1932114587
솔지피아노교습소,학원,128.954655,35.98812241,경북 영천시 창신1길 22,http://place.map.kakao.com/2033774039
아이미술,학원,128.9543105,35.98831545,경북 영천시 창신1길 25,http://place.map.kakao.com/1027234529
셀파우등생수학,학원,128.9546786,35.9882707,경북 영천시 창신1길 22,http://place.map.kakao.com/741513633
삐에로수학,학원,128.955612,35.98646686,경북 영천시 창신길 140-11,http://place.map.kakao.com/9819007
원색입시학원,학원,128.9515974,35.97400013,경북 영천시 미륵3길 35,http://place.map.kakao.com/11173534
여강서예,학원,128.9474466,35.97167974,경북 영천시 문화새길 62-3,http://place.map.kakao.com/307424206
퍼스트클레스,학원,128.9489952,35.9725827,경북 영천시 동부로 40,http://place.map.kakao.com/19271981
강의하는아이들 영천스타캠퍼스,학원,128.9541436,35.97664928,경북 영천시 호국로 155,http://place.map.kakao.com/594026835
김은정피아노,학원,128.9546957,35.98626824,경북 영천시 언하공단로 84,http://place.map.kakao.com/731642182
뮤엠영어,학원,128.9546817,35.9883067,경북 영천시 창신1길 22,http://place.map.kakao.com/741531165
배움터,학원,128.9515685,35.97989542,경북 영천시 망정1길 140,http://place.map.kakao.com/9065469
시매쓰학원,학원,128.9513512,35.97962233,경북 영천시 망정1길 138,http://place.map.kakao.com/689109412
필그림미술학원,학원,128.9524501,35.98143633,경북 영천시 망정2길 184,http://place.map.kakao.com/2027895952
송이피아노교습소,학원,128.9555952,35.98645993,경북 영천시 창신길 140-11,http://place.map.kakao.com/331632465
아카데미학원,학원,128.9555985,35.98645987,경북 영천시 창신길 140-11,http://place.map.kakao.com/8480372
송이미술학원,학원,128.9555942,35.98646715,경북 영천시 창신길 140-11,http://place.map.kakao.com/23991501
GnB어학원 북안캠퍼스,학원,129.0087655,35.91883366,경북 영천시 북안면 운북로 2034-1,http://place.map.kakao.com/11832996
영천중장비운전학원 실습장,학원,129.0137541,35.89136466,경북 영천시 북안면 운북로 1716,http://place.map.kakao.com/938490506
천지부동산,부동산,128.7817718,36.04378369,경북 영천시 신녕면 치산효령로 54,http://place.map.kakao.com/1654553012
신녕본토 공인중개사사무소,부동산,128.7889018,36.03775372,경북 영천시 신녕면 장수로 1636,http://place.map.kakao.com/14965383
토박이부동산매매,부동산,128.7875716,36.0409463,경북 영천시 신녕면 본관시장길 3,http://place.map.kakao.com/1869270479
신녕부자부동산 공인중개사사무소,부동산,128.7903777,36.03517258,경북 영천시 신녕면 장수로 1607,http://place.map.kakao.com/404407294
신녕114공인중개사사무소,부동산,128.7918146,36.03713982,경북 영천시 신녕면 동산길 56,http://place.map.kakao.com/1574922020
성심공인중개사사무소,부동산,128.8201291,35.99448185,경북 영천시 청통면 금송로 1013,http://place.map.kakao.com/1593917748
은해부동산중개사무소,부동산,128.8197445,35.99593394,경북 영천시 청통면 금송로 1029,http://place.map.kakao.com/1136740617
대박공인중개사사무소,부동산,128.823523,35.9876793,경북 영천시 청통면 금송로 929,http://place.map.kakao.com/1013065156
화산부동산사무소,부동산,128.8562519,36.01856024,경북 영천시 화산면 장수로 922,http://place.map.kakao.com/8173061
신세계 공인중개사사무소,부동산,128.8554864,36.01826933,경북 영천시 화산면 장수로 927,http://place.map.kakao.com/14965491
삼성부동산,부동산,128.8669804,35.93016181,경북 영천시 금호읍 금호로 47,http://place.map.kakao.com/322963911
한결공인중개사사무소,부동산,128.860663,35.92822255,경북 영천시 금호읍 금호로 2-1,http://place.map.kakao.com/323148015
대길부동산컨설팅,부동산,128.8673044,35.93022976,경북 영천시 금호읍 금호로 51,http://place.map.kakao.com/322820861
소망공인중개사사무소,부동산,128.8671645,35.93021391,경북 영천시 금호읍 금호로 49,http://place.map.kakao.com/910852921
금호우방부동산컨설팅,부동산,128.8704411,35.9327256,경북 영천시 금호읍 덕성길 8,http://place.map.kakao.com/14936133
1번지부동산중개사무소,부동산,128.8700959,35.93086752,경북 영천시 금호읍 금호로 77-2,http://place.map.kakao.com/23787792
신세계부동산,부동산,128.8680785,35.93313095,경북 영천시 금호읍 교대길 33-34,http://place.map.kakao.com/1433366546
새서울부동산,부동산,128.869205,35.93043986,경북 영천시 금호읍 금호로 68,http://place.map.kakao.com/550597221
토박이부동산사무소,부동산,128.8706122,35.93345102,경북 영천시 금호읍 교대길 27-2,http://place.map.kakao.com/1550912847
대화공인중개사사무소,부동산,128.8722248,35.93168766,경북 영천시 금호읍 금호시장길 54-1,http://place.map.kakao.com/1550630177
한진 공인중개사사무소,부동산,128.8713152,35.93107919,경북 영천시 금호읍 금호로 87-1,http://place.map.kakao.com/10928716
만남부동산,부동산,128.8714673,35.93226716,경북 영천시 금호읍 교대길 15,http://place.map.kakao.com/948167284
혜창공인중개사사무소,부동산,128.8728736,35.93119906,경북 영천시 금호읍 금호로 102-1,http://place.map.kakao.com/181926906
롯데공인중개사,부동산,128.8697555,35.9341492,경북 영천시 금호읍 대경로 1246-1,http://place.map.kakao.com/1363743393
황소공인중개사사무소,부동산,128.8711275,35.93359617,경북 영천시 금호읍 교대길 30,http://place.map.kakao.com/1538870028
봄봄공인중개사사무소,부동산,128.8709352,35.93394699,경북 영천시 금호읍 교대용대길 1,http://place.map.kakao.com/117890522
고려공인중개사사무소,부동산,128.8709354,35.93391004,경북 영천시 금호읍 교대용대길 1,http://place.map.kakao.com/1539130507
대운부동산중개사,부동산,128.8801477,35.93327587,경북 영천시 금호읍 금호로 172-1,http://place.map.kakao.com/1551789622
대양부동산컨설팅,부동산,128.8761584,35.93217139,경북 영천시 금호읍 금호로 133,http://place.map.kakao.com/22960852
금창공인중개사사무소,부동산,128.8754446,35.93201765,경북 영천시 금호읍 금호로 127-1,http://place.map.kakao.com/1540801948
금호 공인중개사사무소,부동산,128.8772077,35.93212615,경북 영천시 금호읍 금호로 142-2,http://place.map.kakao.com/9680269
한강부동산 컨설팅사무소,부동산,128.8778502,35.93268558,경북 영천시 금호읍 금호로 149-1,http://place.map.kakao.com/14965565
대인 공인중개사사무소,부동산,128.8785995,35.93288651,경북 영천시 금호읍 금호로 158,http://place.map.kakao.com/7830570
금호부자부동산공인중개사사무소,부동산,128.8809954,35.9336086,경북 영천시 금호읍 금호로 180-2,http://place.map.kakao.com/1561901902
그린공인중개사사무소,부동산,128.8804793,35.93342746,경북 영천시 금호읍 금호로 176,http://place.map.kakao.com/1561674453
황금알공인중개사,부동산,128.8920882,36.06047854,경북 영천시 화남면 천문로 1602-1,http://place.map.kakao.com/164344369
대박공인중개사사무소,부동산,128.8951843,35.87533426,경북 영천시 대창면 금박로 1053,http://place.map.kakao.com/774741746
승원임대사무소,부동산,128.8993261,35.94265065,경북 영천시 금호읍 원제2길 16-6,http://place.map.kakao.com/43467654
송원임대사무소,부동산,128.8992578,35.94257424,경북 영천시 금호읍 원제2길 16-4,http://place.map.kakao.com/2128952517
세원공인중개사사무소,부동산,128.9146579,35.95991774,경북 영천시 최무선로 116,http://place.map.kakao.com/1536084162
강토공인중개사,부동산,128.9201756,35.96487651,경북 영천시 장수로 36,http://place.map.kakao.com/24152932
화성 공인중개사사무소,부동산,128.9206859,35.964252,경북 영천시 장수로 27,http://place.map.kakao.com/14967204
대아부동산,부동산,128.9204027,36.03719863,경북 영천시 화남면 천문로 1194,http://place.map.kakao.com/1056046360
플러스공인중개사사무소,부동산,128.9232141,35.96265263,경북 영천시 최무선로 204,http://place.map.kakao.com/1790859724
국민공인중개사사무소,부동산,128.9211222,35.9632286,경북 영천시 최무선로 183-6,http://place.map.kakao.com/212136699
영천부동산1번지 공인중개사사무소,부동산,128.9241142,35.96229038,경북 영천시 강변로 10,http://place.map.kakao.com/1896589850
새원공인중개사사무소,부동산,128.9261533,35.96437519,경북 영천시 최무선로 233,http://place.map.kakao.com/644412138
유진 공인중개사사무소,부동산,128.9221991,35.981542,경북 영천시 천문로 522,http://place.map.kakao.com/12672705
삼거리부동산,부동산,128.921533,35.98127605,경북 영천시 외머리로 117,http://place.map.kakao.com/418500371
대우 공인중개사사무소,부동산,128.9237396,35.98503601,경북 영천시 천문로 564,http://place.map.kakao.com/14936411
천마공인중개사사무소,부동산,128.9235767,35.99275635,경북 영천시 천문로 650,http://place.map.kakao.com/1056967547
화랑공인중개사,부동산,128.9272455,35.93497248,경북 영천시 도동구역길 183-1,http://place.map.kakao.com/1212035720
영진부동산공인중개사,부동산,128.9289978,35.94315499,경북 영천시 천문로 49,http://place.map.kakao.com/24603091
창성부동산,부동산,128.9290088,35.94315211,경북 영천시 천문로 49,http://place.map.kakao.com/8533631
명당공인중개사사무소,부동산,128.9288508,35.94353851,경북 영천시 천문로 55,http://place.map.kakao.com/1210917235
화성공인중개사사무소,부동산,128.9307084,35.94286977,경북 영천시 한방로 14,http://place.map.kakao.com/186082256
강산부동산,부동산,128.9296487,35.94809417,경북 영천시 천문로 110,http://place.map.kakao.com/525455016
새영천공인중개사사무소,부동산,128.9296877,35.94828817,경북 영천시 천문로 110,http://place.map.kakao.com/373542966
터미널 공인중개사사무소,부동산,128.9267737,35.96080596,경북 영천시 강변로 38,http://place.map.kakao.com/14960916
한일 공인중개사사무소,부동산,128.928166,35.96118007,경북 영천시 강변로 49,http://place.map.kakao.com/18850989
흥부공인중개사사무소,부동산,128.9284769,35.96065605,경북 영천시 강변로 50-7,http://place.map.kakao.com/10106173
황금 공인중개사사무소,부동산,128.9285496,35.96127482,경북 영천시 강변로 53,http://place.map.kakao.com/14966582
금강부동산중개사무소,부동산,128.9294376,35.96078477,경북 영천시 금완로 7-4,http://place.map.kakao.com/1691802500
신화공인중개사사무소,부동산,128.9284895,35.9604468,경북 영천시 강변로 50-7,http://place.map.kakao.com/14950366
새주남 부동산중개인사무소,부동산,128.9295117,35.96127738,경북 영천시 강변로 62,http://place.map.kakao.com/8372953
아주공인중개사사무소,부동산,128.9286893,35.96127618,경북 영천시 강변로 55,http://place.map.kakao.com/7991579
스마일공인중개사,부동산,128.9299973,35.96629218,경북 영천시 최무선로 275,http://place.map.kakao.com/74641107
스타 공인중개사사무소,부동산,128.9304609,35.96657847,경북 영천시 최무선로 281,http://place.map.kakao.com/25017582
미소공인중개사사무소,부동산,128.931667,35.97499675,경북 영천시 중앙동1길 103,http://place.map.kakao.com/575342071
천마부동산,부동산,128.928003,36.03063307,경북 영천시 화남면 천문로 1087-10,http://place.map.kakao.com/1387916373
남부공인중개사사무소,부동산,128.9351907,35.94110083,경북 영천시 한방로 61,http://place.map.kakao.com/26589298
국제글로벌부동산공인중개사사무소,부동산,128.9343657,35.94180165,경북 영천시 한방로 49,http://place.map.kakao.com/8694082
덕신공인중개사,부동산,128.9326499,35.95370194,경북 영천시 영화로 22,http://place.map.kakao.com/1371242263
조은공인중개사,부동산,128.9325517,35.95358368,경북 영천시 영화로 22,http://place.map.kakao.com/1371507373
제이원공인중개사사무소,부동산,128.9317073,35.95572563,경북 영천시 천문로 194,http://place.map.kakao.com/1747572825
부동산뱅크공인중개사,부동산,128.9331374,35.95651537,경북 영천시 천문로 210-11,http://place.map.kakao.com/26462475
우리공인중개사사무소,부동산,128.9345471,35.96014743,경북 영천시 금완로 56,http://place.map.kakao.com/20377150
한국공인중개사사무소,부동산,128.9347078,35.96046472,경북 영천시 구읍1길 32-12,http://place.map.kakao.com/197231014
하나공인중개사사무소,부동산,128.9332883,35.96197708,경북 영천시 천문로 263,http://place.map.kakao.com/664825826
공인중개사사무소부동산제작소,부동산,128.9316697,35.96619047,경북 영천시 천문로 317-1,http://place.map.kakao.com/27420062
영천센트럴 부동산공인중개사 사무소,부동산,128.934191,35.97190143,경북 영천시 충효로 39,http://place.map.kakao.com/727435716
정인공인중개사사무소,부동산,128.93418,35.97190431,경북 영천시 충효로 39,http://place.map.kakao.com/489776921
경영개발,부동산,128.9325119,35.96795834,경북 영천시 옛군청1길 34-4,http://place.map.kakao.com/1405949132
좋은공인중개사사무소,부동산,128.9328706,35.96793814,경북 영천시 최무선로 307,http://place.map.kakao.com/14949963
행운공인중개사사무소,부동산,128.9344391,35.96889684,경북 영천시 최무선로 325,http://place.map.kakao.com/1169512024
알파공인중개사사무소,부동산,128.9340122,35.97374971,경북 영천시 중앙동2길 39,http://place.map.kakao.com/555121096
대신부동산중개사무소,부동산,128.9374198,35.97062205,경북 영천시 동문길 131,http://place.map.kakao.com/260483412
행운공인중개사사무소,부동산,128.9367622,35.97314848,경북 영천시 충효로 67,http://place.map.kakao.com/25887405
믿음공인중개사사무소,부동산,128.93985,35.93955323,경북 영천시 한방로 109,http://place.map.kakao.com/1801150452
삼오공인중개사사무소,부동산,128.9405939,35.93961689,경북 영천시 한방로 115,http://place.map.kakao.com/1907639866
당근공인중개사사무소,부동산,128.9405939,35.93961689,경북 영천시 한방로 115,http://place.map.kakao.com/57826180
착한부동산,부동산,128.941811,35.93940617,경북 영천시 한방로 125,http://place.map.kakao.com/1707185003
전국공인중개사사무소,부동산,128.9375706,35.95760445,경북 영천시 주남1길 39-22,http://place.map.kakao.com/38791903
오뚜기공인중개사사무소,부동산,128.9356421,35.96010273,경북 영천시 금완로 68-6,http://place.map.kakao.com/403107500
드림공인중개사사무소,부동산,128.935155,35.96044219,경북 영천시 금완로 61,http://place.map.kakao.com/1857738812
제일공인중개사사무소,부동산,128.9377308,35.96035195,경북 영천시 금완로 83-4,http://place.map.kakao.com/26950284
천지공인중개사사무소,부동산,128.9393858,35.96126954,경북 영천시 완산로 14,http://place.map.kakao.com/14954038
행복부동산,부동산,128.9368089,35.96035963,경북 영천시 금완로 75,http://place.map.kakao.com/94576564
봄날공인중개사사무소,부동산,128.9388572,35.96163491,경북 영천시 완산로 17,http://place.map.kakao.com/970627583
한마음공인중개사사무소,부동산,128.9346293,35.96351613,경북 영천시 강남길 6,http://place.map.kakao.com/992162978
정우부동산,부동산,128.941114,35.96680213,경북 영천시 완산6길 41,http://place.map.kakao.com/903775612
오름부동산,부동산,128.9368786,35.96539373,경북 영천시 강남길 33,http://place.map.kakao.com/5150423
명가부동산공인중개사사무소,부동산,128.9363591,35.96477046,경북 영천시 강남길 26-1,http://place.map.kakao.com/406494190
신정민공인중개사사무소,부동산,128.9377998,35.97097634,경북 영천시 삼산길 3,http://place.map.kakao.com/295157743
단디공인중개사사무소,부동산,128.938213,35.97137065,경북 영천시 시청로 5,http://place.map.kakao.com/877545364
천상부동산,부동산,128.939157,35.97425235,경북 영천시 충효로 93,http://place.map.kakao.com/11988135
포은공인중개사사무소,부동산,128.9387522,35.97120965,경북 영천시 호국로 3,http://place.map.kakao.com/946855459
1000공인중개사사무소,부동산,128.9393881,35.97436485,경북 영천시 충효로 93,http://place.map.kakao.com/651062941
바른공인중개사사무소,부동산,128.9403173,35.97546265,경북 영천시 모란1길 8,http://place.map.kakao.com/493303916
청구부동산공인중개사사무소,부동산,128.9408888,35.97507856,경북 영천시 충효로 111,http://place.map.kakao.com/12993428
명성공인중개사사무소,부동산,128.9407643,35.97506616,경북 영천시 충효로 109,http://place.map.kakao.com/747371403
우리들 공인중개사사무소,부동산,128.9416967,35.97511595,경북 영천시 상록2길 53,http://place.map.kakao.com/8021252
한빛공인중개사사무소,부동산,128.9411985,35.97491496,경북 영천시 충효로 114,http://place.map.kakao.com/26512645
영천IC코끼리공인중개사사무소,부동산,128.9457002,35.93316897,경북 영천시 영천아이시로 67,http://place.map.kakao.com/1008209858
대산공인중개사사무소,부동산,128.9453697,35.93252194,경북 영천시 봉동1길 10,http://place.map.kakao.com/10252347
행복을주는공인중개사사무소,부동산,128.9465908,35.9323039,경북 영천시 영천아이시로 79,http://place.map.kakao.com/1277400604
태양공인중개사무소,부동산,128.9443652,35.93520723,경북 영천시 영천아이시로 42,http://place.map.kakao.com/987859875
해뜨는공인중개사사무소,부동산,128.9458346,35.93300054,경북 영천시 영천아이시로 69,http://place.map.kakao.com/13063067
뉴삼성공인중개사사무소,부동산,128.943896,35.93930393,경북 영천시 한방로 145,http://place.map.kakao.com/36974086
토목설계공인중개사무소,부동산,128.9385988,35.96063258,경북 영천시 역전로 51,http://place.map.kakao.com/459208658
원공인중개사사무소,부동산,128.9435027,35.95780405,경북 영천시 영화로 142,http://place.map.kakao.com/8523016
하나로공인중개사사무소,부동산,128.9394661,35.96151333,경북 영천시 완산로 16,http://place.map.kakao.com/8130472
미래 공인중개사사무소,부동산,128.93947,35.96253599,경북 영천시 약전길 15-23,http://place.map.kakao.com/23927776
태건공인중개사사무소,부동산,128.9407899,35.96157843,경북 영천시 약전길 33,http://place.map.kakao.com/1840485443
마카공인중개사사무소,부동산,128.9399567,35.96127112,경북 영천시 약전길 18,http://place.map.kakao.com/1198013502
수경공인중개사사무소,부동산,128.9388735,35.96211753,경북 영천시 완산로 23,http://place.map.kakao.com/463097200
미소지움공인중개사사무소,부동산,128.9432233,35.96688963,경북 영천시 완산5길 25,http://place.map.kakao.com/1943836270
굿모닝공인중개사사무소,부동산,128.939447,35.96272829,경북 영천시 완산로 30,http://place.map.kakao.com/1600675915
으뜸 공인중개사사무소,부동산,128.9466191,35.9742324,경북 영천시 야사시장길 6,http://place.map.kakao.com/8037932
제일부동산 중개인사무소,부동산,128.9442242,35.9733089,경북 영천시 호국로 58,http://place.map.kakao.com/8071113
진흥부동산개발 영천지사,부동산,128.9437946,35.97319421,경북 영천시 호국로 54,http://place.map.kakao.com/1370634898
샘터공인중개사사무소,부동산,128.9439771,35.96300549,경북 영천시 완산9길 15,http://place.map.kakao.com/8362133
해와달부동산중개사무소,부동산,128.9444196,35.96297219,경북 영천시 완산9길 16,http://place.map.kakao.com/104423821
하나공인중개사사무소,부동산,128.9432281,35.96690487,경북 영천시 완산5길 25,http://place.map.kakao.com/369369996
영화공인중개사사무소,부동산,128.9471432,35.97480779,경북 영천시 호국로 89,http://place.map.kakao.com/9274076
전원공인중개사사무소,부동산,128.9442103,35.97328389,경북 영천시 호국로 58,http://place.map.kakao.com/26617430
대한공인중개사사무소,부동산,128.9507695,35.97554001,경북 영천시 호국로 124,http://place.map.kakao.com/1668990194
가이드 공인중개사사무소,부동산,128.9468484,35.97472247,경북 영천시 야사2길 3,http://place.map.kakao.com/8117141
영천공인중개사사무소,부동산,128.9526885,35.97873914,경북 영천시 망정로 27-4,http://place.map.kakao.com/1964528436
청룡공인중개사사무소,부동산,128.9500286,35.97606477,경북 영천시 망정2길 7-4,http://place.map.kakao.com/467361850
한신공인중개사사무소,부동산,128.9510952,35.98142954,경북 영천시 망정1길 171,http://place.map.kakao.com/1857569953
동아 공인중개사사무소,부동산,128.9498782,35.97567165,경북 영천시 호국로 115,http://place.map.kakao.com/8278093
머릿돌공인중개사사무소,부동산,128.9517001,35.98141249,경북 영천시 망정1길 174,http://place.map.kakao.com/1910720006
망정공인중개사사무소,부동산,128.9534749,35.98091143,경북 영천시 망정2길 156,http://place.map.kakao.com/104244776
보금자리공인중개사사무소,부동산,128.9545722,35.98656311,경북 영천시 창신1길 5,http://place.map.kakao.com/180816720
한터공인중개사,부동산,128.9546787,35.9881851,경북 영천시 창신1길 22,http://place.map.kakao.com/26566829
다올공인중개사사무소,부동산,128.9395055,35.9607684,경북 영천시 완산로 8-8,http://place.map.kakao.com/619134168
태영공인중개사사무소,부동산,128.9493784,35.97175829,경북 영천시 동부로 16,http://place.map.kakao.com/8120269
강변부동산 공인중개사사무소,부동산,128.9495157,35.97121181,경북 영천시 동부로 9,http://place.map.kakao.com/38697399
월드공인중개사사무소,부동산,128.9515192,35.97172709,경북 영천시 영화로 334,http://place.map.kakao.com/26316064
뉴황금 공인중개사사무소,부동산,128.9488862,35.97266016,경북 영천시 미륵4길 7,http://place.map.kakao.com/14938750
영천부동산 114공인중개사사무소,부동산,128.9537193,35.97823667,경북 영천시 망정로 20,http://place.map.kakao.com/103858618
창성공인중개사사무소,부동산,128.9562072,35.97649129,경북 영천시 호국로 174,http://place.map.kakao.com/334246334
금송공인중개사사무소,부동산,128.9565928,35.98645086,경북 영천시 언하공단로 64,http://place.map.kakao.com/23167461
피앤케이,부동산,128.9554689,35.98659895,경북 영천시 창신1길 12,http://place.map.kakao.com/1652438939
오성공인중개사사무소,부동산,128.959278,35.97716743,경북 영천시 호국로 202,http://place.map.kakao.com/255096012
새로운공인중개사사무소,부동산,128.960255,35.97731547,경북 영천시 호국로 208,http://place.map.kakao.com/24096305
영동 공인중개사사무소,부동산,128.962587,35.977836,경북 영천시 조흔달1길 3,http://place.map.kakao.com/12815107
하나로부동산공인중개사사무소,부동산,128.9628302,35.98340244,경북 영천시 포은로 61,http://place.map.kakao.com/634158660
25시공인중개사사무소,부동산,128.9628039,35.98341458,경북 영천시 포은로 61,http://place.map.kakao.com/1524576717
대성부동산중개인사무소,부동산,128.9621921,35.97764782,경북 영천시 호국로 228,http://place.map.kakao.com/14638938
부광공인중개사사무소,부동산,128.9797344,35.9808485,경북 영천시 고경면 호국로 391,http://place.map.kakao.com/7906617
빛촌,부동산,129.0074229,35.89954432,경북 영천시 북안면 북안서당길 45-13,http://place.map.kakao.com/23579485
열린공인중개사사무소,부동산,129.0098164,35.91741761,경북 영천시 북안면 임포역길 100,http://place.map.kakao.com/755527285
한솔 공인중개사사무소,부동산,129.0090164,35.91841857,경북 영천시 북안면 운북로 2030,http://place.map.kakao.com/10930522
고경공인중개사사무소,부동산,129.0184475,36.00174219,경북 영천시 고경면 호국로 811,http://place.map.kakao.com/14622998
용평마을,노인복지시설,128.8359,36.02296,경상북도 영천시 화산면 가일길 85-24 (용평마을),
마야노인전문요양원,노인복지시설,129.01633,35.91004,경상북도 영천시 북안면 내서로 55-24,
자광원(주식회사 덕원),노인복지시설,128.9184,35.89662,경상북도 영천시 금호읍 칠백로 339,
마야실비노인요양원,노인복지시설,129.01238,35.90632,경상북도 영천시 북안면 고지길 42-6,
은해사 포근한집,노인복지시설,128.80164,35.99198,경상북도 영천시 청통면 대동로 424,
포은실버타운,노인복지시설,128.9918,36.00767,경상북도 영천시 임고면 효자로 241-18,
영남실버케어,노인복지시설,128.92012,35.97031,경상북도 영천시 양지길 128 (화룡동),
온누리요양원,노인복지시설,128.93845,35.97314,경상북도 영천시 완산4길 194 (완산동),
영천석미노인요양원,노인복지시설,128.92094,35.96299,경상북도 영천시 최무선로 335 (문외동),
경북요양원,노인복지시설,128.92741,35.96383,경상북도 영천시 창대서원1길 9-3 (과전동),
영천행복마을요양원,노인복지시설,128.95973,35.97329,경상북도 영천시 장천4길 26-24 (조교동),
우리들요양원,노인복지시설,128.904908,35.944159,경상북도 영천시 금호읍 금호로 424,
솔향기요양원,노인복지시설,128.9275014,35.9776859,경상북도 영천시 천문로 434-34(오미동),
장수요양원,노인복지시설,128.9211,35.96024,경상북도 영천시 구터2길 3-4 (성내동),
영천애실버타운,노인복지시설,128.8935,36.06759,경상북도 영천시 화남면 한천길 10-37,
우리실버타운요양원,노인복지시설,128.95561,35.96065,경상북도 영천시 완산4길 127 (완산동),
장수노인요양공동생활가정,노인복지시설,128.9211,35.96024,경상북도 영천시 수원지길 75 (성내동),
대자연노인요양공동생활가정,노인복지시설,128.93522,35.94106,경상북도 영천시 천문로 72-33 (도동),
단포공동생활가정,노인복지시설,128.97705,35.97928,경상북도 영천시 고경면 단포구보길 65,
효담채,노인복지시설,128.9299319,35.958992,경상북도 영천시 담안7길 2(금노동),
우리함께영천요양원,노인복지시설,128.9106477,35.9314709,경상북도 영천시 금호읍 관정1길 40,
영천노인복지센터,노인복지시설,128.9337,35.96274,경상북도 영천시 원제1길 11-8,
영천백세마을,노인복지시설,128.93445,35.96034,경상북도 영천시 임고면 매호리 418번지,
굿스마트재활요양원,노인복지시설,128.91996,35.97884,경상북도 영천시 외머리로 98(화룡동),
배롱집,체육시설,128.8952764,35.99318992,경상북도 영천시 청통면 장수로 438,
아리랑태무 태권도장,체육시설,128.8239472,35.98948383,경상북도 영천시 청통면 강둑길 7-2,
창용체육관,체육시설,128.940189,35.97602788,경상북도 영천시 모란4길 3 (야사동),
영남대 혁신태권도체육관,체육시설,128.9515923,35.98194941,경상북도 영천시 망정1길 186 (망정동),
영천검도관,체육시설,128.9336038,35.97331243,경상북도 영천시 중앙동4길 12 (문외동),
경희영재태권도장,체육시설,128.9489074,35.97258834,"경상북도 영천시 미륵4길 7, 황금상가 2층 201호 (망정동)",
정의태권도체육관,체육시설,128.9543082,35.98831789,경상북도 영천시 창신1길 25 (망정동),
아리랑태무금호태권도장,체육시설,128.87911,35.93260774,경상북도 영천시 금호읍 거여로 15,
중앙태권도교육관,체육시설,128.9313272,35.97017565,경상북도 영천시 옛군청3길 67 (문내동),
국가대표 영재 태권스쿨,체육시설,128.9416503,35.96744519,"경상북도 영천시 완산5길 25, 근린생활시설동 201호 (완산동, 영천완산미소지움)",
동부 키즈아이 태권도장,체육시설,128.9358015,35.97350258,"경상북도 영천시 청산길 24, 202호 (문외동)",
YC복싱클럽,체육시설,128.9394028,35.97144651,경상북도 영천시 호국로 9 (문외동),
영재1 태권도 도장,체육시설,128.9522344,35.98554943,경상북도 영천시 언하공단로 103 (망정동),
퍼펙트 유도관,체육시설,128.9422804,35.97287498,"경상북도 영천시 호국로 41, 애플타워 지하1층 (야사동)",
혁신 태권도,체육시설,128.9515923,35.98194941,경상북도 영천시 망정1길 186 (망정동),
문내정의태권도,체육시설,128.9322894,35.97467459,경상북도 영천시 중앙동3길 40 (문외동),
천지인태권도장,체육시설,128.9524395,35.9814019,"경상북도 영천시 망정2길 184, 101,102호 (망정동)",
해아림 태권도,체육시설,128.93216,35.97310736,경상북도 영천시 조양길 120 (문내동),
아리랑태무 영천태권도장,체육시설,128.9517077,35.98140772,"경상북도 영천시 망정1길 174, 정암빌딩 201호 (망정동)",
다부진 합기도,체육시설,128.9429405,35.97337451,"경상북도 영천시 상록2길 7, 2층 (야사동)",
합기도 천하관,체육시설,128.9520679,35.98922798,"경상북도 영천시 창신길 37, 2층 (망정동)",
파이널유도짐,체육시설,128.9386767,35.97192988,"경상북도 영천시 시청남길 6, 2층 (문외동)",
월드볼링센타,체육시설,128.9367241,35.97182799,경상북도 영천시 문외3길 45  (문외동),
효성볼링센타,체육시설,128.9410981,35.97228942,경상북도 영천시 호국로 27  (야사동),
J골프아카데미,체육시설,128.9327868,35.98301661,경상북도 영천시 오미길 103 (오미동),
그린골프연습장,체육시설,128.9259958,35.97789592,경상북도 영천시 천문로 464 (화룡동),
송정골프클럽,체육시설,128.9734629,35.98040375,경상북도 영천시 고경면 방천길 10,
웨스트우드 영천골프,체육시설,128.9283175,36.00377181,경상북도 영천시 천문로 774-21 (오미동),
별빛스크린골프연습장,체육시설,128.9529371,35.97760355,경상북도 영천시 망정로 17 (망정동),
필드스크린골프,체육시설,128.9335345,35.96837393,경상북도 영천시 최무선로 315 (문내동),
OK스크린 골프연습장,체육시설,128.9349755,35.969282,경상북도 영천시 최무선로 331 (문외동),
가온 골프존,체육시설,128.9299594,35.97360215,경상북도 영천시 중앙동3길 91 (문내동),
스마트 스크린골프,체육시설,128.956132,35.97496437,경상북도 영천시 장천3길 44 (조교동),
현대스크린골프,체육시설,128.9470628,35.97781236,경상북도 영천시 충효로 171 (야사동),
영천골프존파크,체육시설,128.9306103,35.97427305,경상북도 영천시 중앙동3길 74 (문내동),
오닉스 스크린골프연습장,체육시설,128.9391333,35.97209754,경상북도 영천시 시청남길 18 (문외동),
청통스크린골프,체육시설,128.8570034,35.99325358,"경상북도 영천시 청통면 청통로 696, A동 1,2층",
PGA 스크린골프존,체육시설,128.9561152,35.97724475,경상북도 영천시 호국로 175 (조교동),
두성스크린골프,체육시설,128.9525302,35.97327161,"경상북도 영천시 영화로 354, 두성빌딩 4층 (조교동)",
동영천골프랜드,체육시설,128.9724661,35.97689685,경상북도 영천시 고경면 호국로 332-41,
롯데스크린연습장,체육시설,128.9407439,35.96300897,"경상북도 영천시 시장로 96, 고은스퀘어 2층 2033호 (완산동)",
프렌즈스크린,체육시설,128.9479758,35.96238416,"경상북도 영천시 약전길 165, 3~4층 (완산동)",
큐이디 골프,체육시설,128.9054101,35.9444442,경상북도 영천시 금호읍 금호로 428,
비나이더(영천시청점),체육시설,128.9379785,35.97195337,경상북도 영천시 시청로 15 (문외동),
광천온천랜드스포츠센타,체육시설,128.9515372,35.97090913,경상북도 영천시 영화로 326 (조교동),
쭉쭉빵빵휘트니스클럽,체육시설,128.9437472,35.97500849,경상북도 영천시 새말1길 33  (야사동),
진스피닝,체육시설,128.9505169,35.97550476,"경상북도 영천시 호국로 120, 대영빌딩 3,4층 (망정동)",
더 이지 휘트니스,체육시설,128.9344514,35.97278308,경상북도 영천시 중앙동1길 22 (문외동),
창신하와이 사우나 휘트니스,체육시설,128.9532063,35.98614556,경상북도 영천시 언하공단로 94 (망정동),
청춘문화공간 단디 휘트니스,체육시설,128.9381708,35.97133899,경상북도 영천시 시청로 5 (문외동),
바디명작,체육시설,128.9344788,35.9685288,경상북도 영천시 최무선로 324 (문외동),
AMBER GYM(엠버 짐),체육시설,128.9485534,35.97543019,"경상북도 영천시 망정1길 4, 2,3층 (망정동)",
화남면 다목적회관,체육시설,128.8900065,36.05901367,경상북도 영천시 화남면 신화로 1198,
스타 짐,체육시설,128.9517077,35.98140772,"경상북도 영천시 망정1길 174, 정암빌딩 3층 (망정동)",
BANADA(바나다) 헬스,체육시설,128.9395535,35.97106679,"경상북도 영천시 호국로 8, 2층 (문외동, 광원골드존)",
나의Fit파트너,체육시설,128.950968,35.9705982,"경상북도 영천시 장천길 5, 2층 204호 (조교동)",
비나이더 피트니스 영천창신점,체육시설,128.9553612,35.98735414,"경상북도 영천시 창신1길 5, 창신타운 2층 203~205호 (망정동)",
K.GYM,체육시설,128.9489074,35.97258834,경상북도 영천시 미륵4길 7 (망정동),
김동숙에어로빅,체육시설,128.9423304,35.97242394,경상북도 영천시 호국로 38-1,
노승이 에어로빅,체육시설,128.9410981,35.97228942,경상북도 영천시 호국로 27,
정에어로빅,체육시설,128.9216035,35.9635002,경상북도 영천시 장수로 15-1  (화룡동),
영에어로빅,체육시설,128.937496,35.9621061,경상북도 영천시 완산중앙3길 20-1  (완산동),
한국에어로빅교육관,체육시설,128.9383073,35.965083,경상북도 영천시 시장3길 10-5  (완산동),
김명희 댄스스쿨,체육시설,128.939621,35.97114737,경상북도 영천시 호국로 10 (문외동),
7080당구클럽,체육시설,128.9380105,35.96061495,경상북도 영천시 역전로 46-1 (완산동),
금창당구장,체육시설,128.8752201,35.93159971,경상북도 영천시 금호읍 금창로 4,
우림당구장,체육시설,128.7877816,36.04173158,경상북도 영천시 신녕면 본관시장길 14-45,
영천당구장,체육시설,128.9392896,35.97218645,경상북도 영천시 시청남길 20 (문외동),
중앙당구장,체육시설,128.939283,35.9716277,"경상북도 영천시 시청남1길 12-4 (문외동,(3층))",
동부당구장,체육시설,128.9419307,35.97516699,경상북도 영천시 상록2길 54 (야사동),
세븐당구장,체육시설,128.9545453,35.98590958,경상북도 영천시 언하공단로 83 (망정동),
힐링당구장,체육시설,128.869759,35.93080126,경상북도 영천시 금호읍 금호로 73,
녹스당구장,체육시설,128.9355729,35.9644825,경상북도 영천시 강남길 19 (완산동),
영재 당구장,체육시설,128.9357921,35.97270952,"경상북도 영천시 충효로 59, 2층 (문외동)",
정상당구장,체육시설,128.9381302,35.97165476,"경상북도 영천시 시청로 9, 5층 (문외동)",
매니아당구장,체육시설,128.9483071,35.97338623,경상북도 영천시 동부로 35 (야사동),
김프로당구클럽,체육시설,128.9353077,35.97393905,"경상북도 영천시 청산길 지하 29 (문외동, 무지개타운)",
황토당구장,체육시설,128.9565883,35.98978682,"경상북도 영천시 창신2길 39, 3층 (망정동)",
고고 당구장,체육시설,128.9553612,35.98735414,"경상북도 영천시 창신1길 21 (망정동, 창신타운)",
유수당구클럽,체육시설,128.876132,35.93188147,경상북도 영천시 금호읍 금호로 132-1,
그린 당구장,체육시설,128.9484268,35.97226769,"경상북도 영천시 동부로 25, 2층 (야사동)",
초원당구장,체육시설,128.9387639,35.97180302,경상북도 영천시 시청남1길 17 (문외동),
윤성당구장,체육시설,128.898879,35.94224014,"경상북도 영천시 금호읍 원제2길 13, 2층",
고은당구클럽,체육시설,128.9407439,35.96300897,"경상북도 영천시 시장로 96, 고은스퀘어 2층 (완산동)",
국제 댄스 스포츠,체육시설,128.9397485,35.97161504,경상북도 영천시 호국로 13 (문외동),
은박지 리듬댄스 학원,체육시설,128.9400782,35.97136911,"경상북도 영천시 호국로 14-3, 지하1층 (야사동)",
영천 무도학원,체육시설,128.9407469,35.97166128,경상북도 영천시 호국로 22-1 (야사동),
영천시운주산승마조련센터,체육시설,128.9990782,36.03223249,경상북도 영천시 임고면 승마휴양림길 62-29,
휘명승마아카데미,체육시설,128.8000719,36.0455436,경상북도 영천시 신녕면 신화로 118 (휘명승마아카데미),
성운대학교 재활승마장,체육시설,128.7614088,36.06420908,"경상북도 영천시 신녕면 대학길 105, 성운대학교",
종합스포츠센터,체육시설,128.9234116,35.97119228,"경상북도 영천시 운동장로 94, 영천시종합스포츠센터 (교촌동)",
휴베이스볼파크랜드,체육시설,128.8581487,35.92088956,경상북도 영천시 금호읍 대구대길 566-35,
우주최강야구장,체육시설,128.8401566,35.99220127,경상북도 영천시 청통면 청통로 503,
롯데스크린골프,체육시설,128.9407439,35.96300897,"경상북도 영천시 시장로 96, 고은스퀘어 2층 2015호 (완산동)",
골프존파크 완산건행스크린점,체육시설,128.9479758,35.96238416,"경상북도 영천시 약전길 165, 2층 (완산동)",
우리들스크린골프장,체육시설,128.9054101,35.9444442,경상북도 영천시 금호읍 금호로 428,
제이에프 줄넘기,체육시설,128.9543082,35.98831789,"경상북도 영천시 창신1길 25, 2층 201호 (망정동)",
점프윙스줄넘기클럽,체육시설,128.93216,35.97310736,"경상북도 영천시 조양길 120, 2층 (문내동)",
인사이드스포츠,체육시설,128.9444643,35.96354751,"경상북도 영천시 시장로 128, 드림스퀘어 3층 (완산동)",
메이저아카데미,체육시설,128.9369995,35.96512028,"경상북도 영천시 시장2길 35, 지하1층 (완산동)",
점프스타 줄넘기 클럽,체육시설,128.95212,35.98157569,"경상북도 영천시 망정2길 183, 3층 (망정동)",
청통이발관,미용업,128.82343,35.98943821,경상북도 영천시 청통면 원촌리 522-3 ,
영천이용소,미용업,128.9797283,35.98084815,경상북도 영천시 고경면 호국로 391,
유성이용소,미용업,128.9251837,35.96425595,경상북도 영천시 서문길 28 (성내동),
향토이용소,미용업,128.9213052,35.96416612,경상북도 영천시 장수로 24 (화룡동),
신우이용소,미용업,128.8847685,36.0017819,경상북도 영천시 화산면 장수로 573,
부흥이용소,미용업,128.9336725,35.96262823,경상북도 영천시 천문로 271 (완산동),
효성이용소,미용업,128.924089,35.96336298,경상북도 영천시 최무선로 213-5 (성내동),
동아이용소,미용업,128.9290032,35.9675595,경상북도 영천시 교촌샛길 11-3 (교촌동),
새마을이용소,미용업,128.7903282,36.04417297,경상북도 영천시 신녕면 관기길 31-31,
시장이용소,미용업,128.9379142,35.96479482,경상북도 영천시 시장3길 5 (완산동),
성남이용소,미용업,128.9468634,35.97209532,"경상북도 영천시 영천고2길 9 (야사동,문화상가 B동 205호)",
영진이용소,미용업,128.9354989,35.96996293,경상북도 영천시 동문길 94 (문외동),
덕신이용소,미용업,128.9325477,35.96995572,경상북도 영천시 동문길 41 (문내동),
우정이용소,미용업,128.8777279,35.93260234,경상북도 영천시 금호읍 금호로 149,
경북이용소,미용업,128.9367181,35.96186878,경상북도 영천시 역전로 29 (완산동),
서울이용소,미용업,128.9397356,35.97300384,"경상북도 영천시 상록4길 1, 바동 1호 (문외동)",
덕성이용소,미용업,128.9442375,35.97657382,"경상북도 영천시 충효로 145 (야사동,주공상가2층)",
덕신이용소,미용업,128.8567839,36.01925323,경상북도 영천시 화산면 유성길 9,
영천이용원,미용업,128.9307424,35.96960986,경상북도 영천시 동문길 8 (창구동),
명주이용소,미용업,128.9941041,35.87164408,경상북도 영천시 북안면 운북로 1428-1,
새신녕이용소,미용업,128.7874709,36.04240532,경상북도 영천시 신녕면 본관시장길 26-5,
태평이용소,미용업,128.9208421,35.96501001,경상북도 영천시 상아탑길 7-9 (화룡동),
임고이용소,미용업,128.974651,36.01661879,경상북도 영천시 임고면 운주로 1,
니나이용소,미용업,128.9372562,35.97395976,경상북도 영천시 청산1길 13 (문외동),
월드컵,미용업,128.9336127,35.96092778,경상북도 영천시 구읍1길 10 (완산동),
동진이발소,미용업,128.9465919,35.97553922,"경상북도 영천시 야사4길 37 (야사동,나동2호)",
영화이용원,미용업,128.9208421,35.96501001,"경상북도 영천시 상아탑길 7-9, 1층 (화룡동)",
합동이용원,미용업,128.9465259,35.97162467,경상북도 영천시 영천고1길 91 (야사동),
새문화이용소,미용업,128.9461658,35.97221738,"경상북도 영천시 영천고2길 42, 14동 5호 (야사동,문화아파트)",
대창이용소,미용업,128.8952433,35.87548966,경상북도 영천시 대창면 금박로 1053-1,
서문이용원,미용업,128.941793,35.97499256,경상북도 영천시 상록5길 19 (야사동),
광이발소,미용업,128.8752205,35.93158799,경상북도 영천시 금호읍 금창로 4,
청구이용원,미용업,128.7881855,36.04040271,경상북도 영천시 신녕면 장수로 1665,
수덕이용소,미용업,128.9360747,35.96443579,"경상북도 영천시 시장4길 4 (완산동,외1필지(1065-4))",
대성이용소,미용업,128.8723403,35.93147194,경상북도 영천시 금호읍 금호시장길 53-1,
명진이용원,미용업,128.9455885,35.97653659,"경상북도 영천시 야사4길 11, A동 106호 (야사동,영동상가)",
진흥이용원,미용업,128.9385854,35.962654,경상북도 영천시 완산중앙9길 22 (완산동),
황실이용원,미용업,128.9299383,35.96196975,"경상북도 영천시 강변로 69, 지하1층 (금노동)",
제일이용소,미용업,128.9396513,35.97233903,경상북도 영천시 시청남길 26 (문외동),
삼보이용소,미용업,128.9455374,35.93350483,경상북도 영천시 영천아이시로 61 (봉동),
동부이용소,미용업,128.9441934,35.9740526,경상북도 영천시 새말1길 11 (야사동),
청 이용소,미용업,128.9555954,35.98646001,"경상북도 영천시 창신길 140-11, 108호 (망정동)",
보보스클럽,미용업,128.9521423,35.98873958,"경상북도 영천시 창신길 31, 2호 (망정동)",
평화이용소,미용업,128.9278598,35.9664327,경상북도 영천시 서문길 97-1 (교촌동),
청통이용원,미용업,128.8234058,35.99097629,"경상북도 영천시 청통면 금송로 968-2, 2층",
머리염색,미용업,128.8733581,35.93166871,"경상북도 영천시 금호읍 금호로 101, 영천금호전통시장 3지구 5",
청춘이발소,미용업,128.9410786,35.97445149,경상북도 영천시 상록1길 46 (야사동),
새경북이용소,미용업,128.8762727,35.93195145,경상북도 영천시 금호읍 금호로 134,
오헤어,미용업,128.9465288,35.97463151,경상북도 영천시 호국로 83 (야사동),
하이버바버샵,미용업,128.9342451,35.97129584,"경상북도 영천시 문외1길 47, 2층 (문외동)",
프린스 이용원,미용업,128.9382489,35.96588764,경상북도 영천시 강남길 48-1 (완산동),
광천온천,미용업,128.9515396,35.97090912,"경상북도 영천시 영화로 326, 광천온천랜드 3층 (조교동)",
명주미용실,미용업,128.9947116,35.87289731,경상북도 영천시 북안면 운북로 1443,
서울미용실,미용업,128.9317996,35.96696592,경상북도 영천시 최무선로 294 (창구동),
숙미용실,미용업,128.9236751,35.96249944,경상북도 영천시 강변로 4 (성내동),
나나미용소,미용업,128.9306935,35.96674305,경상북도 영천시 교창길 5 (과전동),
초원미용실,미용업,128.9366215,35.96442688,경상북도 영천시 시장4길 12 (완산동),
신신미용소,미용업,128.9376857,35.96247039,경상북도 영천시 완산중앙3길 24-16 (완산동),
윤미용실,미용업,128.9346766,35.96307952,경상북도 영천시 역전로 5 (완산동),
영인미용실,미용업,128.7884931,36.04013122,경상북도 영천시 신녕면 장수로 1662,
태양미장원,미용업,128.9384296,35.96248685,경상북도 영천시 완산중앙9길 20-7 (완산동),
귀빈미용실,미용업,128.9446769,35.97382139,경상북도 영천시 호국로 63-1 (야사동),
모모미용실,미용업,128.9382697,35.96690246,경상북도 영천시 완산로 75 (완산동),
선미용소,미용업,128.8719494,35.9314638,경상북도 영천시 금호읍 교대길 3-1,
궁전미용소,미용업,128.9386958,35.96498898,경상북도 영천시 완산로 55 (완산동),
은주미용실,미용업,128.936879,35.96539372,경상북도 영천시 강남길 33 (완산동),
태양미용실,미용업,128.788345,36.04118599,"경상북도 영천시 신녕면 장수로 1674, 5호",
옥머리방,미용업,129.047084,36.00141872,"경상북도 영천시 고경면 호국로 1077 (317-5, -6, -7)",
왕실미용실,미용업,128.9303717,35.96147746,경상북도 영천시 담안4길 50-3 (금노동),
은하미용실,미용업,128.9450314,35.97395576,경상북도 영천시 호국로 67-1 (야사동),
신세계헤어,미용업,128.9382489,35.96588764,경상북도 영천시 강남길 48-1 (완산동),
뷰토피아퀸,미용업,128.9378813,35.96607713,경상북도 영천시 강남길 45-1 (완산동),
강미용실,미용업,128.932101,35.96989903,경상북도 영천시 동문길 31 (문내동),
평인헤어샵,미용업,128.9317936,35.96662298,경상북도 영천시 조양공원길 30-1 (창구동),
삼성미용실,미용업,128.8754853,35.93225391,경상북도 영천시 금호읍 금호시장길 23,
다은미용실,미용업,128.8729287,35.93120495,경상북도 영천시 금호읍 금호로 104,
연미용실,미용업,128.9287543,35.96539911,경상북도 영천시 최무선로 260-1 (성내동),
까사미아헤어샾,미용업,128.9345335,35.97004049,경상북도 영천시 동문길 76 (문외동),
원미용실,미용업,128.9420708,35.97460069,경상북도 영천시 상록2길 39-1 (야사동),
서울미용소,미용업,128.7881631,36.04232489,경상북도 영천시 신녕면 장수로 1688,
국제미용실,미용업,128.8775591,35.93255056,경상북도 영천시 금호읍 금호로 147 (외 1필지),
그린미용실,미용업,128.8962024,35.87479726,경상북도 영천시 대창면 대창시장길 12,
반야헤어아트,미용업,128.9465919,35.97553922,"경상북도 영천시 야사4길 37, 가동 2호 (야사동,동부상가)",
영천미용실,미용업,128.9399412,35.96567214,경상북도 영천시 완산로 60-19 (완산동),
새귀빈 미용실,미용업,128.9425188,35.97397953,"경상북도 영천시 상록2길 23, 102호 (야사동)",
체인지헤어,미용업,128.942131,35.97576237,경상북도 영천시 충효로 123-2 (야사동),
임고미용실,미용업,128.9745913,36.01676169,경상북도 영천시 임고면 포은로 450,
조이헤어,미용업,128.9417034,35.97250362,경상북도 영천시 호국로 33 (야사동),
경미용실,미용업,129.0475014,36.00074401,경상북도 영천시 고경면 호국로 1076-20,
대백미용실,미용업,128.9381433,35.96503558,"경상북도 영천시 시장3길 10-1, 1층 전면우측호 (완산동)",
모아미용실,미용업,128.9223934,35.96362336,경상북도 영천시 장수로 12 (화룡동),
이미지미용실,미용업,128.9356976,35.96409487,경상북도 영천시 시장1길 7-2 (완산동),
희미용실,미용업,128.9489892,35.972621,"경상북도 영천시 미륵4길 7, 109호 (망정동, 황금상가)",
선미용실,미용업,128.9197912,36.10924687,경상북도 영천시 화북면 화북길 82,
경머리방,미용업,128.9409474,35.97459166,경상북도 영천시 상록5길 3 (야사동),
카나리아미용실,미용업,128.9386464,35.96568542,경상북도 영천시 완산로 61 (완산동),
도시인미용실,미용업,128.9419562,35.97389502,경상북도 영천시 상록7길 12 (야사동),
미시헤어플레이스,미용업,128.9257439,35.96455522,"경상북도 영천시 최무선로 231-1, 101호 (성내동, 윤창미가)",
은하수헤어디자인 ,미용업,128.9303616,35.9670617,경상북도 영천시 교창길 16 (창구동),
청심머리방,미용업,128.8773843,35.93265115,경상북도 영천시 금호읍 금호시장길 5,
늘봄미용실,미용업,128.9795969,35.98085825,경상북도 영천시 고경면 창방우길 2,
임포미용실,미용업,129.0091687,35.91829853,"경상북도 영천시 북안면 운북로 2028 (323-4,324-1,573-8)",
수진미용실,미용업,128.9395558,35.96196765,"경상북도 영천시 완산로 20, 101동 104호 (완산동, 윤창타운)",
정성희헤어메이컬,미용업,128.9494065,35.97638404,"경상북도 영천시 망정2길 7-9, 제108동 제105호 (망정동, 청호아파트)",
스타헤어,미용업,128.9545402,35.98632926,경상북도 영천시 언하공단로 84 (망정동),
백합헤어샵,미용업,128.9468618,35.9743812,경상북도 영천시 호국로 86 (야사동),
롯데미용실,미용업,128.9405499,35.97514613,경상북도 영천시 모란1길 4-1 (야사동),
금성미용실,미용업,128.9290884,35.96147098,경상북도 영천시 강변로 59-1 (금노동),
다솔머리방,미용업,128.7879723,36.04169724,경상북도 영천시 신녕면 장수로 1681,
영동미용실,미용업,128.941519,35.97200281,경상북도 영천시 호국로 30 (야사동),
소문난미용실,미용업,128.8555719,36.01828639,경상북도 영천시 화산면 장수로 927,
국제헤어아트,미용업,128.9350847,35.96408467,"경상북도 영천시 강남길 13 (완산동,1074-23)",
은광스킨헤어샵,미용업,128.9414157,35.9753573,경상북도 영천시 충효로 115-1 (야사동),
홀가분,미용업,128.9449924,35.97652806,경상북도 영천시 충효로 152 (야사동),
프린스미용실,미용업,128.9386081,35.96149089,경상북도 영천시 완산중앙7길 23-3 (완산동),
백천미용실,미용업,128.9381613,35.9652046,경상북도 영천시 시장5길 22 (완산동),
그린미용실,미용업,128.7885465,36.03853278,경상북도 영천시 신녕면 장수로 1645,
송화미용실,미용업,128.7871512,36.04212264,경상북도 영천시 신녕면 본관시장길 23,
헤어순,미용업,128.9501581,35.97171633,"경상북도 영천시 동부로 14, 상가1동 105호 (망정동, 주공아파트)",
가위손미용실,미용업,128.9374883,35.96202881,경상북도 영천시 완산중앙3길 20 (완산동),
영선미용실,미용업,128.8225021,35.99209234,경상북도 영천시 청통면 금송로 982,
보그미용실,미용업,128.9564552,35.98719911,"경상북도 영천시 창신길 132, 2층 (망정동)",
미즈헤어뷰티샵,미용업,128.9359162,35.96382733,경상북도 영천시 시장1길 6 (완산동),
푸른미용실,미용업,128.9273665,35.96618544,경상북도 영천시 서문길 87 (교촌동),
다인헤어클럽,미용업,128.9385426,35.97399133,경상북도 영천시 충효로 87 (문외동),
헤어플러스미용실,미용업,128.9413699,35.97491912,경상북도 영천시 충효로 114-1 (야사동),
한일자미용실,미용업,128.8737009,35.93131067,경상북도 영천시 금호읍 금호로 110,
머리하는집,미용업,128.9385621,35.9741979,경상북도 영천시 무궁화길 74-1 (문외동),
영신미용실,미용업,128.9468555,35.97140991,경상북도 영천시 문화새길 62-33 (야사동),
선미용실,미용업,128.9003723,35.94294406,경상북도 영천시 금호읍 원제2길 16-8 (윤성상가 208호),
송화미용실,미용업,128.9385854,35.962654,경상북도 영천시 완산중앙9길 22 (완산동),
송죽미용실,미용업,128.9363653,35.96440659,경상북도 영천시 시장4길 10 (완산동),
한일자미용실,미용업,128.9391999,35.97428211,경상북도 영천시 충효로 93 (문외동),
찌헤어라인,미용업,128.9003723,35.94294406,"경상북도 영천시 금호읍 원제2길 16-8, 110호 (윤성상가)",
가위소리미용실,미용업,128.9356983,35.96383463,경상북도 영천시 시장1길 5 (완산동),
아름다운사람들,미용업,129.009006,35.91841262,경상북도 영천시 북안면 운북로 2030,
필미용실,미용업,128.9435228,35.97303669,경상북도 영천시 호국로 52 (야사동),
꽃샘헤어라인,미용업,128.9209802,35.9639994,경상북도 영천시 장수로 25 (화룡동),
보민미용실,미용업,128.9467621,35.97366195,"경상북도 영천시 문화새길 25, C동 7호 (야사동, 문화아파트상가)",
대미안,미용업,128.9482229,35.97358778,"경상북도 영천시 동부로 39, D동 (야사동)",
헤어루체 뷰티살롱,미용업,128.9331837,35.97337353,"경상북도 영천시 중앙동3길 10, 1층 (문외동)",
헤어세븐,미용업,128.9311325,35.96208389,"경상북도 영천시 담안5길 69, 1층 (금노동)",
헤어아트,미용업,128.95512,35.98890075,"경상북도 영천시 청솔길 23-6, 107호 (망정동, 청솔상가)",
영헤어창조미용실,미용업,128.9472871,35.97247924,"경상북도 영천시 문화새길 39, 14동 3호 (야사동)",
씨앤케이,미용업,128.9546069,35.98674681,경상북도 영천시 창신1길 5 (망정동),
신세기 ,미용업,128.936879,35.96539372,경상북도 영천시 강남길 33 (완산동),
루아헤어&스토어,미용업,128.9391999,35.97428211,경상북도 영천시 충효로 93 (문외동),
둥지미용실,미용업,128.9482229,35.97358778,"경상북도 영천시 동부로 39, A동 101호 (야사동)",
바람난머리 ,미용업,128.7883008,36.04149554,경상북도 영천시 신녕면 장수로 1678,
조옥수헤어칼라,미용업,128.9358904,35.96358932,"경상북도 영천시 시장로 51 (완산동,(2층))",
김미소헤어#,미용업,128.9371165,35.9636144,경상북도 영천시 시장로 61-2 (완산동),
지아헤어창조,미용업,128.9316063,35.97040728,경상북도 영천시 충효로 12 (문내동),
브르장머리 미용실,미용업,128.9439563,35.97642736,경상북도 영천시 충효로 143 (야사동),
니유헤어,미용업,128.9480313,35.97412883,경상북도 영천시 동부로 43 (야사동),
헤어코코,미용업,128.9383368,35.96630757,경상북도 영천시 강남길 51 (완산동),
헤어스케치,미용업,128.9408671,35.97518866,경상북도 영천시 충효로 111 (야사동),
각시미용실,미용업,128.9315663,35.96785724,경상북도 영천시 옛군청1길 15 (창구동),
찰리가머리하는곳,미용업,128.9521787,35.98485671,경상북도 영천시 우로들길 109 (망정동),
진 헤어,미용업,128.9209625,35.96520281,경상북도 영천시 상아탑길 9 (화룡동),
김샘헤어존,미용업,128.9442375,35.97657382,"경상북도 영천시 충효로 145 (야사동,주공아파트상가동 105)",
수미용실,미용업,128.8732194,35.93127908,경상북도 영천시 금호읍 금호로 106,
청호헤어켈러리,미용업,128.9494065,35.97638404,"경상북도 영천시 망정2길 7-9, 108동 101호 (망정동, 청호아파트)",
가위사랑미용실,미용업,128.9301996,35.96956507,"경상북도 영천시 천문로 359, 2층 (창구동)",
네오헤어,미용업,128.9464866,35.97455299,경상북도 영천시 호국로 81-1 (야사동),
미스터 블루,미용업,128.948635,35.97231453,경상북도 영천시 동부로 23 (야사동),
글라라미용실,미용업,128.9311167,35.96148214,경상북도 영천시 담안5길 55 (금노동),
핑크샾,미용업,128.95259,35.98993999,"경상북도 영천시 창신1길 35 (망정동, 아이존빌스타110동106호)",
에스헤어스토리,미용업,128.9462881,35.9741364,경상북도 영천시 호국로 80 (야사동),
헤어웨이브,미용업,128.94009,35.97609573,"경상북도 영천시 모란1길 16, 상가동 2호 (야사동, 청구아파트)",
맨투맨헤어,미용업,128.95259,35.98993999,"경상북도 영천시 창신1길 35, 110동 1층 111호 (망정동, 아이존빌스타)",
향스(향's)헤어샵,미용업,128.9543654,35.98697421,"경상북도 영천시 창신1길 11, A동 106호 (망정동, 창신타운상가)",
단비헤어,미용업,128.9196991,36.10914338,경상북도 영천시 화북면 화북길 84,
위드유헤어,미용업,128.9352984,35.96419719,경상북도 영천시 강남길 15 (완산동),
늘해랑,미용업,128.940347,35.97584612,경상북도 영천시 모란4길 8 (야사동),
선미용실,미용업,128.9421872,35.97310257,"경상북도 영천시 상록6길 6 (야사동, (298-2, 299-20))",
전헤어명가,미용업,128.9357186,35.973764,"경상북도 영천시 청산길 25, 2층 (문외동)",
컬리헤어모드,미용업,128.9483184,35.97325949,"경상북도 영천시 동부로 33, 2층 (야사동)",
화장을고치고,미용업,128.9327581,35.97351258,경상북도 영천시 중앙동3길 15 (문외동),
조은미용실,미용업,128.9381613,35.9652046,"경상북도 영천시 시장5길 22, 성원빌딩 (완산동)",
윌미용실,미용업,128.9444362,35.96353518,"경상북도 영천시 시장로 128, 드림스퀘어 103호 (완산동)",
다미헤어갤러리,미용업,128.9209958,35.964435,경상북도 영천시 장수로 28-1 (화룡동),
바이수,미용업,128.9517019,35.98141228,"경상북도 영천시 망정1길 174, 정암빌딩 106호 (망정동)",
토마토헤어,미용업,128.9432852,35.976198,경상북도 영천시 충효로 135 (야사동),
오페라미용실,미용업,128.9392849,35.96466084,경상북도 영천시 완산2길 6 (완산동),
헤어트렌드,미용업,128.9526245,35.98347352,"경상북도 영천시 망정로 80, 102호 (망정동, 영천망정휴먼시아5단지상가)",
반헤어,미용업,128.9361923,35.96290278,경상북도 영천시 완산중앙2길 21 (완산동),
선헤어샵,미용업,128.9410948,35.96712449,경상북도 영천시 완산6길 51 (완산동),
민서 헤어,미용업,128.9380624,35.96365941,"경상북도 영천시 시장로 69 (B-2-3, B-2-4) (완산동)",
바비네일,미용업,128.9306004,35.96989715,경상북도 영천시 천문로 362-1 (창구동),
준호미용실,미용업,128.9467621,35.97366195,경상북도 영천시 문화새길 25 (야사동),
댕기머리,미용업,128.9302508,35.96734741,"경상북도 영천시 백신애길 27, 1층 (창구동)",
간지미용실,미용업,128.9365143,35.96482067,경상북도 영천시 강남길 28-1 (완산동),
미인,미용업,128.9411583,35.9753156,"경상북도 영천시 충효로 113-2, 1층 (야사동)",
노랑머리,미용업,128.9371598,35.96301133,경상북도 영천시 완산중앙3길 39-1 (완산동),
멋쟁이미용실,미용업,128.9832582,36.04206308,경상북도 영천시 임고면 포은로 763,
가이미장,미용업,128.9374288,35.96516958,"경상북도 영천시 시장2길 38, 102동 108호 (완산동, 한가람타운)",
모던헤어,미용업,128.95259,35.98993999,"경상북도 영천시 창신1길 35, 108호 (망정동, 아이존빌스타)",
뿌염뿌염,미용업,128.9362093,35.97346764,경상북도 영천시 삼산길 34 (문외동),
황실미용실,미용업,128.9382209,35.96331714,경상북도 영천시 시장로 72 (완산동),
환 헤어샾,미용업,128.9375504,35.96192175,경상북도 영천시 완산중앙3길 16 (완산동),
압구정헤어,미용업,128.9426096,35.97297616,경상북도 영천시 호국로 43 (야사동),
그남자헤어,미용업,128.9357985,35.97350482,경상북도 영천시 청산길 24 (문외동),
나드리헤어샵,미용업,128.9374288,35.96516958,"경상북도 영천시 시장2길 38, 103호 (완산동, 한가람타운102동 상가동)",
헤어드레서,미용업,128.9403916,35.96681833,"경상북도 영천시 완산6길 29, 103호 (완산동, 궁전맨션상가)",
수미 미장원,미용업,128.9414764,35.97392243,경상북도 영천시 상록4길 41 (야사동),
써니미장원,미용업,128.9422931,35.97541707,경상북도 영천시 충효로 124 (야사동),
헤어제이(J),미용업,128.9326088,35.96998303,경상북도 영천시 조양길 47 (문내동),
이가미장,미용업,128.9441437,35.97543034,"경상북도 영천시 새말1길 42, 2층 (야사동, 야사동웰빙타운)",
보스헤어,미용업,128.9469405,35.97409374,경상북도 영천시 야사시장길 11 (야사동),
김민주뷰티,미용업,128.9426686,35.93371206,경상북도 영천시 봉동2길 35 (전면 좌측호) 101호 (봉동),
천연염색 헤어샵,미용업,128.9555954,35.98646001,"경상북도 영천시 창신길 140-11, 107호 (망정동)",
가꿈헤어,미용업,128.9517019,35.98141228,"경상북도 영천시 망정1길 174, 103호 (망정동)",
원헤어샵,미용업,128.8991551,35.94309137,"경상북도 영천시 금호읍 원제2길 16-5, 105동 112호",
서영헤어,미용업,128.9374601,35.96265993,경상북도 영천시 완산중앙9길 6 (완산동),
보미헤어,미용업,128.9418913,35.97566615,"경상북도 영천시 충효로 123, 1층 (야사동)",
HAIR BIN(헤어빈),미용업,128.9518245,35.98183532,경상북도 영천시 망정1길 176-12 (망정동),
사랑모아 헤어샵,미용업,128.9480132,35.97353126,"경상북도 영천시 야사시장길 43, C동 105호 (야사동)",
9LENALUS(구레나룻),미용업,128.9551066,35.99083043,"경상북도 영천시 창신1길 42 (망정동, 인터불고코아루아파트)",
나미머리,미용업,128.9552195,35.98670556,"경상북도 영천시 창신길 140-14, 창신타운 103호 (망정동)",
꾸밈헤어,미용업,128.9551066,35.99083043,"경상북도 영천시 창신1길 42, 301동 6호 (망정동, 인터불고코아루아파트)",
늘봄헤어,미용업,128.8764446,35.93223188,경상북도 영천시 금호읍 금호로 137,
헤어주연,미용업,128.9552195,35.98670556,"경상북도 영천시 창신길 140-14, 창신타운 108호 (망정동)",
주헤어샵(Ju hair shop),미용업,128.9430985,35.97323198,경상북도 영천시 호국로 49 (야사동),
원헤어,미용업,128.8703606,35.9308852,"경상북도 영천시 금호읍 금호로 79, B동",
마주헤어,미용업,128.9348266,35.97236848,"경상북도 영천시 중앙동1길 8, 2층 (문외동)",
샾(#)헤어,미용업,128.8722984,35.93171273,경상북도 영천시 금호읍 금호시장길 54,
박준뷰티랩 영천점,미용업,128.9346206,35.9726168,"경상북도 영천시 중앙동1길 12, 2층 (문외동)",
태자미용실,미용업,128.8753745,35.93200613,경상북도 영천시 금호읍 금호로 125-1,
영헤어,미용업,128.9464261,35.97420084,경상북도 영천시 호국로 82 (야사동),
엘리시아헤어,미용업,128.9290668,35.97379529,"경상북도 영천시 중앙동1길 157, 101호 (문내동)",
오땡큐 머리염색 전문점,미용업,128.9403916,35.96681833,"경상북도 영천시 완산6길 29, 상가동 104호 (완산동, 궁전맨션)",
선이미용실,미용업,128.8719911,35.93102026,경상북도 영천시 금호읍 금호로 94,
오늘도 예쁨,미용업,128.9480533,35.97138317,"경상북도 영천시 문화새길 77, 우방타운 상가 103호 (야사동)",
"헤어,미쁘다",미용업,128.9413647,35.96164121,"경상북도 영천시 완산8길 3, 이편한스퀘어 1층 105호 (완산동)",
준헤어,미용업,128.8953878,35.87547008,"경상북도 영천시 대창면 금박로 1055, 1층 전면우측호",
나다움헤어,미용업,128.9375272,35.96382881,"경상북도 영천시 시장2길 10, 영천공설시장 제4지구 5,9,10호  (완산동)",
화리헤어,미용업,128.9305341,35.969228,경상북도 영천시 천문로 354-1 (창구동),
헤이드헤어,미용업,128.9460522,35.96728277,"경상북도 영천시 완산5길 111, 104호 (완산동, 영천완산미소지움2차)",
이루다헤어샵(HAIRSHOP),미용업,128.9416459,35.96744275,"경상북도 영천시 완산5길 25, 1층 108호 (완산동, 완산미소지움)",
덕기미장원,미용업,128.9420836,35.96215193,"경상북도 영천시 완산9길 15, 102호 (완산동, e편한세상 센텀스타시티 영천 1블럭)",
미용실휴,미용업,128.9454599,35.97621357,"경상북도 영천시 야사4길 14, 1층 (야사동)",
비비살롱,미용업,128.9566016,35.98648343,"경상북도 영천시 언하공단로 64, 103호 (망정동, 위너타운2차)",
헤어 스튜디오 디 밀라노 옐로우 영천야사점,미용업,128.9461002,35.97438184,"경상북도 영천시 호국로 79, 1층 전면좌측호 (야사동)",
더끌림헤어,미용업,128.933185,35.97387695,"경상북도 영천시 중앙동1길 51, 1층 전면 좌측호 (문외동)",
"7,000원 헤어컷",미용업,128.9003723,35.94294406,"경상북도 영천시 금호읍 원제2길 16-8, 상가(105)동 109호 (윤성모닝타운)",
마네뮤즈(ManeMuse),미용업,128.9396255,35.97115066,"경상북도 영천시 호국로 10, 2층 전면우측호 (문외동)",
본 헤어,미용업,128.9396513,35.97233903,"경상북도 영천시 시청남길 26, 1층 전면죄측 일부호 (문외동)",
조이미용실,미용업,128.8924632,36.0613626,"경상북도 영천시 화남면 천문로 1612-2, 1층 전면우측호",
라움헤어,미용업,128.9432035,35.97291509,경상북도 영천시 호국로 48-1 (야사동),
윤호(남성컷트 전문),미용업,128.9426441,35.97347804,"경상북도 영천시 상록2길 13, 108호, 112호 (야사동)",
로운헤어,미용업,128.935727,35.97155361,경상북도 영천시 문외4길 24 (문외동),
김안헤어,미용업,128.9438968,35.97602815,경상북도 영천시 상록5길 61-4 (야사동),
정헤어,미용업,128.9479541,35.97467983,경상북도 영천시 동부로 49 (야사동),
메리(merry)골드헤어,미용업,128.9258259,35.96525927,경상북도 영천시 서문길 51 (교촌동),
루이헤어,미용업,128.9376132,35.96137099,경상북도 영천시 완산중앙7길 5 (완산동),
르아브헤어스튜디오,미용업,128.9331983,35.973059,"경상북도 영천시 중앙동4길 22, 1층 (문외동)",
웰빙플러스피부관리실,미용업,128.9300793,35.96972902,"경상북도 영천시 교촌길 4-1, 2층 (창구동)",
피부관리샵,미용업,128.9359816,35.96416337,경상북도 영천시 시장1길 10-32 (완산동),
예쁜얼굴꾸미기,미용업,128.9353124,35.97360827,"경상북도 영천시 청산길 17, 103동 나-12호 (문외동)",
이영희뷰티라인,미용업,128.9329147,35.96797023,"경상북도 영천시 최무선로 309, 2층 (문내동)",
엄샵,미용업,128.9345947,35.96166687,경상북도 영천시 구읍3길 30 (완산동),
피부관리실 숲,미용업,128.9329389,35.97381883,경상북도 영천시 중앙동3길 20 (문외동),
린 에스테틱,미용업,128.9335191,35.97408602,"경상북도 영천시 중앙동1길 52, 2층 (문외동)",
美;미를 더하다,미용업,128.9418911,35.97481301,경상북도 영천시 상록5길 20 (야사동),
피부를가꾸다,미용업,128.9518154,35.9884853,경상북도 영천시 망정로 136 (망정동),
고은빛스킨케어,미용업,128.9459046,35.97392348,경상북도 영천시 호국로 74-1 (야사동),
알로에스킨케어,미용업,128.9356983,35.96383463,경상북도 영천시 시장1길 5 (완산동),
미소힐링하우스,미용업,128.9475081,35.97333771,"경상북도 영천시 야사시장길 35, 2층 (야사동)",
SKIP.봄,미용업,128.9342879,35.97376825,"경상북도 영천시 중앙동2길 40, 봄의왈츠 1층 (문외동)",
바이(by)하루,미용업,128.9306121,35.97041256,"경상북도 영천시 충효로 7, 영천문내주공아파트 (문내동)",
미(美):정뷰티,미용업,128.9422045,35.97242198,경상북도 영천시 호국로 38 (야사동),
뷰티어스(Beauteous),미용업,128.935917,35.97130753,경상북도 영천시 문외2길 33 (문외동),
채움뷰티샵(beautyshop),미용업,128.9469939,35.97431354,경상북도 영천시 야사시장길 13-11 (야사동),
라온제나 피부샵,미용업,128.9362093,35.97346764,경상북도 영천시 삼산길 34 (문외동),
살롱드제이드,미용업,128.8651428,35.92948302,경상북도 영천시 금호읍 금호로 30,
탑홀스스크린승마 피부,미용업,128.9294534,35.98461741,경상북도 영천시 오미길 61 (오미동),
제이엔엠(J&M)뷰티,미용업,128.935237,35.97241331,"경상북도 영천시 충효로 51, 2층 (문외동)",
뷰티 먼슬리,미용업,128.9520715,35.98922478,경상북도 영천시 창신길 37 (망정동),
퓨어스킨케어,미용업,128.9468555,35.97140991,경상북도 영천시 문화새길 62-33 (야사동),
데이바이뷰티,미용업,128.9351632,35.97255831,"경상북도 영천시 무궁화길 4, 다빈치 1층 (문외동)",
마노뷰티,미용업,128.9290668,35.97379529,"경상북도 영천시 중앙동1길 157, 103호 (문내동)",
더하리에스테틱,미용업,128.9491329,35.9825813,"경상북도 영천시 망정1길 171, 204동 203호 (야사동, 한신THE휴영천퍼스트)",
라온뷰티,미용업,128.9455115,35.97373748,"경상북도 영천시 호국로 70, D호 (야사동)",
티나는 아이(티나는 EYE),미용업,128.9461002,35.97438184,"경상북도 영천시 호국로 79, 전면 중간호 (야사동)",
예그리나뷰티,미용업,128.9479113,35.97321718,"경상북도 영천시 야사시장길 42, 105(동)호 (야사동)",
아르테윤 스킨,미용업,128.9268448,35.96441671,"경상북도 영천시 최무선로 240, 2층 전면 우측호 (성내동)",
손길 S line,미용업,128.9415985,35.97149575,"경상북도 영천시 보목2길 7, 2층 (야사동)",
한결에스테틱,미용업,128.9425656,35.97367187,"경상북도 영천시 상록8길 4, 1층 (야사동)",
비단결,미용업,128.9387617,35.96237029,"경상북도 영천시 완산로 25, 2층 (완산동)",
스킨갤러리,미용업,128.9287233,35.96697154,경상북도 영천시 서문길 115 (교촌동),
강남스타일,미용업,128.9370607,35.96327028,"경상북도 영천시 시장로 62-2, 2층 (완산동)",
라라앤헤어,미용업,128.9515335,35.98024975,경상북도 영천시 망정1길 146 (망정동),
EVER LUNA,미용업,128.9376178,35.9732044,경상북도 영천시 충효로 74 (문외동),
아담 앤 이브,미용업,128.9353117,35.96400153,"경상북도 영천시 강남길 14-1, 2층 (완산동)",
더에이치헤어,미용업,128.956663,35.98838297,경상북도 영천시 창신길 121 (망정동),
엠제이기노뷰티에스테틱,미용업,128.9407472,35.97166118,"경상북도 영천시 호국로 22-1, 1층 (야사동)",
지앤미에스테틱,미용업,128.9474428,35.97493854,"경상북도 영천시 야사2길 14, 2층 (야사동)",
무드아이,미용업,128.9334514,35.97316594,경상북도 영천시 중앙동4길 20 (문외동),
화뷰티,미용업,128.9357985,35.97350482,"경상북도 영천시 청산길 24, 좌측 3번째 (문외동)",
라미헤어,미용업,128.9494818,35.97123912,경상북도 영천시 동부로 9 (야사동),
재은네일뷰티,미용업,128.936018,35.97372763,경상북도 영천시 삼산길 38 (문외동),
미아트,미용업,128.9003723,35.94294406,경상북도 영천시 금호읍 원제2길 16-8 (윤성모닝타운),
헤어봄봄,미용업,128.9479113,35.97321718,"경상북도 영천시 야사시장길 42, 1층 115호 (야사동)",
헤어바이도도(Hair by DoDo),미용업,128.9533196,35.9857338,경상북도 영천시 언하공단로 95 (망정동),
깍새 아저씨,미용업,128.8910547,36.05991474,경상북도 영천시 화남면 신화로 1217,
오후세시,미용업,128.9437482,35.96347046,"경상북도 영천시 시장로 120, 1층 115호 (완산동)",
뷰티아카이브,미용업,128.9324401,35.97490545,"경상북도 영천시 중앙동1길 77, 2층 (문외동)",
김경자미용실,미용업,128.9375998,35.96586686,"경상북도 영천시 강남길 43, 1층 (완산동)",
헤어앤젤,미용업,128.9371763,35.96288302,"경상북도 영천시 완산중앙3길 35-4, 1층 전면 좌측호 (완산동)",
제이샵,미용업,128.9392885,35.97102329,경상북도 영천시 호국로 6-1 (문외동),
네일하트,미용업,128.9491329,35.9825813,"경상북도 영천시 망정1길 171, 205호 (야사동, 한신 더휴 퍼스트상가 )",
네일모레,미용업,128.9233294,35.96325694,경상북도 영천시 장수로 2 (교촌동),
네일맑음,미용업,128.940735,35.97202136,"경상북도 영천시 호국로 23, 영진궁전빌라 105동 (문외동)",
네일하우스 입구,미용업,128.9405499,35.97514613,경상북도 영천시 모란1길 4-1 (야사동),
달콤네일,미용업,128.9400063,35.9653686,"경상북도 영천시 완산3길 22, 1층 (완산동)",
"예쁘다,네일",미용업,128.9380658,35.96634006,"경상북도 영천시 강남길 49, 1층 (완산동)",
시은뷰티,미용업,128.9480132,35.97353126,"경상북도 영천시 야사시장길 43, 1동 107호 (야사동)",
미르네일,미용업,128.9460378,35.97400476,경상북도 영천시 호국로 76-1 (야사동),
미애가하는 뷰티샵,미용업,128.9379101,35.96115516,경상북도 영천시 완산중앙7길 12 (완산동),
뷰티온(BEAUTYON),미용업,128.9416459,35.96744275,"경상북도 영천시 완산5길 25, 상가동 101호 (완산동, 완산미소지움)",
"바를, 네일",미용업,128.9466164,35.97423758,경상북도 영천시 야사시장길 6 (야사동),
제이샵 Nail,미용업,128.9409474,35.97459166,"경상북도 영천시 상록5길 3, 1층 전면좌측호 (야사동)",
쏨네일,미용업,128.9362743,35.97384784,경상북도 영천시 청산길 36 (문외동),
윤네일,미용업,128.9399548,35.96126998,경상북도 영천시 약전길 18 (완산동),
끌레느 뷰티,미용업,128.9505184,35.97550139,"경상북도 영천시 호국로 120, 대영빌딩 1층 101(전면좌측)호 (망정동)",
네일 래피(Nail Lappy),미용업,128.9362093,35.97346764,경상북도 영천시 삼산길 34 (문외동),
하이비뷰티&풋,미용업,128.9545476,35.98590924,"경상북도 영천시 언하공단로 83, 106호 (망정동)",
아보하뷰티스튜디오,미용업,128.9314936,35.97549901,"경상북도 영천시 중앙동1길 102-9, 대동다숲아파트 상가 112동 104호 (문내동)",
네일 더 끌림,미용업,128.953697,35.97917334,"경상북도 영천시 망정로 30, 1층 (망정동)",
올데이(all day),미용업,128.9480313,35.97412883,"경상북도 영천시 동부로 43, 2층 (야사동)",
손톱공주,미용업,128.9422045,35.97242198,경상북도 영천시 호국로 38 (야사동),
네일더예쁨,미용업,128.9555954,35.98646001,경상북도 영천시 창신길 140-11 (망정동),
동그라미네일,미용업,128.9438959,35.97317437,경상북도 영천시 호국로 54-1 (야사동),
리브네일,미용업,128.940735,35.97202136,"경상북도 영천시 호국로 23, 영진궁전빌라 105동 106호 (문외동)",
도담뷰티,미용업,128.9476971,35.97556102,"경상북도 영천시 동부로 61, 2층 (야사동)",
마주뷰티,미용업,128.9348266,35.97236848,경상북도 영천시 중앙동1길 8 (문외동),
시언토탈뷰티샵,미용업,128.9317904,35.97477139,"경상북도 영천시 중앙동3길 50, 2층 (문내동)",
현정이네,미용업,128.9545402,35.98632926,경상북도 영천시 언하공단로 84 (망정동),
아이코코뷰티,미용업,128.9437482,35.96347046,"경상북도 영천시 시장로 120, 완산골드타워 112호 (완산동)",
이쁘다SD,미용업,128.9393256,35.96617994,"경상북도 영천시 완산로 68, 건물 내 우측 1층 (완산동)",
리프(leaf),미용업,128.9410868,35.9748482,경상북도 영천시 충효로 112-1 (야사동),
다온,미용업,128.9542133,35.98631539,"경상북도 영천시 창신1길 5-5 (망정동, 창신상가 202-2)",
리안헤어,미용업,128.8711353,35.9336092,"경상북도 영천시 금호읍 교대길 30, 2층",
지민헤어,미용업,128.940735,35.97202136,"경상북도 영천시 호국로 23, 영진궁전빌라 (문외동)",
묭실,미용업,128.9388858,35.96124545,경상북도 영천시 완산로 13 (완산동),
금호윤성지역아동센터,지역아동센터,128.9011758,35.94314552,영천시 금호읍 야수골길 9-2,
영천시야사지역아동센터,지역아동센터,128.9441374,35.97682315,영천시 충효로 147 (야사동),
큰사랑지역아동센터,지역아동센터,128.9500588,35.97608825,영천시 망정2길 7-4 화성빌딩2층(망정동),
서문지역아동센터,지역아동센터,128.9245565,35.96635535,영천시 운동장로 40 (교촌동),
완산지역아동센터,지역아동센터,128.9386307,35.96592959,영천시 완산로 63-1 (완산동) 윌로펌프 2층,
금호꿈동산지역아동센터,지역아동센터,128.8712948,35.93358914,영천시 금호읍 교대용대길6 2층,
중앙지역아동센터,지역아동센터,128.9304389,35.97268525,영천시 충효로9 (관리사무실 옆),
청통화랑어린이집,"어린이집,유치원",128.8242369,35.99412387,경북 영천시 청통면 신학리 595-1,http://place.map.kakao.com/15845316
화산초등학교 병설유치원,"어린이집,유치원",128.8549384,36.02044041,경북 영천시 화산면 유성리 607-1,http://place.map.kakao.com/9633882
금호어린이집,"어린이집,유치원",128.8723009,35.93246952,경북 영천시 금호읍 교대리 214-1,http://place.map.kakao.com/24011245
금호초등학교 병설유치원,"어린이집,유치원",128.8805287,35.93462604,경북 영천시 금호읍 교대리 130-2,http://place.map.kakao.com/26627457
대창초등학교 병설유치원,"어린이집,유치원",128.905829,35.86962225,경북 영천시 대창면 조곡리 261,http://place.map.kakao.com/23537408
별사랑어린이집,"어린이집,유치원",128.9165369,36.10545596,경북 영천시 화북면 자천리 1409,http://place.map.kakao.com/901754007
한성유치원,"어린이집,유치원",128.9178037,35.96533976,경북 영천시 화룡동 276-3,http://place.map.kakao.com/10933084
영천중앙초등학교 병설유치원 (휴원),"어린이집,유치원",128.9175818,36.03895042,경북 영천시 화남면 사천리 1238,http://place.map.kakao.com/23539563
샛별유치원,"어린이집,유치원",128.9265049,35.96397487,경북 영천시 성내동 168,http://place.map.kakao.com/11140940
포도원어린이집,"어린이집,유치원",128.9308624,35.95903358,경북 영천시 금노동 604-36,http://place.map.kakao.com/9533128
영천어린이집,"어린이집,유치원",128.9281797,35.97340929,경북 영천시 창구동 184-48,http://place.map.kakao.com/10641746
영천초등학교 병설유치원,"어린이집,유치원",128.9328203,35.96160167,경북 영천시 금노동 504-1,http://place.map.kakao.com/9304012
영천중앙유치원,"어린이집,유치원",128.9317772,35.97110232,경북 영천시 문내동 24-1,http://place.map.kakao.com/11189557
시립문외센트럴어린이집,"어린이집,유치원",128.9332449,35.97174187,경북 영천시 문외동 384,http://place.map.kakao.com/1497751709
서라벌예술어린이집,"어린이집,유치원",128.9336619,35.9742041,경북 영천시 문외동 139-7,http://place.map.kakao.com/23864534
스타어린이집,"어린이집,유치원",128.9311366,35.9739276,경북 영천시 문내동 234-13,http://place.map.kakao.com/19193607
수호천사어린이집,"어린이집,유치원",128.9349469,35.97448434,경북 영천시 문외동 201,http://place.map.kakao.com/1048129633
영천별빛직장어린이집,"어린이집,유치원",128.9375869,35.97278554,경북 영천시 문외동 15,http://place.map.kakao.com/1454276482
또래어린이집,"어린이집,유치원",128.9404761,35.97868594,경북 영천시 야사동 344-2,http://place.map.kakao.com/7849763
가와인어린이집,"어린이집,유치원",128.9425554,35.93297302,경북 영천시 봉동 805,http://place.map.kakao.com/1331524877
이편한2차어린이집,"어린이집,유치원",128.9446111,35.96196708,경북 영천시 완산동 1437,http://place.map.kakao.com/1940771530
이편한1차어린이집,"어린이집,유치원",128.9436878,35.96178651,경북 영천시 완산동 1436,http://place.map.kakao.com/2113131611
미소지움어린이집,"어린이집,유치원",128.9427015,35.9675811,경북 영천시 완산동 1460,http://place.map.kakao.com/2016970643
초롱어린이집,"어린이집,유치원",128.944388,35.9718501,경북 영천시 야사동 242-5,http://place.map.kakao.com/10839696
미소어린이집,"어린이집,유치원",128.9460538,35.96728167,경북 영천시 완산동 1470,http://place.map.kakao.com/1896949335
문화유치원,"어린이집,유치원",128.9438896,35.97087421,경북 영천시 야사동 233-1,http://place.map.kakao.com/8340352
사랑가득한어린이집,"어린이집,유치원",128.9448075,35.97160181,경북 영천시 야사동 232,http://place.map.kakao.com/8385288
참빛어린이집,"어린이집,유치원",128.9439562,35.97829078,경북 영천시 야사동 120,http://place.map.kakao.com/9422917
사회복지법인해인어린이집,"어린이집,유치원",128.9455713,35.97923415,경북 영천시 야사동 460,http://place.map.kakao.com/21517241
파란나라어린이집,"어린이집,유치원",128.9471302,35.97572349,경북 영천시 야사동 130-1,http://place.map.kakao.com/15486863
새싹어린이집,"어린이집,유치원",128.9509565,35.96219565,경북 영천시 완산동 484-2,http://place.map.kakao.com/9084213
햇살어린이집,"어린이집,유치원",128.9481093,35.97117699,경북 영천시 야사동 204-2,http://place.map.kakao.com/26094644
앙팡어린이집,"어린이집,유치원",128.9501499,35.97225486,경북 영천시 망정동 116,http://place.map.kakao.com/18281832
예일어린이집,"어린이집,유치원",128.9501968,35.97222076,경북 영천시 망정동 116,http://place.map.kakao.com/14694295
튼튼어린이집,"어린이집,유치원",128.95069,35.97212894,경북 영천시 망정동 116,http://place.map.kakao.com/18867041
아름어린이집,"어린이집,유치원",128.9526431,35.97658,경북 영천시 망정동 207-4,http://place.map.kakao.com/21642686
포은초등학교 병설유치원,"어린이집,유치원",128.9504449,35.98032279,경북 영천시 야사동 34-1,http://place.map.kakao.com/8487046
동부어린이집,"어린이집,유치원",128.952637,35.98271912,경북 영천시 망정동 378-1,http://place.map.kakao.com/26086636
베이비하우스어린이집,"어린이집,유치원",128.9525219,35.98632618,경북 영천시 망정동 519-2,http://place.map.kakao.com/27370865
베이하우스어린이집,"어린이집,유치원",128.9525376,35.98628988,경북 영천시 망정동 519-2,http://place.map.kakao.com/1406406316
리라어린이집,"어린이집,유치원",128.9520151,35.98951702,경북 영천시 망정동 518-1,http://place.map.kakao.com/8964834
꼭지어린이집,"어린이집,유치원",128.9534855,35.98880646,경북 영천시 망정동 468,http://place.map.kakao.com/3818796
밤비니어린이집,"어린이집,유치원",128.9532934,35.99005307,경북 영천시 망정동 468,http://place.map.kakao.com/27372307
교동어린이집,"어린이집,유치원",128.9520108,35.98952069,경북 영천시 망정동 518-1,http://place.map.kakao.com/24039044
청삼어린이집,"어린이집,유치원",128.956024,35.98671785,경북 영천시 망정동 462-2,http://place.map.kakao.com/26548123
코아루어린이집,"어린이집,유치원",128.954982,35.99005258,경북 영천시 망정동 461,http://place.map.kakao.com/568233230
아이뜰어린이집,"어린이집,유치원",128.9556505,35.98825036,경북 영천시 망정동 462,http://place.map.kakao.com/1802311665
두리어린이집,"어린이집,유치원",128.9554033,35.98735692,경북 영천시 망정동 462-2,http://place.map.kakao.com/17667258
하하하어린이집,"어린이집,유치원",128.9547135,35.9881575,경북 영천시 망정동 462-2,http://place.map.kakao.com/7853272
한솔어린이집,"어린이집,유치원",128.956026,35.99137996,경북 영천시 망정동 409-6,http://place.map.kakao.com/9556929
단포초등학교 병설유치원,"어린이집,유치원",128.9747817,35.98087518,경북 영천시 고경면 단포리 160,http://place.map.kakao.com/8839490
임고 보듬이나눔이어린이집,"어린이집,유치원",128.9739394,36.02109195,경북 영천시 임고면 양항리 616-1,http://place.map.kakao.com/13318253
임고면 어린이집,"어린이집,유치원",128.9737605,36.02156706,경북 영천시 임고면 양항리 616-1,http://place.map.kakao.com/23862851
북안초등학교 병설유치원,"어린이집,유치원",129.0111419,35.91504,경북 영천시 북안면 고지리 580-2,http://place.map.kakao.com/9059851
고경초등학교 병설유치원,"어린이집,유치원",129.0684332,36.0032646,경북 영천시 고경면 동도리 618,http://place.map.kakao.com/9657201
